;FLAVOR:RepRap
;TIME:1419
;Filament used: 0.38247m, 0.264335m
;Layer height: 0.3
;MINX:372.5
;MINY:149.5
;MINZ:0.3
;MAXX:627.5
;MAXY:350.5
;MAXZ:1.6
;LINEARADVANCEPROCESSED
;Generated with Cura_SteamEngine 4.6.2
T0
M190 S50
M104 S210
M104 T1 S175
M109 S210
M109 T1 S175
M82 ;absolute extrusion mode
T0
M104 S200
M109 S200
M98 P"startPrint.g"
M82 ;absolute extrusion mode
G21 ;metric values
G90 ;absolute positioning
M83 ;set extruder to relative mode
M107 ;start with the fan off
M109 S200 B210 F1;activate auto temp min 180 max 210 scaling factor 1 (for PLA)
G28; Home Axis
G29 S1; Z-Probe the bed (requires Z-Probe!)
G1 Z5.0 F9000 ;move the head 5mm up for CYA clearance
G92 E0 ;zero the extruded length
M117 Cleaning...;Put Cleaning message on screen
G1 X-20 Y0 F4000 ; move half way along the front edge
G1 Z1 ; move nozzle close to bed
M109 S200 ; heat nozzle to 200 degC and wait until reached
G4 P1000 ; wait 10 seconds for nozzle length to stabilize
G1 E15 ; extrude 10 mm of filament
G1 Z15 F12000 E5 ; move 15 mm up, fast, while extruding 5mm
G92 E0 ; reset extruder
M117 Printing...;Put printing message on LCD screen
M141 S28
M83 ;relative extrusion mode
G1 F1500 E-0.7
;LAYER_COUNT:2
M572 S0.000000 D1 ;added by LinearAdvanceSettingPlugin
M572 S0.000000 D0 ;added by LinearAdvanceSettingPlugin
;LAYER:0
M107
G1 F300 Z1.2
G0 F4800 X411.141 Y153.511 Z1.2
;TYPE:SKIRT
G1 F300 Z0.3
G1 F1500 E0.7
G1 F600 X412.056 Y153.564 E0.0431
G1 X412.639 Y153.64 E0.02765
G1 X414.073 Y153.868 E0.06828
G1 X416.601 Y154.229 E0.12009
G1 X419.134 Y154.518 E0.11989
G1 X421.631 Y154.733 E0.11786
G1 X424.158 Y154.877 E0.11903
G1 X426.72 Y154.951 E0.12053
G1 X429.236 Y154.953 E0.11832
G1 X431.779 Y154.883 E0.11963
G1 X434.269 Y154.742 E0.11728
G1 X436.817 Y154.527 E0.12025
G1 X439.342 Y154.242 E0.1195
G1 X441.844 Y153.888 E0.11883
G1 X443.261 Y153.654 E0.06754
G1 X444.562 Y153.522 E0.0615
G1 X444.92 Y153.508 E0.01685
G1 X445.33 Y153.5 E0.01928
G1 X608.293 Y153.5 E7.66356
G1 X609.126 Y153.51 E0.03918
G1 X610.041 Y153.562 E0.0431
G1 X610.948 Y153.693 E0.0431
G1 X611.84 Y153.903 E0.04309
G1 X612.71 Y154.19 E0.04308
G1 X613.552 Y154.551 E0.04308
G1 X614.359 Y154.985 E0.04309
G1 X615.126 Y155.487 E0.04311
G1 X615.845 Y156.055 E0.04309
G1 X616.513 Y156.683 E0.04312
G1 X617.123 Y157.366 E0.04306
G1 X617.671 Y158.1 E0.04308
G1 X618.153 Y158.88 E0.04312
G1 X618.565 Y159.698 E0.04307
G1 X618.905 Y160.549 E0.0431
G1 X619.168 Y161.427 E0.0431
G1 X619.355 Y162.324 E0.04309
G1 X619.462 Y163.234 E0.04309
G1 X619.487 Y163.706 E0.02223
G1 X619.51 Y164.516 E0.03811
G1 X619.622 Y167.089 E0.12111
G1 X619.804 Y169.612 E0.11896
G1 X620.057 Y172.141 E0.11952
G1 X620.38 Y174.638 E0.1184
G1 X620.779 Y177.171 E0.12059
G1 X621.243 Y179.649 E0.11856
G1 X621.766 Y182.069 E0.11643
G1 X622.381 Y184.564 E0.12084
G1 X623.097 Y187.156 E0.12646
G1 X623.302 Y188.049 E0.04309
G1 X623.455 Y189.286 E0.05861
G1 X623.479 Y189.663 E0.01776
G1 X623.5 Y190.33 E0.03138
G1 X623.499 Y213.394 E1.08462
G1 X623.49 Y214.121 E0.03419
G1 X623.439 Y215.036 E0.0431
G1 X623.308 Y215.943 E0.0431
G1 X623.099 Y216.835 E0.04308
G1 X622.812 Y217.705 E0.04308
G1 X622.451 Y218.547 E0.04308
G1 X622.018 Y219.355 E0.04311
G1 X621.516 Y220.121 E0.04307
G1 X620.949 Y220.841 E0.0431
G1 X620.321 Y221.509 E0.04312
G1 X619.638 Y222.119 E0.04306
G1 X618.904 Y222.668 E0.0431
G1 X618.125 Y223.15 E0.04308
G1 X617.307 Y223.563 E0.04309
G1 X616.456 Y223.903 E0.0431
G1 X615.579 Y224.167 E0.04307
G1 X614.682 Y224.354 E0.04309
G1 X613.772 Y224.462 E0.04309
G1 X613.285 Y224.487 E0.02293
G1 X612.67 Y224.5 E0.02893
G1 X537.077 Y224.5 E3.55487
G1 X534.483 Y224.537 E0.122
G1 X531.936 Y224.645 E0.11988
G1 X529.409 Y224.824 E0.11913
G1 X526.888 Y225.074 E0.11914
G1 X524.398 Y225.393 E0.11805
G1 X521.87 Y225.79 E0.12034
G1 X519.399 Y226.249 E0.11819
G1 X516.936 Y226.779 E0.11848
G1 X514.478 Y227.382 E0.11902
G1 X512.014 Y228.059 E0.12017
G1 X509.594 Y228.8 E0.11902
G1 X507.207 Y229.605 E0.11846
G1 X504.829 Y230.483 E0.11921
G1 X502.488 Y231.423 E0.11863
G1 X500.148 Y232.441 E0.12
G1 X497.871 Y233.508 E0.11825
G1 X495.594 Y234.654 E0.11988
G1 X493.371 Y235.855 E0.11882
G1 X491.18 Y237.119 E0.11895
G1 X489.036 Y238.438 E0.11838
G1 X486.915 Y239.827 E0.11923
G1 X484.846 Y241.268 E0.11857
G1 X482.788 Y242.789 E0.12034
G1 X480.809 Y244.339 E0.11821
G1 X478.861 Y245.957 E0.11909
G1 X476.961 Y247.628 E0.11899
G1 X475.095 Y249.363 E0.11982
G1 X473.297 Y251.135 E0.11872
G1 X471.545 Y252.96 E0.11897
G1 X469.858 Y254.822 E0.11816
G1 X468.192 Y256.766 E0.1204
G1 X466.609 Y258.727 E0.11852
G1 X465.083 Y260.729 E0.11838
G1 X463.585 Y262.812 E0.12066
G1 X462.176 Y264.892 E0.11814
G1 X460.827 Y267.013 E0.11821
G1 X459.517 Y269.207 E0.12017
G1 X458.295 Y271.391 E0.11769
G1 X457.108 Y273.661 E0.12046
G1 X456.004 Y275.925 E0.11845
G1 X454.954 Y278.245 E0.11975
G1 X453.977 Y280.577 E0.1189
G1 X453.065 Y282.93 E0.11867
G1 X452.226 Y285.306 E0.1185
G1 X451.443 Y287.732 E0.11988
G1 X450.733 Y290.164 E0.11914
G1 X450.095 Y292.607 E0.11874
G1 X449.528 Y295.061 E0.11844
G1 X449.017 Y297.587 E0.12119
G1 X448.599 Y300.024 E0.11628
G1 X448.238 Y302.542 E0.11962
G1 X447.947 Y305.084 E0.12032
G1 X447.733 Y307.566 E0.11715
G1 X447.584 Y310.147 E0.12158
G1 X447.51 Y312.643 E0.11743
G1 X447.5 Y314.076 E0.06739
G1 X447.499 Y331.408 E0.81506
G1 X447.489 Y332.135 E0.03419
G1 X447.436 Y333.05 E0.0431
G1 X447.304 Y333.957 E0.0431
G1 X447.094 Y334.849 E0.04309
G1 X446.806 Y335.719 E0.0431
G1 X446.444 Y336.56 E0.04306
G1 X446.009 Y337.367 E0.04311
G1 X445.506 Y338.133 E0.04309
G1 X444.938 Y338.852 E0.04309
G1 X444.31 Y339.519 E0.04308
G1 X443.626 Y340.128 E0.04307
G1 X442.891 Y340.676 E0.04311
G1 X442.111 Y341.157 E0.04309
G1 X441.293 Y341.569 E0.04307
G1 X440.441 Y341.908 E0.04312
G1 X439.564 Y342.171 E0.04306
G1 X438.666 Y342.356 E0.04312
G1 X437.756 Y342.463 E0.04309
G1 X437.294 Y342.487 E0.02176
G1 X436.475 Y342.511 E0.03853
G1 X433.911 Y342.622 E0.12069
G1 X431.388 Y342.804 E0.11896
G1 X428.859 Y343.057 E0.11952
G1 X426.362 Y343.38 E0.1184
G1 X423.829 Y343.779 E0.12059
G1 X421.351 Y344.243 E0.11856
G1 X418.931 Y344.766 E0.11643
G1 X416.436 Y345.381 E0.12084
G1 X413.844 Y346.097 E0.12646
G1 X412.951 Y346.302 E0.04309
G1 X411.714 Y346.455 E0.05861
G1 X411.337 Y346.479 E0.01776
G1 X410.67 Y346.5 E0.03138
G1 X387.572 Y346.499 E1.08622
G1 X386.874 Y346.49 E0.03283
G1 X385.959 Y346.438 E0.0431
G1 X385.052 Y346.307 E0.0431
G1 X384.16 Y346.097 E0.04309
G1 X383.29 Y345.81 E0.04308
G1 X382.448 Y345.449 E0.04308
G1 X381.641 Y345.015 E0.04309
G1 X380.874 Y344.513 E0.04311
G1 X380.155 Y343.945 E0.04309
G1 X379.487 Y343.317 E0.04312
G1 X378.877 Y342.634 E0.04306
G1 X378.329 Y341.9 E0.04308
G1 X377.847 Y341.12 E0.04312
G1 X377.435 Y340.302 E0.04307
G1 X377.095 Y339.451 E0.0431
G1 X376.832 Y338.573 E0.0431
G1 X376.645 Y337.676 E0.04309
G1 X376.538 Y336.766 E0.04309
G1 X376.513 Y336.275 E0.02312
G1 X376.5 Y335.658 E0.02902
G1 X376.5 Y164.674 E8.04076
G1 X376.501 Y164.516 E0.00743
G1 X376.511 Y163.851 E0.03128
G1 X376.565 Y162.936 E0.0431
G1 X376.698 Y162.03 E0.04306
G1 X376.91 Y161.138 E0.04312
G1 X377.199 Y160.269 E0.04307
G1 X377.562 Y159.428 E0.04308
G1 X377.998 Y158.621 E0.04313
G1 X378.502 Y157.856 E0.04308
G1 X379.07 Y157.138 E0.04305
G1 X379.7 Y156.472 E0.04311
G1 X380.385 Y155.863 E0.0431
G1 X381.12 Y155.317 E0.04306
G1 X381.9 Y154.836 E0.04309
G1 X382.72 Y154.426 E0.04311
G1 X383.571 Y154.088 E0.04306
G1 X384.449 Y153.826 E0.04309
G1 X385.347 Y153.642 E0.04311
G1 X386.715 Y153.513 E0.06462
G1 X387.33 Y153.5 E0.02893
G1 X410.443 Y153.501 E1.08692
G1 X411.141 Y153.511 E0.03283
G0 F4800 X411.156 Y152.511
G1 F600 X412.113 Y152.565 E0.04508
G1 X412.796 Y152.652 E0.03238
G1 X414.248 Y152.883 E0.06914
G1 X416.71 Y153.234 E0.11695
G1 X419.23 Y153.522 E0.11928
G1 X421.737 Y153.738 E0.11833
G1 X424.208 Y153.878 E0.11639
G1 X426.715 Y153.951 E0.11795
G1 X429.209 Y153.953 E0.11728
G1 X431.728 Y153.883 E0.11851
G1 X434.238 Y153.742 E0.11822
G1 X436.723 Y153.532 E0.11728
G1 X439.201 Y153.253 E0.11727
G1 X441.713 Y152.897 E0.11931
G1 X443.098 Y152.668 E0.06602
G1 X444.523 Y152.523 E0.06736
G1 X444.881 Y152.509 E0.01685
G1 X445.33 Y152.5 E0.02112
G1 X608.293 Y152.5 E7.66356
G1 X609.139 Y152.51 E0.03979
G1 X610.097 Y152.562 E0.04512
G1 X611.047 Y152.694 E0.0451
G1 X611.982 Y152.905 E0.04508
G1 X612.897 Y153.193 E0.04511
G1 X613.785 Y153.556 E0.04511
G1 X614.639 Y153.991 E0.04507
G1 X615.454 Y154.497 E0.04511
G1 X616.224 Y155.068 E0.04508
G1 X616.944 Y155.702 E0.04511
G1 X617.608 Y156.393 E0.04507
G1 X618.213 Y157.138 E0.04513
G1 X618.753 Y157.93 E0.04508
G1 X619.225 Y158.764 E0.04507
G1 X619.627 Y159.635 E0.04511
G1 X619.954 Y160.537 E0.04512
G1 X620.205 Y161.462 E0.04507
G1 X620.379 Y162.405 E0.04509
G1 X620.486 Y163.677 E0.06003
G1 X620.508 Y164.452 E0.03646
G1 X620.621 Y167.044 E0.12201
G1 X620.799 Y169.512 E0.11636
G1 X621.054 Y172.055 E0.12019
G1 X621.369 Y174.496 E0.11574
G1 X621.76 Y176.973 E0.11793
G1 X622.219 Y179.429 E0.1175
G1 X622.747 Y181.869 E0.1174
G1 X623.354 Y184.334 E0.11938
G1 X624.06 Y186.889 E0.12466
G1 X624.277 Y187.823 E0.04509
G1 X624.453 Y189.222 E0.06631
G1 X624.477 Y189.599 E0.01776
G1 X624.5 Y190.33 E0.03439
G1 X624.499 Y213.406 E1.08518
G1 X624.49 Y214.133 E0.03419
G1 X624.438 Y215.091 E0.04512
G1 X624.307 Y216.041 E0.0451
G1 X624.097 Y216.976 E0.04507
G1 X623.809 Y217.891 E0.04511
G1 X623.447 Y218.779 E0.0451
G1 X623.012 Y219.634 E0.04511
G1 X622.507 Y220.449 E0.04509
G1 X621.935 Y221.219 E0.04511
G1 X621.302 Y221.939 E0.04508
G1 X620.611 Y222.604 E0.0451
G1 X619.867 Y223.209 E0.0451
G1 X619.075 Y223.75 E0.0451
G1 X618.241 Y224.223 E0.04509
G1 X617.37 Y224.625 E0.04511
G1 X616.469 Y224.952 E0.04507
G1 X615.544 Y225.204 E0.04508
G1 X614.6 Y225.378 E0.04514
G1 X613.313 Y225.486 E0.06074
G1 X612.67 Y225.5 E0.03025
G1 X537.092 Y225.5 E3.55416
G1 X534.505 Y225.537 E0.12167
G1 X531.979 Y225.644 E0.1189
G1 X529.507 Y225.819 E0.11654
G1 X527.007 Y226.067 E0.11814
G1 X524.539 Y226.383 E0.11701
G1 X522.033 Y226.777 E0.1193
G1 X519.61 Y227.227 E0.11589
G1 X517.142 Y227.758 E0.11872
G1 X514.73 Y228.35 E0.11679
G1 X512.297 Y229.018 E0.11865
G1 X509.922 Y229.746 E0.11682
G1 X507.514 Y230.558 E0.1195
G1 X505.2 Y231.411 E0.11598
G1 X502.871 Y232.347 E0.11804
G1 X500.568 Y233.349 E0.11811
G1 X498.298 Y234.413 E0.11789
G1 X496.057 Y235.54 E0.11796
G1 X493.858 Y236.729 E0.11756
G1 X491.7 Y237.974 E0.11716
G1 X489.578 Y239.279 E0.11715
G1 X487.457 Y240.668 E0.11923
G1 X485.424 Y242.084 E0.11651
G1 X483.41 Y243.572 E0.11776
G1 X481.427 Y245.126 E0.11848
G1 X479.509 Y246.718 E0.11722
G1 X477.631 Y248.37 E0.11762
G1 X475.789 Y250.083 E0.11829
G1 X474.013 Y251.833 E0.11725
G1 X472.267 Y253.653 E0.1186
G1 X470.599 Y255.493 E0.11679
G1 X468.973 Y257.391 E0.11753
G1 X467.391 Y259.35 E0.11841
G1 X465.881 Y261.331 E0.11714
G1 X464.409 Y263.378 E0.11857
G1 X463.027 Y265.419 E0.11591
G1 X461.666 Y267.558 E0.11923
G1 X460.391 Y269.693 E0.11694
G1 X459.167 Y271.881 E0.1179
G1 X457.998 Y274.115 E0.11857
G1 X456.913 Y276.341 E0.11645
G1 X455.872 Y278.641 E0.11872
G1 X454.911 Y280.934 E0.11692
G1 X453.999 Y283.288 E0.11872
G1 X453.164 Y285.652 E0.1179
G1 X452.409 Y287.994 E0.11572
G1 X451.7 Y290.423 E0.11899
G1 X451.061 Y292.868 E0.11884
G1 X450.505 Y295.275 E0.11617
G1 X450.005 Y297.746 E0.11856
G1 X449.584 Y300.199 E0.11704
G1 X449.228 Y302.686 E0.11815
G1 X448.942 Y305.177 E0.11791
G1 X448.73 Y307.638 E0.11616
G1 X448.584 Y310.165 E0.11903
G1 X448.51 Y312.679 E0.11828
G1 X448.5 Y314.083 E0.06603
G1 X448.499 Y331.422 E0.81539
G1 X448.489 Y332.149 E0.03419
G1 X448.436 Y333.107 E0.04512
G1 X448.303 Y334.056 E0.04506
G1 X448.092 Y334.992 E0.04512
G1 X447.803 Y335.906 E0.04508
G1 X447.439 Y336.794 E0.04513
G1 X447.003 Y337.647 E0.04505
G1 X446.497 Y338.462 E0.04511
G1 X445.924 Y339.231 E0.0451
G1 X445.29 Y339.951 E0.04511
G1 X444.598 Y340.615 E0.0451
G1 X443.853 Y341.218 E0.04507
G1 X443.061 Y341.758 E0.04508
G1 X442.226 Y342.23 E0.04511
G1 X441.354 Y342.631 E0.04514
G1 X440.453 Y342.957 E0.04506
G1 X439.527 Y343.208 E0.04512
G1 X438.584 Y343.38 E0.04508
G1 X437.323 Y343.486 E0.05951
G1 X436.546 Y343.508 E0.03655
G1 X433.954 Y343.621 E0.12201
G1 X431.491 Y343.799 E0.11613
G1 X428.945 Y344.054 E0.12033
G1 X426.504 Y344.369 E0.11574
G1 X424.027 Y344.76 E0.11793
G1 X421.571 Y345.219 E0.1175
G1 X419.131 Y345.747 E0.1174
G1 X416.666 Y346.354 E0.11938
G1 X414.111 Y347.06 E0.12466
G1 X413.177 Y347.277 E0.04509
G1 X411.778 Y347.453 E0.06631
G1 X411.401 Y347.477 E0.01776
G1 X410.67 Y347.5 E0.03439
G1 X387.559 Y347.499 E1.08683
G1 X386.861 Y347.49 E0.03283
G1 X385.903 Y347.438 E0.04512
G1 X384.953 Y347.306 E0.0451
G1 X384.018 Y347.095 E0.04508
G1 X383.103 Y346.807 E0.04511
G1 X382.215 Y346.444 E0.04511
G1 X381.361 Y346.009 E0.04507
G1 X380.546 Y345.503 E0.04511
G1 X379.776 Y344.932 E0.04508
G1 X379.056 Y344.298 E0.04511
G1 X378.392 Y343.607 E0.04507
G1 X377.787 Y342.862 E0.04513
G1 X377.247 Y342.07 E0.04508
G1 X376.775 Y341.236 E0.04507
G1 X376.373 Y340.365 E0.04511
G1 X376.046 Y339.463 E0.04512
G1 X375.795 Y338.538 E0.04507
G1 X375.621 Y337.595 E0.04509
G1 X375.513 Y336.302 E0.06102
G1 X375.5 Y335.658 E0.03029
G1 X375.5 Y164.674 E8.04076
G1 X375.501 Y164.501 E0.00814
G1 X375.511 Y163.836 E0.03128
G1 X375.566 Y162.879 E0.04508
G1 X375.7 Y161.929 E0.04512
G1 X375.912 Y160.994 E0.04509
G1 X376.202 Y160.08 E0.04509
G1 X376.567 Y159.193 E0.04511
G1 X377.005 Y158.34 E0.04509
G1 X377.512 Y157.526 E0.0451
G1 X378.085 Y156.757 E0.0451
G1 X378.72 Y156.039 E0.04508
G1 X379.413 Y155.376 E0.0451
G1 X380.159 Y154.773 E0.04511
G1 X380.952 Y154.234 E0.04509
G1 X381.787 Y153.763 E0.04508
G1 X382.659 Y153.364 E0.0451
G1 X383.561 Y153.038 E0.0451
G1 X384.487 Y152.789 E0.04509
G1 X385.431 Y152.618 E0.04512
G1 X386.687 Y152.514 E0.05927
G1 X387.33 Y152.5 E0.03025
G1 X410.458 Y152.501 E1.08763
G1 X411.156 Y152.511 E0.03283
G0 F4800 X411.17 Y151.511
G1 F600 X412.168 Y151.566 E0.047
G1 X412.953 Y151.665 E0.03721
G1 X414.352 Y151.887 E0.06661
G1 X416.862 Y152.246 E0.11924
G1 X419.319 Y152.526 E0.11629
G1 X421.776 Y152.738 E0.11597
G1 X424.259 Y152.879 E0.11695
G1 X426.744 Y152.951 E0.11691
G1 X429.217 Y152.953 E0.1163
G1 X431.68 Y152.885 E0.11587
G1 X434.131 Y152.747 E0.11544
G1 X436.637 Y152.535 E0.11827
G1 X439.085 Y152.259 E0.11585
G1 X441.552 Y151.91 E0.11717
G1 X442.936 Y151.681 E0.06597
G1 X443.928 Y151.558 E0.04701
G1 X444.484 Y151.524 E0.0262
G1 X444.842 Y151.51 E0.01685
G1 X445.33 Y151.5 E0.02295
G1 X608.293 Y151.5 E7.66356
G1 X609.152 Y151.51 E0.0404
G1 X610.151 Y151.563 E0.04705
G1 X611.142 Y151.695 E0.04701
G1 X612.119 Y151.907 E0.04701
G1 X613.076 Y152.195 E0.047
G1 X614.007 Y152.56 E0.04703
G1 X614.906 Y152.997 E0.04701
G1 X615.767 Y153.505 E0.04701
G1 X616.585 Y154.08 E0.04702
G1 X617.354 Y154.719 E0.04702
G1 X618.07 Y155.417 E0.04702
G1 X618.728 Y156.17 E0.04703
G1 X619.323 Y156.973 E0.047
G1 X619.852 Y157.822 E0.04704
G1 X620.312 Y158.709 E0.04699
G1 X620.699 Y159.631 E0.04702
G1 X621.012 Y160.581 E0.04704
G1 X621.247 Y161.552 E0.04698
G1 X621.404 Y162.54 E0.04705
G1 X621.486 Y163.648 E0.05225
G1 X621.509 Y164.45 E0.03773
G1 X621.619 Y166.963 E0.11829
G1 X621.797 Y169.447 E0.11711
G1 X622.047 Y171.934 E0.11754
G1 X622.359 Y174.353 E0.1147
G1 X622.747 Y176.815 E0.11721
G1 X623.202 Y179.244 E0.11621
G1 X623.718 Y181.628 E0.11471
G1 X624.321 Y184.079 E0.1187
G1 X625.024 Y186.623 E0.12412
G1 X625.252 Y187.596 E0.047
G1 X625.401 Y188.585 E0.04703
G1 X625.451 Y189.159 E0.0271
G1 X625.475 Y189.536 E0.01776
G1 X625.5 Y190.33 E0.03736
G1 X625.499 Y213.419 E1.08579
G1 X625.49 Y214.146 E0.03419
G1 X625.438 Y215.144 E0.047
G1 X625.306 Y216.135 E0.04701
G1 X625.095 Y217.113 E0.04705
G1 X624.807 Y218.07 E0.047
G1 X624.443 Y219.001 E0.04701
G1 X624.006 Y219.9 E0.04701
G1 X623.498 Y220.762 E0.04705
G1 X622.924 Y221.58 E0.04699
G1 X622.285 Y222.349 E0.04702
G1 X621.588 Y223.066 E0.04702
G1 X620.835 Y223.724 E0.04703
G1 X620.032 Y224.319 E0.047
G1 X619.184 Y224.849 E0.04703
G1 X618.296 Y225.309 E0.04703
G1 X617.375 Y225.697 E0.047
G1 X616.425 Y226.01 E0.04704
G1 X615.454 Y226.246 E0.04699
G1 X614.467 Y226.404 E0.04701
G1 X613.341 Y226.486 E0.05309
G1 X612.67 Y226.5 E0.03156
G1 X537.106 Y226.5 E3.5535
G1 X534.525 Y226.537 E0.12139
G1 X532.055 Y226.641 E0.11626
G1 X529.569 Y226.818 E0.1172
G1 X527.13 Y227.059 E0.11526
G1 X524.68 Y227.373 E0.11616
G1 X522.195 Y227.763 E0.11829
G1 X519.794 Y228.21 E0.11485
G1 X517.373 Y228.731 E0.11646
G1 X514.982 Y229.317 E0.11577
G1 X512.58 Y229.977 E0.11714
G1 X510.208 Y230.704 E0.11667
G1 X507.895 Y231.484 E0.11479
G1 X505.542 Y232.352 E0.11794
G1 X503.223 Y233.283 E0.11751
G1 X500.989 Y234.255 E0.11457
G1 X498.738 Y235.31 E0.11691
G1 X496.522 Y236.425 E0.11666
G1 X494.369 Y237.589 E0.1151
G1 X492.209 Y238.835 E0.11727
G1 X490.095 Y240.135 E0.11671
G1 X488.046 Y241.477 E0.11518
G1 X485.979 Y242.917 E0.11847
G1 X484.027 Y244.359 E0.11413
G1 X482.05 Y245.908 E0.11811
G1 X480.176 Y247.465 E0.11458
G1 X478.284 Y249.128 E0.11846
G1 X476.483 Y250.803 E0.11566
G1 X474.729 Y252.531 E0.11579
G1 X473.006 Y254.328 E0.11708
G1 X471.34 Y256.165 E0.11662
G1 X469.739 Y258.033 E0.11569
G1 X468.187 Y259.956 E0.11621
G1 X466.684 Y261.928 E0.1166
G1 X465.234 Y263.943 E0.11674
G1 X463.851 Y265.986 E0.11602
G1 X462.526 Y268.068 E0.11605
G1 X461.252 Y270.202 E0.11688
G1 X460.045 Y272.359 E0.11624
G1 X458.896 Y274.555 E0.11655
G1 X457.822 Y276.76 E0.11534
G1 X456.784 Y279.051 E0.11828
G1 X455.845 Y281.292 E0.11426
G1 X454.934 Y283.646 E0.1187
G1 X454.115 Y285.965 E0.11566
G1 X453.362 Y288.297 E0.11524
G1 X452.657 Y290.713 E0.11835
G1 X452.044 Y293.061 E0.11412
G1 X451.476 Y295.516 E0.1185
G1 X450.985 Y297.943 E0.11645
G1 X450.576 Y300.329 E0.11384
G1 X450.222 Y302.8 E0.11739
G1 X449.938 Y305.27 E0.11692
G1 X449.725 Y307.748 E0.11696
G1 X449.584 Y310.179 E0.11451
G1 X449.51 Y312.716 E0.11936
G1 X449.5 Y314.091 E0.06466
G1 X449.499 Y331.436 E0.81567
G1 X449.489 Y332.163 E0.03419
G1 X449.435 Y333.161 E0.047
G1 X449.302 Y334.152 E0.04702
G1 X449.09 Y335.129 E0.04701
G1 X448.8 Y336.086 E0.04703
G1 X448.435 Y337.017 E0.04703
G1 X447.997 Y337.916 E0.04703
G1 X447.488 Y338.776 E0.047
G1 X446.912 Y339.594 E0.04705
G1 X446.273 Y340.362 E0.04698
G1 X445.574 Y341.077 E0.04702
G1 X444.821 Y341.734 E0.04699
G1 X444.017 Y342.329 E0.04704
G1 X443.168 Y342.857 E0.04702
G1 X442.28 Y343.316 E0.04701
G1 X441.358 Y343.703 E0.04702
G1 X440.408 Y344.015 E0.04702
G1 X439.436 Y344.249 E0.04702
G1 X438.448 Y344.406 E0.04705
G1 X437.352 Y344.486 E0.05168
G1 X436.551 Y344.509 E0.03768
G1 X434.034 Y344.619 E0.11848
G1 X431.556 Y344.797 E0.11683
G1 X429.066 Y345.047 E0.11768
G1 X426.647 Y345.359 E0.1147
G1 X424.185 Y345.747 E0.11721
G1 X421.756 Y346.202 E0.11621
G1 X419.372 Y346.718 E0.11471
G1 X416.921 Y347.321 E0.1187
G1 X414.377 Y348.024 E0.12412
G1 X413.404 Y348.252 E0.047
G1 X412.415 Y348.401 E0.04703
G1 X411.841 Y348.451 E0.0271
G1 X411.464 Y348.475 E0.01776
G1 X410.67 Y348.5 E0.03736
G1 X387.546 Y348.499 E1.08744
G1 X386.848 Y348.49 E0.03283
G1 X385.849 Y348.437 E0.04705
G1 X384.858 Y348.305 E0.04701
G1 X383.881 Y348.093 E0.04701
G1 X382.924 Y347.805 E0.047
G1 X381.993 Y347.44 E0.04703
G1 X381.094 Y347.003 E0.04701
G1 X380.233 Y346.495 E0.04701
G1 X379.415 Y345.92 E0.04702
G1 X378.646 Y345.281 E0.04702
G1 X377.93 Y344.583 E0.04702
G1 X377.272 Y343.83 E0.04703
G1 X376.677 Y343.027 E0.047
G1 X376.148 Y342.178 E0.04704
G1 X375.688 Y341.291 E0.04699
G1 X375.301 Y340.369 E0.04702
G1 X374.988 Y339.419 E0.04704
G1 X374.753 Y338.448 E0.04698
G1 X374.596 Y337.46 E0.04705
G1 X374.514 Y336.329 E0.05333
G1 X374.5 Y335.658 E0.03156
G1 X374.5 Y164.674 E8.04076
G1 X374.501 Y164.486 E0.00884
G1 X374.511 Y163.821 E0.03128
G1 X374.566 Y162.823 E0.047
G1 X374.701 Y161.832 E0.04703
G1 X374.914 Y160.855 E0.04702
G1 X375.205 Y159.899 E0.04699
G1 X375.571 Y158.968 E0.04704
G1 X376.011 Y158.07 E0.04703
G1 X376.521 Y157.21 E0.04702
G1 X377.098 Y156.394 E0.047
G1 X377.738 Y155.626 E0.04701
G1 X378.437 Y154.912 E0.04699
G1 X379.192 Y154.256 E0.04703
G1 X379.996 Y153.662 E0.04701
G1 X380.846 Y153.135 E0.04703
G1 X381.735 Y152.677 E0.04703
G1 X382.657 Y152.291 E0.047
G1 X383.608 Y151.981 E0.04704
G1 X384.58 Y151.748 E0.047
G1 X385.567 Y151.593 E0.04698
G1 X386.659 Y151.514 E0.05149
G1 X387.33 Y151.5 E0.03156
G1 X410.472 Y151.501 E1.08828
G1 X411.17 Y151.511 E0.03283
G0 F4800 X411.184 Y150.511
G1 F600 X412.222 Y150.566 E0.04888
G1 X413.109 Y150.677 E0.04204
G1 X414.517 Y150.901 E0.06705
G1 X416.971 Y151.251 E0.11657
G1 X419.45 Y151.534 E0.11734
G1 X421.847 Y151.74 E0.11314
G1 X424.309 Y151.881 E0.11597
G1 X426.739 Y151.951 E0.11432
G1 X429.19 Y151.953 E0.11526
G1 X431.631 Y151.886 E0.11483
G1 X434.097 Y151.747 E0.11615
G1 X436.512 Y151.543 E0.11397
G1 X438.939 Y151.269 E0.11486
G1 X441.421 Y150.917 E0.11789
G1 X442.773 Y150.694 E0.06444
G1 X443.804 Y150.565 E0.04886
G1 X444.444 Y150.524 E0.03016
G1 X444.802 Y150.51 E0.01685
G1 X445.33 Y150.5 E0.02483
G1 X608.293 Y150.5 E7.66356
G1 X609.165 Y150.51 E0.04101
G1 X610.203 Y150.563 E0.04888
G1 X611.233 Y150.697 E0.04885
G1 X612.25 Y150.908 E0.04884
G1 X613.248 Y151.198 E0.04887
G1 X614.221 Y151.563 E0.04887
G1 X615.163 Y152.002 E0.04887
G1 X616.068 Y152.513 E0.04887
G1 X616.931 Y153.091 E0.04885
G1 X617.747 Y153.734 E0.04886
G1 X618.512 Y154.438 E0.04889
G1 X619.219 Y155.198 E0.04881
G1 X619.867 Y156.011 E0.04889
G1 X620.45 Y156.871 E0.04886
G1 X620.965 Y157.774 E0.04889
G1 X621.409 Y158.713 E0.04885
G1 X621.779 Y159.684 E0.04887
G1 X622.074 Y160.68 E0.04885
G1 X622.291 Y161.696 E0.04886
G1 X622.43 Y162.726 E0.04888
G1 X622.485 Y163.619 E0.04207
G1 X622.507 Y164.376 E0.03561
G1 X622.618 Y166.921 E0.1198
G1 X622.792 Y169.343 E0.11419
G1 X623.039 Y171.812 E0.11669
G1 X623.35 Y174.216 E0.11399
G1 X623.733 Y176.646 E0.11568
G1 X624.178 Y179.024 E0.11377
G1 X624.698 Y181.427 E0.11562
G1 X625.288 Y183.825 E0.11613
G1 X625.988 Y186.357 E0.12354
G1 X626.226 Y187.368 E0.04884
G1 X626.386 Y188.395 E0.04888
G1 X626.449 Y189.095 E0.03305
G1 X626.473 Y189.472 E0.01776
G1 X626.5 Y190.33 E0.04037
G1 X626.499 Y213.431 E1.08636
G1 X626.49 Y214.158 E0.03419
G1 X626.437 Y215.196 E0.04888
G1 X626.305 Y216.226 E0.04883
G1 X626.093 Y217.244 E0.0489
G1 X625.804 Y218.242 E0.04886
G1 X625.439 Y219.215 E0.04887
G1 X625.001 Y220.157 E0.04885
G1 X624.491 Y221.062 E0.04885
G1 X623.913 Y221.925 E0.04885
G1 X623.271 Y222.742 E0.04886
G1 X622.567 Y223.507 E0.04889
G1 X621.807 Y224.215 E0.04885
G1 X620.995 Y224.863 E0.04885
G1 X620.135 Y225.446 E0.04886
G1 X619.233 Y225.961 E0.04884
G1 X618.293 Y226.406 E0.04891
G1 X617.323 Y226.777 E0.04884
G1 X616.327 Y227.072 E0.04885
G1 X615.311 Y227.29 E0.04887
G1 X614.281 Y227.429 E0.04888
G1 X613.369 Y227.486 E0.04297
G1 X613.048 Y227.495 E0.0151
G1 X612.67 Y227.5 E0.01778
G1 X537.12 Y227.5 E3.55284
G1 X534.547 Y227.536 E0.12101
G1 X532.098 Y227.64 E0.11527
G1 X529.668 Y227.813 E0.11456
G1 X527.249 Y228.052 E0.11431
G1 X524.786 Y228.368 E0.11678
G1 X522.42 Y228.739 E0.11262
G1 X519.977 Y229.194 E0.11686
G1 X517.579 Y229.71 E0.11535
G1 X515.235 Y230.285 E0.1135
G1 X512.863 Y230.936 E0.11567
G1 X510.536 Y231.649 E0.11445
G1 X508.202 Y232.436 E0.11583
G1 X505.901 Y233.285 E0.11534
G1 X503.63 Y234.197 E0.11509
G1 X501.41 Y235.163 E0.11385
G1 X499.18 Y236.208 E0.11581
G1 X496.959 Y237.326 E0.11693
G1 X494.856 Y238.463 E0.11243
G1 X492.729 Y239.689 E0.11545
G1 X490.637 Y240.976 E0.11551
G1 X488.594 Y242.314 E0.11485
G1 X486.591 Y243.709 E0.11479
G1 X484.604 Y245.177 E0.11618
G1 X482.672 Y246.691 E0.11543
G1 X480.824 Y248.226 E0.11297
G1 X478.975 Y249.852 E0.11579
G1 X477.158 Y251.542 E0.11669
G1 X475.446 Y253.228 E0.113
G1 X473.745 Y255.001 E0.11554
G1 X472.098 Y256.819 E0.11536
G1 X470.503 Y258.68 E0.11526
G1 X468.973 Y260.574 E0.1145
G1 X467.483 Y262.53 E0.11563
G1 X466.064 Y264.502 E0.11425
G1 X464.675 Y266.554 E0.11653
G1 X463.381 Y268.588 E0.11337
G1 X462.111 Y270.715 E0.1165
G1 X460.925 Y272.834 E0.1142
G1 X459.787 Y275.01 E0.11548
G1 X458.724 Y277.191 E0.1141
G1 X457.71 Y279.43 E0.11559
G1 X456.759 Y281.7 E0.11574
G1 X455.867 Y284.004 E0.11619
G1 X455.075 Y286.245 E0.11177
G1 X454.305 Y288.632 E0.11795
G1 X453.635 Y290.93 E0.11257
G1 X453.007 Y293.33 E0.11666
G1 X452.462 Y295.688 E0.11381
G1 X451.967 Y298.141 E0.11768
G1 X451.562 Y300.493 E0.11223
G1 X451.21 Y302.954 E0.11691
G1 X450.934 Y305.36 E0.11389
G1 X450.725 Y307.785 E0.11446
G1 X450.582 Y310.267 E0.11691
G1 X450.51 Y312.707 E0.11479
G1 X450.5 Y314.098 E0.06542
G1 X450.499 Y331.45 E0.816
G1 X450.489 Y332.177 E0.03419
G1 X450.434 Y333.214 E0.04883
G1 X450.301 Y334.245 E0.04889
G1 X450.088 Y335.262 E0.04886
G1 X449.797 Y336.259 E0.04884
G1 X449.431 Y337.232 E0.04889
G1 X448.991 Y338.173 E0.04885
G1 X448.48 Y339.078 E0.04887
G1 X447.901 Y339.94 E0.04883
G1 X447.258 Y340.756 E0.04886
G1 X446.553 Y341.52 E0.04889
G1 X445.792 Y342.227 E0.04885
G1 X444.979 Y342.874 E0.04886
G1 X444.118 Y343.456 E0.04887
G1 X443.215 Y343.97 E0.04886
G1 X442.275 Y344.413 E0.04887
G1 X441.304 Y344.783 E0.04887
G1 X440.308 Y345.077 E0.04884
G1 X439.291 Y345.293 E0.04889
G1 X438.262 Y345.431 E0.04882
G1 X437.38 Y345.485 E0.04155
G1 X436.624 Y345.507 E0.03557
G1 X434.08 Y345.618 E0.11975
G1 X431.656 Y345.792 E0.11429
G1 X429.188 Y346.039 E0.11664
G1 X426.784 Y346.35 E0.11399
G1 X424.354 Y346.733 E0.11568
G1 X421.976 Y347.178 E0.11377
G1 X419.573 Y347.698 E0.11562
G1 X417.175 Y348.288 E0.11613
G1 X414.643 Y348.988 E0.12354
G1 X413.632 Y349.226 E0.04884
G1 X412.605 Y349.386 E0.04888
G1 X411.905 Y349.449 E0.03305
G1 X411.528 Y349.473 E0.01776
G1 X410.67 Y349.5 E0.04037
G1 X387.533 Y349.499 E1.08805
G1 X386.835 Y349.49 E0.03283
G1 X385.797 Y349.437 E0.04888
G1 X384.767 Y349.303 E0.04885
G1 X383.75 Y349.092 E0.04884
G1 X382.752 Y348.802 E0.04887
G1 X381.779 Y348.437 E0.04887
G1 X380.837 Y347.998 E0.04887
G1 X379.932 Y347.487 E0.04887
G1 X379.069 Y346.909 E0.04885
G1 X378.253 Y346.266 E0.04886
G1 X377.488 Y345.562 E0.04889
G1 X376.781 Y344.802 E0.04881
G1 X376.133 Y343.989 E0.04889
G1 X375.55 Y343.129 E0.04886
G1 X375.035 Y342.226 E0.04889
G1 X374.591 Y341.287 E0.04885
G1 X374.221 Y340.316 E0.04887
G1 X373.926 Y339.32 E0.04885
G1 X373.709 Y338.304 E0.04886
G1 X373.57 Y337.274 E0.04888
G1 X373.514 Y336.356 E0.04325
G1 X373.5 Y335.658 E0.03283
G1 X373.5 Y164.674 E8.04076
G1 X373.512 Y163.806 E0.04082
G1 X373.567 Y162.768 E0.04888
G1 X373.702 Y161.738 E0.04885
G1 X373.916 Y160.722 E0.04883
G1 X374.208 Y159.724 E0.0489
G1 X374.575 Y158.752 E0.04886
G1 X375.017 Y157.812 E0.04885
G1 X375.529 Y156.908 E0.04886
G1 X376.109 Y156.046 E0.04886
G1 X376.754 Y155.231 E0.04888
G1 X377.459 Y154.468 E0.04885
G1 X378.221 Y153.762 E0.04885
G1 X379.035 Y153.116 E0.04887
G1 X379.897 Y152.535 E0.04888
G1 X380.8 Y152.022 E0.04884
G1 X381.741 Y151.58 E0.04889
G1 X382.712 Y151.211 E0.04885
G1 X383.709 Y150.919 E0.04885
G1 X384.726 Y150.704 E0.04888
G1 X385.756 Y150.567 E0.04886
G1 X386.63 Y150.514 E0.04118
G1 X386.95 Y150.505 E0.01505
G1 X387.33 Y150.5 E0.01787
G1 X410.486 Y150.501 E1.08894
G1 X411.184 Y150.511 E0.03283
G1 F1500 E-0.7
G1 F300 Z1.2
;MESH:CalibrationMultiExtruder1
G0 F4800 X388.5 Y165.5 Z1.2
;TYPE:WALL-INNER
G1 F300 Z0.3
G1 F1500 E0.7
G1 F600 X409.5 Y165.5 E0.98755
G1 X409.5 Y166.5 E0.04703
G1 X389.5 Y166.5 E0.94053
G1 X389.5 Y173.9 E0.348
G1 X409.5 Y173.9 E0.94053
G1 X409.5 Y174.9 E0.04703
G1 X389.5 Y174.9 E0.94053
G1 X389.5 Y182.3 E0.348
G1 X409.5 Y182.3 E0.94053
G1 X409.5 Y183.3 E0.04703
G1 X389.5 Y183.3 E0.94053
G1 X389.5 Y190.7 E0.348
G1 X409.5 Y190.7 E0.94053
G1 X409.5 Y191.7 E0.04703
G1 X389.5 Y191.7 E0.94053
G1 X389.5 Y199.1 E0.348
G1 X409.5 Y199.1 E0.94053
G1 X409.5 Y200.1 E0.04703
G1 X389.5 Y200.1 E0.94053
G1 X389.5 Y207.5 E0.348
G1 X409.5 Y207.5 E0.94053
G1 X409.5 Y208.5 E0.04703
G1 X389.5 Y208.5 E0.94053
G1 X389.5 Y215.9 E0.348
G1 X409.5 Y215.9 E0.94053
G1 X409.5 Y216.9 E0.04703
G1 X389.5 Y216.9 E0.94053
G1 X389.5 Y224.3 E0.348
G1 X409.5 Y224.3 E0.94053
G1 X409.5 Y225.3 E0.04703
G1 X389.5 Y225.3 E0.94053
G1 X389.5 Y232.7 E0.348
G1 X409.5 Y232.7 E0.94053
G1 X409.5 Y233.7 E0.04703
G1 X389.5 Y233.7 E0.94053
G1 X389.5 Y241.1 E0.348
G1 X409.5 Y241.1 E0.94053
G1 X409.5 Y242.1 E0.04703
G1 X389.5 Y242.1 E0.94053
G1 X389.5 Y249.5 E0.348
G1 X409.5 Y249.5 E0.94053
G1 X409.5 Y250.5 E0.04703
G1 X389.5 Y250.5 E0.94053
G1 X389.5 Y257.9 E0.348
G1 X409.5 Y257.9 E0.94053
G1 X409.5 Y258.9 E0.04703
G1 X389.5 Y258.9 E0.94053
G1 X389.5 Y266.3 E0.348
G1 X409.5 Y266.3 E0.94053
G1 X409.5 Y267.3 E0.04703
G1 X389.5 Y267.3 E0.94053
G1 X389.5 Y274.7 E0.348
G1 X409.5 Y274.7 E0.94053
G1 X409.5 Y275.7 E0.04703
G1 X389.5 Y275.7 E0.94053
G1 X389.5 Y283.1 E0.348
G1 X409.5 Y283.1 E0.94053
G1 X409.5 Y284.1 E0.04703
G1 X389.5 Y284.1 E0.94053
G1 X389.5 Y291.5 E0.348
G1 X409.5 Y291.5 E0.94053
G1 X409.5 Y292.5 E0.04703
G1 X389.5 Y292.5 E0.94053
G1 X389.5 Y299.9 E0.348
G1 X409.5 Y299.9 E0.94053
G1 X409.5 Y300.9 E0.04703
G1 X389.5 Y300.9 E0.94053
G1 X389.5 Y308.3 E0.348
G1 X409.5 Y308.3 E0.94053
G1 X409.5 Y309.3 E0.04703
G1 X389.5 Y309.3 E0.94053
G1 X389.5 Y316.7 E0.348
G1 X409.5 Y316.7 E0.94053
G1 X409.5 Y317.7 E0.04703
G1 X389.5 Y317.7 E0.94053
G1 X389.5 Y325.1 E0.348
G1 X409.5 Y325.1 E0.94053
G1 X409.5 Y326.1 E0.04703
G1 X389.5 Y326.1 E0.94053
G1 X389.5 Y333.5 E0.348
G1 X409.5 Y333.5 E0.94053
G1 X409.5 Y334.5 E0.04703
G1 X388.5 Y334.5 E0.98755
G1 X388.5 Y165.5 E7.94746
G0 F4800 X387.5 Y164.5
;TYPE:WALL-OUTER
G1 F600 X410.5 Y164.5 E1.08161
G1 X410.5 Y167.5 E0.14108
G1 X390.5 Y167.5 E0.94053
G1 X390.5 Y172.9 E0.25394
G1 X410.5 Y172.9 E0.94053
G1 X410.5 Y175.9 E0.14108
G1 X390.5 Y175.9 E0.94053
G1 X390.5 Y181.3 E0.25394
G1 X410.5 Y181.3 E0.94053
G1 X410.5 Y184.3 E0.14108
G1 X390.5 Y184.3 E0.94053
G1 X390.5 Y189.7 E0.25394
G1 X410.5 Y189.7 E0.94053
G1 X410.5 Y192.7 E0.14108
G1 X390.5 Y192.7 E0.94053
G1 X390.5 Y198.1 E0.25394
G1 X410.5 Y198.1 E0.94053
G1 X410.5 Y201.1 E0.14108
G1 X390.5 Y201.1 E0.94053
G1 X390.5 Y206.5 E0.25394
G1 X410.5 Y206.5 E0.94053
G1 X410.5 Y209.5 E0.14108
G1 X390.5 Y209.5 E0.94053
G1 X390.5 Y214.9 E0.25394
G1 X410.5 Y214.9 E0.94053
G1 X410.5 Y217.9 E0.14108
G1 X390.5 Y217.9 E0.94053
G1 X390.5 Y223.3 E0.25394
G1 X410.5 Y223.3 E0.94053
G1 X410.5 Y226.3 E0.14108
G1 X390.5 Y226.3 E0.94053
G1 X390.5 Y231.7 E0.25394
G1 X410.5 Y231.7 E0.94053
G1 X410.5 Y234.7 E0.14108
G1 X390.5 Y234.7 E0.94053
G1 X390.5 Y240.1 E0.25394
G1 X410.5 Y240.1 E0.94053
G1 X410.5 Y243.1 E0.14108
G1 X390.5 Y243.1 E0.94053
G1 X390.5 Y248.5 E0.25394
G1 X410.5 Y248.5 E0.94053
G1 X410.5 Y251.5 E0.14108
G1 X390.5 Y251.5 E0.94053
G1 X390.5 Y256.9 E0.25394
G1 X410.5 Y256.9 E0.94053
G1 X410.5 Y259.9 E0.14108
G1 X390.5 Y259.9 E0.94053
G1 X390.5 Y265.3 E0.25394
G1 X410.5 Y265.3 E0.94053
G1 X410.5 Y268.3 E0.14108
G1 X390.5 Y268.3 E0.94053
G1 X390.5 Y273.7 E0.25394
G1 X410.5 Y273.7 E0.94053
G1 X410.5 Y276.7 E0.14108
G1 X390.5 Y276.7 E0.94053
G1 X390.5 Y282.1 E0.25394
G1 X410.5 Y282.1 E0.94053
G1 X410.5 Y285.1 E0.14108
G1 X390.5 Y285.1 E0.94053
G1 X390.5 Y290.5 E0.25394
G1 X410.5 Y290.5 E0.94053
G1 X410.5 Y293.5 E0.14108
G1 X390.5 Y293.5 E0.94053
G1 X390.5 Y298.9 E0.25394
G1 X410.5 Y298.9 E0.94053
G1 X410.5 Y301.9 E0.14108
G1 X390.5 Y301.9 E0.94053
G1 X390.5 Y307.3 E0.25394
G1 X410.5 Y307.3 E0.94053
G1 X410.5 Y310.3 E0.14108
G1 X390.5 Y310.3 E0.94053
G1 X390.5 Y315.7 E0.25394
G1 X410.5 Y315.7 E0.94053
G1 X410.5 Y318.7 E0.14108
G1 X390.5 Y318.7 E0.94053
G1 X390.5 Y324.1 E0.25394
G1 X410.5 Y324.1 E0.94053
G1 X410.5 Y327.1 E0.14108
G1 X390.5 Y327.1 E0.94053
G1 X390.5 Y332.5 E0.25394
G1 X410.5 Y332.5 E0.94053
G1 X410.5 Y335.5 E0.14108
G1 X387.5 Y335.5 E1.08161
G1 X387.5 Y164.5 E8.04151
G1 F1500 E-0.7
G1 F300 Z1.2
G0 F4800 X442.5 Y191.5 Z1.2
;TYPE:WALL-INNER
G1 F300 Z0.3
G1 F1500 E0.7
G1 F600 X443.5 Y191.5 E0.04703
G1 X443.5 Y211.5 E0.94053
G1 X450.9 Y211.5 E0.348
G1 X450.9 Y191.5 E0.94053
G1 X451.9 Y191.5 E0.04703
G1 X451.9 Y211.5 E0.94053
G1 X459.3 Y211.5 E0.348
G1 X459.3 Y191.5 E0.94053
G1 X460.3 Y191.5 E0.04703
G1 X460.3 Y211.5 E0.94053
G1 X467.7 Y211.5 E0.348
G1 X467.7 Y191.5 E0.94053
G1 X468.7 Y191.5 E0.04703
G1 X468.7 Y211.5 E0.94053
G1 X476.1 Y211.5 E0.348
G1 X476.1 Y191.5 E0.94053
G1 X477.1 Y191.5 E0.04703
G1 X477.1 Y211.5 E0.94053
G1 X484.5 Y211.5 E0.348
G1 X484.5 Y191.5 E0.94053
G1 X485.5 Y191.5 E0.04703
G1 X485.5 Y211.5 E0.94053
G1 X492.9 Y211.5 E0.348
G1 X492.9 Y191.5 E0.94053
G1 X493.9 Y191.5 E0.04703
G1 X493.9 Y211.5 E0.94053
G1 X501.3 Y211.5 E0.348
G1 X501.3 Y191.5 E0.94053
G1 X502.3 Y191.5 E0.04703
G1 X502.3 Y211.5 E0.94053
G1 X509.7 Y211.5 E0.348
G1 X509.7 Y191.5 E0.94053
G1 X510.7 Y191.5 E0.04703
G1 X510.7 Y211.5 E0.94053
G1 X518.1 Y211.5 E0.348
G1 X518.1 Y191.5 E0.94053
G1 X519.1 Y191.5 E0.04703
G1 X519.1 Y211.5 E0.94053
G1 X526.5 Y211.5 E0.348
G1 X526.5 Y191.5 E0.94053
G1 X527.5 Y191.5 E0.04703
G1 X527.5 Y211.5 E0.94053
G1 X534.9 Y211.5 E0.348
G1 X534.9 Y191.5 E0.94053
G1 X535.9 Y191.5 E0.04703
G1 X535.9 Y211.5 E0.94053
G1 X543.3 Y211.5 E0.348
G1 X543.3 Y191.5 E0.94053
G1 X544.3 Y191.5 E0.04703
G1 X544.3 Y211.5 E0.94053
G1 X551.7 Y211.5 E0.348
G1 X551.7 Y191.5 E0.94053
G1 X552.7 Y191.5 E0.04703
G1 X552.7 Y211.5 E0.94053
G1 X560.1 Y211.5 E0.348
G1 X560.1 Y191.5 E0.94053
G1 X561.1 Y191.5 E0.04703
G1 X561.1 Y211.5 E0.94053
G1 X568.5 Y211.5 E0.348
G1 X568.5 Y191.5 E0.94053
G1 X569.5 Y191.5 E0.04703
G1 X569.5 Y211.5 E0.94053
G1 X576.9 Y211.5 E0.348
G1 X576.9 Y191.5 E0.94053
G1 X577.9 Y191.5 E0.04703
G1 X577.9 Y211.5 E0.94053
G1 X585.3 Y211.5 E0.348
G1 X585.3 Y191.5 E0.94053
G1 X586.3 Y191.5 E0.04703
G1 X586.3 Y211.5 E0.94053
G1 X593.7 Y211.5 E0.348
G1 X593.7 Y191.5 E0.94053
G1 X594.7 Y191.5 E0.04703
G1 X594.7 Y211.5 E0.94053
G1 X602.1 Y211.5 E0.348
G1 X602.1 Y191.5 E0.94053
G1 X603.1 Y191.5 E0.04703
G1 X603.1 Y211.5 E0.94053
G1 X610.5 Y211.5 E0.348
G1 X610.5 Y191.5 E0.94053
G1 X611.5 Y191.5 E0.04703
G1 X611.5 Y212.5 E0.98755
G1 X442.5 Y212.5 E7.94746
G1 X442.5 Y191.5 E0.98755
G0 F4800 X441.5 Y190.5
M104 T1 S200
;TYPE:WALL-OUTER
G1 F600 X444.5 Y190.5 E0.14108
G1 X444.5 Y210.5 E0.94053
G1 X449.9 Y210.5 E0.25394
G1 X449.9 Y190.5 E0.94053
G1 X452.9 Y190.5 E0.14108
G1 X452.9 Y210.5 E0.94053
G1 X458.3 Y210.5 E0.25394
G1 X458.3 Y190.5 E0.94053
G1 X461.3 Y190.5 E0.14108
G1 X461.3 Y210.5 E0.94053
G1 X466.7 Y210.5 E0.25394
G1 X466.7 Y190.5 E0.94053
G1 X469.7 Y190.5 E0.14108
G1 X469.7 Y210.5 E0.94053
G1 X475.1 Y210.5 E0.25394
G1 X475.1 Y190.5 E0.94053
G1 X478.1 Y190.5 E0.14108
G1 X478.1 Y210.5 E0.94053
G1 X483.5 Y210.5 E0.25394
G1 X483.5 Y190.5 E0.94053
G1 X486.5 Y190.5 E0.14108
G1 X486.5 Y210.5 E0.94053
G1 X491.9 Y210.5 E0.25394
G1 X491.9 Y190.5 E0.94053
G1 X494.9 Y190.5 E0.14108
G1 X494.9 Y210.5 E0.94053
G1 X500.3 Y210.5 E0.25394
G1 X500.3 Y190.5 E0.94053
G1 X503.3 Y190.5 E0.14108
G1 X503.3 Y210.5 E0.94053
G1 X508.7 Y210.5 E0.25394
G1 X508.7 Y190.5 E0.94053
G1 X511.7 Y190.5 E0.14108
G1 X511.7 Y210.5 E0.94053
G1 X517.1 Y210.5 E0.25394
G1 X517.1 Y190.5 E0.94053
G1 X520.1 Y190.5 E0.14108
G1 X520.1 Y210.5 E0.94053
G1 X525.5 Y210.5 E0.25394
G1 X525.5 Y190.5 E0.94053
G1 X528.5 Y190.5 E0.14108
G1 X528.5 Y210.5 E0.94053
G1 X533.9 Y210.5 E0.25394
G1 X533.9 Y190.5 E0.94053
G1 X536.9 Y190.5 E0.14108
G1 X536.9 Y210.5 E0.94053
G1 X542.3 Y210.5 E0.25394
G1 X542.3 Y190.5 E0.94053
G1 X545.3 Y190.5 E0.14108
G1 X545.3 Y210.5 E0.94053
G1 X550.7 Y210.5 E0.25394
G1 X550.7 Y190.5 E0.94053
G1 X553.7 Y190.5 E0.14108
G1 X553.7 Y210.5 E0.94053
G1 X559.1 Y210.5 E0.25394
G1 X559.1 Y190.5 E0.94053
G1 X562.1 Y190.5 E0.14108
G1 X562.1 Y210.5 E0.94053
G1 X567.5 Y210.5 E0.25394
G1 X567.5 Y190.5 E0.94053
G1 X570.5 Y190.5 E0.14108
G1 X570.5 Y210.5 E0.94053
G1 X575.9 Y210.5 E0.25394
G1 X575.9 Y190.5 E0.94053
G1 X578.9 Y190.5 E0.14108
G1 X578.9 Y210.5 E0.94053
G1 X584.3 Y210.5 E0.25394
G1 X584.3 Y190.5 E0.94053
G1 X587.3 Y190.5 E0.14108
G1 X587.3 Y210.5 E0.94053
G1 X592.7 Y210.5 E0.25394
G1 X592.7 Y190.5 E0.94053
G1 X595.7 Y190.5 E0.14108
G1 X595.7 Y210.5 E0.94053
G1 X601.1 Y210.5 E0.25394
G1 X601.1 Y190.5 E0.94053
G1 X604.1 Y190.5 E0.14108
G1 X604.1 Y210.5 E0.94053
G1 X609.5 Y210.5 E0.25394
G1 X609.5 Y190.5 E0.94053
G1 X612.5 Y190.5 E0.14108
G1 X612.5 Y213.5 E1.08161
G1 X441.5 Y213.5 E8.04151
G1 X441.5 Y190.5 E1.08161
G1 F1200 E-4
G1 F300 Z1.2
T1
M109 S200
M104 T0 S175
M107 P2
G1 F2100 E-0.5
;MESH:CalibrationMultiExtruder1(1)
G0 F4800 X441.5 Y190.5 Z1.2
G1 F300 Z1.2
G0 F4800 X436.422 Y150.546
;TYPE:SKIRT
G1 F300 Z0.3
G1 F2100 E0.5
G1 F600 X438.829 Y150.275 E0.11391
G1 X441.289 Y149.926 E0.11684
G1 X442.61 Y149.708 E0.06296
G1 X443.678 Y149.572 E0.05063
G1 X444.405 Y149.525 E0.03426
G1 X444.763 Y149.511 E0.01685
G1 X445.33 Y149.5 E0.02667
G1 X608.293 Y149.5 E7.66356
G1 X608.48 Y149.501 E0.00879
G1 X609.178 Y149.51 E0.03283
G1 X610.253 Y149.564 E0.05062
G1 X611.322 Y149.698 E0.05066
G1 X612.378 Y149.91 E0.05065
G1 X613.415 Y150.2 E0.05064
G1 X614.427 Y150.567 E0.05062
G1 X615.41 Y151.007 E0.05065
G1 X616.357 Y151.519 E0.05063
G1 X617.264 Y152.1 E0.05065
G1 X618.125 Y152.747 E0.05065
G1 X618.935 Y153.456 E0.05062
G1 X619.691 Y154.223 E0.05065
G1 X620.388 Y155.044 E0.05065
G1 X621.022 Y155.915 E0.05066
G1 X621.589 Y156.83 E0.05062
G1 X622.087 Y157.785 E0.05065
G1 X622.513 Y158.774 E0.05064
G1 X622.864 Y159.792 E0.05064
G1 X623.139 Y160.833 E0.05063
G1 X623.336 Y161.892 E0.05066
G1 X623.453 Y162.962 E0.05062
G1 X623.485 Y163.59 E0.02957
G1 X623.508 Y164.374 E0.03688
G1 X623.615 Y166.84 E0.11608
G1 X623.791 Y169.282 E0.11514
G1 X624.032 Y171.688 E0.11371
G1 X624.34 Y174.074 E0.11314
G1 X624.72 Y176.482 E0.11464
G1 X625.162 Y178.845 E0.11305
G1 X625.669 Y181.186 E0.11264
G1 X626.253 Y183.562 E0.11506
G1 X626.952 Y186.09 E0.12334
G1 X627.2 Y187.138 E0.05064
G1 X627.37 Y188.201 E0.05062
G1 X627.447 Y189.032 E0.03925
G1 X627.471 Y189.409 E0.01776
G1 X627.5 Y190.33 E0.04333
G1 X627.499 Y213.443 E1.08692
G1 X627.49 Y214.17 E0.03419
G1 X627.437 Y215.246 E0.05066
G1 X627.304 Y216.315 E0.05066
G1 X627.092 Y217.37 E0.0506
G1 X626.802 Y218.408 E0.05068
G1 X626.436 Y219.42 E0.05061
G1 X625.996 Y220.403 E0.05065
G1 X625.484 Y221.351 E0.05067
G1 X624.904 Y222.258 E0.05063
G1 X624.257 Y223.119 E0.05065
G1 X623.549 Y223.93 E0.05063
G1 X622.782 Y224.686 E0.05065
G1 X621.961 Y225.383 E0.05065
G1 X621.091 Y226.017 E0.05062
G1 X620.176 Y226.585 E0.05065
G1 X619.222 Y227.084 E0.05063
G1 X618.233 Y227.51 E0.05064
G1 X617.215 Y227.862 E0.05065
G1 X616.174 Y228.137 E0.05063
G1 X615.116 Y228.335 E0.05062
G1 X614.045 Y228.453 E0.05067
G1 X613.397 Y228.485 E0.03051
G1 X613.076 Y228.494 E0.0151
G1 X612.67 Y228.5 E0.01909
G1 X537.134 Y228.5 E3.55219
G1 X534.568 Y228.536 E0.12068
G1 X532.177 Y228.638 E0.11254
G1 X529.731 Y228.811 E0.11531
G1 X527.368 Y229.045 E0.11167
G1 X524.932 Y229.357 E0.11549
G1 X522.577 Y229.727 E0.11211
G1 X520.187 Y230.171 E0.11432
G1 X517.793 Y230.687 E0.11517
G1 X515.512 Y231.246 E0.11044
G1 X513.147 Y231.896 E0.11534
G1 X510.79 Y232.618 E0.11592
G1 X508.552 Y233.373 E0.11107
G1 X506.273 Y234.214 E0.11424
G1 X504.013 Y235.121 E0.11452
G1 X501.801 Y236.084 E0.11345
G1 X499.621 Y237.105 E0.1132
G1 X497.451 Y238.197 E0.11424
G1 X495.311 Y239.354 E0.1144
G1 X493.238 Y240.55 E0.11255
G1 X491.204 Y241.801 E0.1123
G1 X489.136 Y243.155 E0.11624
G1 X487.169 Y244.525 E0.11273
G1 X485.221 Y245.964 E0.11389
G1 X483.316 Y247.457 E0.11382
G1 X481.45 Y249.007 E0.11408
G1 X479.648 Y250.592 E0.11286
G1 X477.875 Y252.24 E0.11383
G1 X476.145 Y253.944 E0.11419
G1 X474.483 Y255.677 E0.11292
G1 X472.839 Y257.491 E0.11513
G1 X471.27 Y259.322 E0.11339
G1 X469.755 Y261.197 E0.11336
G1 X468.299 Y263.108 E0.11298
G1 X466.872 Y265.092 E0.11493
G1 X465.515 Y267.096 E0.11381
G1 X464.22 Y269.132 E0.11347
G1 X462.988 Y271.197 E0.11308
G1 X461.803 Y273.313 E0.11405
G1 X460.685 Y275.45 E0.11342
G1 X459.633 Y277.61 E0.11298
G1 X458.623 Y279.84 E0.11512
G1 X457.693 Y282.057 E0.11306
G1 X456.801 Y284.361 E0.11619
G1 X456.014 Y286.591 E0.11121
G1 X455.268 Y288.903 E0.11424
G1 X454.594 Y291.211 E0.11307
G1 X453.979 Y293.566 E0.11446
G1 X453.441 Y295.894 E0.11236
G1 X452.955 Y298.3 E0.11543
G1 X452.548 Y300.663 E0.11276
G1 X452.204 Y303.068 E0.11425
G1 X451.926 Y305.488 E0.11455
G1 X451.722 Y307.858 E0.11186
G1 X451.582 Y310.284 E0.11428
G1 X451.51 Y312.745 E0.11578
G1 X451.5 Y314.105 E0.06396
G1 X451.499 Y331.463 E0.81628
G1 X451.489 Y332.19 E0.03419
G1 X451.434 Y333.266 E0.05067
G1 X451.299 Y334.334 E0.05062
G1 X451.086 Y335.39 E0.05066
G1 X450.795 Y336.427 E0.05065
G1 X450.428 Y337.439 E0.05062
G1 X449.986 Y338.421 E0.05064
G1 X449.473 Y339.368 E0.05065
G1 X448.891 Y340.274 E0.05064
G1 X448.244 Y341.134 E0.05061
G1 X447.534 Y341.944 E0.05065
G1 X446.766 Y342.699 E0.05065
G1 X445.945 Y343.395 E0.05062
G1 X445.074 Y344.029 E0.05066
G1 X444.158 Y344.595 E0.05064
G1 X443.203 Y345.093 E0.05065
G1 X442.213 Y345.517 E0.05065
G1 X441.195 Y345.868 E0.05064
G1 X440.154 Y346.142 E0.05062
G1 X439.095 Y346.337 E0.05064
G1 X438.024 Y346.454 E0.05066
G1 X437.409 Y346.485 E0.02896
G1 X436.629 Y346.508 E0.0367
G1 X434.16 Y346.615 E0.11622
G1 X431.718 Y346.791 E0.11514
G1 X429.312 Y347.032 E0.11371
G1 X426.926 Y347.34 E0.11314
G1 X424.518 Y347.72 E0.11464
G1 X422.155 Y348.162 E0.11305
G1 X419.814 Y348.669 E0.11264
G1 X417.438 Y349.253 E0.11506
G1 X414.91 Y349.952 E0.12334
G1 X413.862 Y350.2 E0.05064
G1 X412.799 Y350.37 E0.05062
G1 X411.968 Y350.447 E0.03925
G1 X411.591 Y350.471 E0.01776
G1 X410.67 Y350.5 E0.04333
G1 X387.52 Y350.499 E1.08866
G1 X386.822 Y350.49 E0.03283
G1 X385.747 Y350.436 E0.05062
G1 X384.678 Y350.302 E0.05066
G1 X383.622 Y350.09 E0.05065
G1 X382.585 Y349.8 E0.05064
G1 X381.573 Y349.433 E0.05062
G1 X380.59 Y348.993 E0.05065
G1 X379.643 Y348.481 E0.05063
G1 X378.736 Y347.9 E0.05065
G1 X377.875 Y347.253 E0.05065
G1 X377.065 Y346.544 E0.05062
G1 X376.309 Y345.777 E0.05065
G1 X375.612 Y344.956 E0.05065
G1 X374.978 Y344.085 E0.05066
G1 X374.411 Y343.17 E0.05062
G1 X373.913 Y342.215 E0.05065
G1 X373.487 Y341.226 E0.05064
G1 X373.136 Y340.208 E0.05064
G1 X372.861 Y339.167 E0.05063
G1 X372.664 Y338.108 E0.05066
G1 X372.547 Y337.038 E0.05062
G1 X372.514 Y336.383 E0.03084
G1 X372.505 Y336.05 E0.01567
G1 X372.5 Y335.658 E0.01844
G1 X372.5 Y164.674 E8.04076
G1 X372.512 Y163.791 E0.04153
G1 X372.568 Y162.716 E0.05062
G1 X372.704 Y161.647 E0.05068
G1 X372.918 Y160.592 E0.05062
G1 X373.211 Y159.556 E0.05063
G1 X373.579 Y158.544 E0.05064
G1 X374.022 Y157.562 E0.05066
G1 X374.536 Y156.616 E0.05063
G1 X375.119 Y155.711 E0.05063
G1 X375.768 Y154.851 E0.05067
G1 X376.479 Y154.042 E0.05065
G1 X377.247 Y153.288 E0.05061
G1 X378.07 Y152.593 E0.05066
G1 X378.942 Y151.961 E0.05064
G1 X379.858 Y151.396 E0.05061
G1 X380.814 Y150.9 E0.05065
G1 X381.804 Y150.476 E0.05065
G1 X382.823 Y150.127 E0.05065
G1 X383.864 Y149.854 E0.05061
G1 X384.924 Y149.66 E0.05068
G1 X385.994 Y149.545 E0.05061
G1 X386.602 Y149.515 E0.02863
G1 X386.922 Y149.506 E0.01505
G1 X387.33 Y149.5 E0.01919
G1 X410.501 Y149.501 E1.08965
G1 X411.199 Y149.511 E0.03283
G1 X412.274 Y149.567 E0.05062
G1 X413.266 Y149.69 E0.04701
G1 X414.62 Y149.905 E0.06447
G1 X417.124 Y150.263 E0.11895
G1 X419.504 Y150.535 E0.11265
G1 X421.921 Y150.742 E0.11408
G1 X424.359 Y150.881 E0.11484
G1 X426.768 Y150.951 E0.11333
G1 X429.198 Y150.953 E0.11427
G1 X431.583 Y150.887 E0.1122
G1 X433.993 Y150.751 E0.11351
G1 X436.422 Y150.546 E0.11463
G1 F2100 E-0.5
G1 F300 Z1.3
G0 F4800 X435.5 Y330.5 Z1.3
;TYPE:WALL-INNER
G1 F300 Z0.3
G1 F2100 E0.5
G1 F600 X414.5 Y330.5 E0.98755
G1 X414.5 Y329.5 E0.04703
G1 X434.5 Y329.5 E0.94053
G1 X434.5 Y322.5 E0.32918
G1 X414.5 Y322.5 E0.94053
G1 X414.5 Y321.5 E0.04703
G1 X434.5 Y321.5 E0.94053
G1 X434.5 Y314.5 E0.32918
G1 X414.5 Y314.5 E0.94053
G1 X414.5 Y313.5 E0.04703
G1 X434.5 Y313.5 E0.94053
G1 X434.5 Y306.5 E0.32918
G1 X414.5 Y306.5 E0.94053
G1 X414.5 Y305.5 E0.04703
G1 X434.5 Y305.5 E0.94053
G1 X434.5 Y298.5 E0.32918
G1 X414.5 Y298.5 E0.94053
G1 X414.5 Y297.5 E0.04703
G1 X434.5 Y297.5 E0.94053
G1 X434.5 Y290.5 E0.32918
G1 X414.5 Y290.5 E0.94053
G1 X414.5 Y289.5 E0.04703
G1 X434.5 Y289.5 E0.94053
G1 X434.5 Y282.5 E0.32918
G1 X414.5 Y282.5 E0.94053
G1 X414.5 Y281.5 E0.04703
G1 X434.5 Y281.5 E0.94053
G1 X434.5 Y274.5 E0.32918
G1 X414.5 Y274.5 E0.94053
G1 X414.5 Y273.5 E0.04703
G1 X434.5 Y273.5 E0.94053
G1 X434.5 Y266.5 E0.32918
G1 X414.5 Y266.5 E0.94053
G1 X414.5 Y265.5 E0.04703
G1 X434.5 Y265.5 E0.94053
G1 X434.5 Y258.5 E0.32918
G1 X414.5 Y258.5 E0.94053
G1 X414.5 Y257.5 E0.04703
G1 X434.5 Y257.5 E0.94053
G1 X434.5 Y250.5 E0.32918
G1 X414.5 Y250.5 E0.94053
G1 X414.5 Y249.5 E0.04703
G1 X434.5 Y249.5 E0.94053
G1 X434.5 Y242.5 E0.32918
G1 X414.5 Y242.5 E0.94053
G1 X414.5 Y241.5 E0.04703
G1 X434.5 Y241.5 E0.94053
G1 X434.5 Y234.5 E0.32918
G1 X414.5 Y234.5 E0.94053
G1 X414.5 Y233.5 E0.04703
G1 X434.5 Y233.5 E0.94053
G1 X434.5 Y226.5 E0.32918
G1 X414.5 Y226.5 E0.94053
G1 X414.5 Y225.5 E0.04703
G1 X434.5 Y225.5 E0.94053
G1 X434.5 Y218.5 E0.32918
G1 X414.5 Y218.5 E0.94053
G1 X414.5 Y217.5 E0.04703
G1 X434.5 Y217.5 E0.94053
G1 X434.5 Y210.5 E0.32918
G1 X414.5 Y210.5 E0.94053
G1 X414.5 Y209.5 E0.04703
G1 X434.5 Y209.5 E0.94053
G1 X434.5 Y202.5 E0.32918
G1 X414.5 Y202.5 E0.94053
G1 X414.5 Y201.5 E0.04703
G1 X434.5 Y201.5 E0.94053
G1 X434.5 Y194.5 E0.32918
G1 X414.5 Y194.5 E0.94053
G1 X414.5 Y193.5 E0.04703
G1 X434.5 Y193.5 E0.94053
G1 X434.5 Y186.5 E0.32918
G1 X414.5 Y186.5 E0.94053
G1 X414.5 Y185.5 E0.04703
G1 X434.5 Y185.5 E0.94053
G1 X434.5 Y178.5 E0.32918
G1 X414.5 Y178.5 E0.94053
G1 X414.5 Y177.5 E0.04703
G1 X434.5 Y177.5 E0.94053
G1 X434.5 Y170.5 E0.32918
G1 X414.5 Y170.5 E0.94053
G1 X414.5 Y169.5 E0.04703
G1 X435.5 Y169.5 E0.98755
G1 X435.5 Y330.5 E7.57125
G0 F4800 X436.5 Y331.5
;TYPE:WALL-OUTER
G1 F600 X413.5 Y331.5 E1.08161
G1 X413.5 Y328.5 E0.14108
G1 X433.5 Y328.5 E0.94053
G1 X433.5 Y323.5 E0.23513
G1 X413.5 Y323.5 E0.94053
G1 X413.5 Y320.5 E0.14108
G1 X433.5 Y320.5 E0.94053
G1 X433.5 Y315.5 E0.23513
G1 X413.5 Y315.5 E0.94053
G1 X413.5 Y312.5 E0.14108
G1 X433.5 Y312.5 E0.94053
G1 X433.5 Y307.5 E0.23513
G1 X413.5 Y307.5 E0.94053
G1 X413.5 Y304.5 E0.14108
G1 X433.5 Y304.5 E0.94053
G1 X433.5 Y299.5 E0.23513
G1 X413.5 Y299.5 E0.94053
G1 X413.5 Y296.5 E0.14108
G1 X433.5 Y296.5 E0.94053
G1 X433.5 Y291.5 E0.23513
G1 X413.5 Y291.5 E0.94053
G1 X413.5 Y288.5 E0.14108
G1 X433.5 Y288.5 E0.94053
G1 X433.5 Y283.5 E0.23513
G1 X413.5 Y283.5 E0.94053
G1 X413.5 Y280.5 E0.14108
G1 X433.5 Y280.5 E0.94053
G1 X433.5 Y275.5 E0.23513
G1 X413.5 Y275.5 E0.94053
G1 X413.5 Y272.5 E0.14108
G1 X433.5 Y272.5 E0.94053
G1 X433.5 Y267.5 E0.23513
G1 X413.5 Y267.5 E0.94053
G1 X413.5 Y264.5 E0.14108
G1 X433.5 Y264.5 E0.94053
G1 X433.5 Y259.5 E0.23513
G1 X413.5 Y259.5 E0.94053
G1 X413.5 Y256.5 E0.14108
G1 X433.5 Y256.5 E0.94053
G1 X433.5 Y251.5 E0.23513
G1 X413.5 Y251.5 E0.94053
G1 X413.5 Y248.5 E0.14108
G1 X433.5 Y248.5 E0.94053
G1 X433.5 Y243.5 E0.23513
G1 X413.5 Y243.5 E0.94053
G1 X413.5 Y240.5 E0.14108
G1 X433.5 Y240.5 E0.94053
G1 X433.5 Y235.5 E0.23513
G1 X413.5 Y235.5 E0.94053
G1 X413.5 Y232.5 E0.14108
G1 X433.5 Y232.5 E0.94053
G1 X433.5 Y227.5 E0.23513
G1 X413.5 Y227.5 E0.94053
G1 X413.5 Y224.5 E0.14108
G1 X433.5 Y224.5 E0.94053
G1 X433.5 Y219.5 E0.23513
G1 X413.5 Y219.5 E0.94053
G1 X413.5 Y216.5 E0.14108
G1 X433.5 Y216.5 E0.94053
G1 X433.5 Y211.5 E0.23513
G1 X413.5 Y211.5 E0.94053
G1 X413.5 Y208.5 E0.14108
G1 X433.5 Y208.5 E0.94053
G1 X433.5 Y203.5 E0.23513
G1 X413.5 Y203.5 E0.94053
G1 X413.5 Y200.5 E0.14108
G1 X433.5 Y200.5 E0.94053
G1 X433.5 Y195.5 E0.23513
G1 X413.5 Y195.5 E0.94053
G1 X413.5 Y192.5 E0.14108
G1 X433.5 Y192.5 E0.94053
G1 X433.5 Y187.5 E0.23513
G1 X413.5 Y187.5 E0.94053
G1 X413.5 Y184.5 E0.14108
G1 X433.5 Y184.5 E0.94053
G1 X433.5 Y179.5 E0.23513
G1 X413.5 Y179.5 E0.94053
G1 X413.5 Y176.5 E0.14108
G1 X433.5 Y176.5 E0.94053
G1 X433.5 Y171.5 E0.23513
G1 X413.5 Y171.5 E0.94053
G1 X413.5 Y168.5 E0.14108
G1 X436.5 Y168.5 E1.08161
G1 X436.5 Y331.5 E7.6653
G1 F2100 E-0.5
G1 F300 Z1.3
G0 F4800 X502.5 Y186.5 Z1.3
;TYPE:WALL-INNER
G1 F300 Z0.3
G1 F2100 E0.5
G1 F600 X502.5 Y166.5 E0.94053
G1 X495.5 Y166.5 E0.32918
G1 X495.5 Y186.5 E0.94053
G1 X494.5 Y186.5 E0.04703
G1 X494.5 Y166.5 E0.94053
G1 X487.5 Y166.5 E0.32918
G1 X487.5 Y186.5 E0.94053
G1 X486.5 Y186.5 E0.04703
G1 X486.5 Y166.5 E0.94053
G1 X479.5 Y166.5 E0.32918
G1 X479.5 Y186.5 E0.94053
G1 X478.5 Y186.5 E0.04703
G1 X478.5 Y166.5 E0.94053
G1 X471.5 Y166.5 E0.32918
G1 X471.5 Y186.5 E0.94053
G1 X470.5 Y186.5 E0.04703
G1 X470.5 Y166.5 E0.94053
G1 X463.5 Y166.5 E0.32918
G1 X463.5 Y186.5 E0.94053
G1 X462.5 Y186.5 E0.04703
G1 X462.5 Y166.5 E0.94053
G1 X455.5 Y166.5 E0.32918
G1 X455.5 Y186.5 E0.94053
G1 X454.5 Y186.5 E0.04703
G1 X454.5 Y166.5 E0.94053
G1 X447.5 Y166.5 E0.32918
G1 X447.5 Y186.5 E0.94053
G1 X446.5 Y186.5 E0.04703
G1 X446.5 Y165.5 E0.98755
G1 X607.5 Y165.5 E7.57125
G1 X607.5 Y186.5 E0.98755
G1 X606.5 Y186.5 E0.04703
G1 X606.5 Y166.5 E0.94053
G1 X599.5 Y166.5 E0.32918
G1 X599.5 Y186.5 E0.94053
G1 X598.5 Y186.5 E0.04703
G1 X598.5 Y166.5 E0.94053
G1 X591.5 Y166.5 E0.32918
G1 X591.5 Y186.5 E0.94053
G1 X590.5 Y186.5 E0.04703
G1 X590.5 Y166.5 E0.94053
G1 X583.5 Y166.5 E0.32918
G1 X583.5 Y186.5 E0.94053
G1 X582.5 Y186.5 E0.04703
G1 X582.5 Y166.5 E0.94053
G1 X575.5 Y166.5 E0.32918
G1 X575.5 Y186.5 E0.94053
G1 X574.5 Y186.5 E0.04703
G1 X574.5 Y166.5 E0.94053
G1 X567.5 Y166.5 E0.32918
G1 X567.5 Y186.5 E0.94053
G1 X566.5 Y186.5 E0.04703
G1 X566.5 Y166.5 E0.94053
G1 X559.5 Y166.5 E0.32918
G1 X559.5 Y186.5 E0.94053
G1 X558.5 Y186.5 E0.04703
G1 X558.5 Y166.5 E0.94053
G1 X551.5 Y166.5 E0.32918
G1 X551.5 Y186.5 E0.94053
G1 X550.5 Y186.5 E0.04703
G1 X550.5 Y166.5 E0.94053
G1 X543.5 Y166.5 E0.32918
G1 X543.5 Y186.5 E0.94053
G1 X542.5 Y186.5 E0.04703
G1 X542.5 Y166.5 E0.94053
G1 X535.5 Y166.5 E0.32918
G1 X535.5 Y186.5 E0.94053
G1 X534.5 Y186.5 E0.04703
G1 X534.5 Y166.5 E0.94053
G1 X527.5 Y166.5 E0.32918
G1 X527.5 Y186.5 E0.94053
G1 X526.5 Y186.5 E0.04703
G1 X526.5 Y166.5 E0.94053
G1 X519.5 Y166.5 E0.32918
G1 X519.5 Y186.5 E0.94053
G1 X518.5 Y186.5 E0.04703
G1 X518.5 Y166.5 E0.94053
G1 X511.5 Y166.5 E0.32918
G1 X511.5 Y186.5 E0.94053
G1 X510.5 Y186.5 E0.04703
G1 X510.5 Y166.5 E0.94053
G1 X503.5 Y166.5 E0.32918
G1 X503.5 Y186.5 E0.94053
G1 X502.5 Y186.5 E0.04703
G0 F4800 X501.5 Y187.5
M104 T0 S210
;TYPE:WALL-OUTER
G1 F600 X501.5 Y167.5 E0.94053
G1 X496.5 Y167.5 E0.23513
G1 X496.5 Y187.5 E0.94053
G1 X493.5 Y187.5 E0.14108
G1 X493.5 Y167.5 E0.94053
G1 X488.5 Y167.5 E0.23513
G1 X488.5 Y187.5 E0.94053
G1 X485.5 Y187.5 E0.14108
G1 X485.5 Y167.5 E0.94053
G1 X480.5 Y167.5 E0.23513
G1 X480.5 Y187.5 E0.94053
G1 X477.5 Y187.5 E0.14108
G1 X477.5 Y167.5 E0.94053
G1 X472.5 Y167.5 E0.23513
G1 X472.5 Y187.5 E0.94053
G1 X469.5 Y187.5 E0.14108
G1 X469.5 Y167.5 E0.94053
G1 X464.5 Y167.5 E0.23513
G1 X464.5 Y187.5 E0.94053
G1 X461.5 Y187.5 E0.14108
G1 X461.5 Y167.5 E0.94053
G1 X456.5 Y167.5 E0.23513
G1 X456.5 Y187.5 E0.94053
G1 X453.5 Y187.5 E0.14108
G1 X453.5 Y167.5 E0.94053
G1 X448.5 Y167.5 E0.23513
G1 X448.5 Y187.5 E0.94053
G1 X445.5 Y187.5 E0.14108
G1 X445.5 Y164.5 E1.08161
G1 X608.5 Y164.5 E7.6653
G1 X608.5 Y187.5 E1.08161
G1 X605.5 Y187.5 E0.14108
G1 X605.5 Y167.5 E0.94053
G1 X600.5 Y167.5 E0.23513
G1 X600.5 Y187.5 E0.94053
G1 X597.5 Y187.5 E0.14108
G1 X597.5 Y167.5 E0.94053
G1 X592.5 Y167.5 E0.23513
G1 X592.5 Y187.5 E0.94053
G1 X589.5 Y187.5 E0.14108
G1 X589.5 Y167.5 E0.94053
G1 X584.5 Y167.5 E0.23513
G1 X584.5 Y187.5 E0.94053
G1 X581.5 Y187.5 E0.14108
G1 X581.5 Y167.5 E0.94053
G1 X576.5 Y167.5 E0.23513
G1 X576.5 Y187.5 E0.94053
G1 X573.5 Y187.5 E0.14108
G1 X573.5 Y167.5 E0.94053
G1 X568.5 Y167.5 E0.23513
G1 X568.5 Y187.5 E0.94053
G1 X565.5 Y187.5 E0.14108
G1 X565.5 Y167.5 E0.94053
G1 X560.5 Y167.5 E0.23513
G1 X560.5 Y187.5 E0.94053
G1 X557.5 Y187.5 E0.14108
G1 X557.5 Y167.5 E0.94053
G1 X552.5 Y167.5 E0.23513
G1 X552.5 Y187.5 E0.94053
G1 X549.5 Y187.5 E0.14108
G1 X549.5 Y167.5 E0.94053
G1 X544.5 Y167.5 E0.23513
G1 X544.5 Y187.5 E0.94053
G1 X541.5 Y187.5 E0.14108
G1 X541.5 Y167.5 E0.94053
G1 X536.5 Y167.5 E0.23513
G1 X536.5 Y187.5 E0.94053
G1 X533.5 Y187.5 E0.14108
G1 X533.5 Y167.5 E0.94053
G1 X528.5 Y167.5 E0.23513
G1 X528.5 Y187.5 E0.94053
G1 X525.5 Y187.5 E0.14108
G1 X525.5 Y167.5 E0.94053
G1 X520.5 Y167.5 E0.23513
G1 X520.5 Y187.5 E0.94053
G1 X517.5 Y187.5 E0.14108
G1 X517.5 Y167.5 E0.94053
G1 X512.5 Y167.5 E0.23513
G1 X512.5 Y187.5 E0.94053
G1 X509.5 Y187.5 E0.14108
G1 X509.5 Y167.5 E0.94053
G1 X504.5 Y167.5 E0.23513
G1 X504.5 Y187.5 E0.94053
G1 X501.5 Y187.5 E0.14108
G1 F2100 E-0.5
G1 F300 Z1.3
;MESH:NONMESH
G0 F4800 X435.5 Y250.5 Z1.3
;TIME_ELAPSED:1390.575322
;LAYER:1
M140 S50
M106 S127.5 P2
;MESH:CalibrationMultiExtruder1(1)
G0 F7800 X435.5 Y250.5 Z1.6
;TYPE:WALL-INNER
G1 F300 Z0.6
G1 F2100 E0.5
G1 F1050 X424.5 Y250.5 E0.51729
G1 X424.5 Y249.5 E0.04703
G1 X435.5 Y249.5 E0.51729
G1 X435.5 Y250.5 E0.04703
G0 F7800 X436.5 Y251.5
;TYPE:WALL-OUTER
G1 F1050 X423.5 Y251.5 E0.61134
G1 X423.5 Y248.5 E0.14108
G1 X436.5 Y248.5 E0.61134
G1 X436.5 Y251.5 E0.14108
G1 F2100 E-0.5
G1 F300 Z1.6
G0 F7800 X526.5 Y176.5 Z1.6
;TYPE:WALL-INNER
G1 F300 Z0.6
G1 F2100 E0.5
G1 F1050 X526.5 Y165.5 E0.51729
G1 X527.5 Y165.5 E0.04703
G1 X527.5 Y176.5 E0.51729
G1 X526.5 Y176.5 E0.04703
G0 F7800 X525.5 Y177.5
;TYPE:WALL-OUTER
G1 F1050 X525.5 Y164.5 E0.61134
G1 X528.5 Y164.5 E0.14108
G1 X528.5 Y177.5 E0.61134
G1 X525.5 Y177.5 E0.14108
G1 F1200 E-4
G1 F300 Z1.5
T0
M109 S210
M104 T1 S0
M106 S127.5
G1 F1200 E3.3
;MESH:CalibrationMultiExtruder1
G0 F7800 X525.5 Y177.5 Z1.5
G1 F300 Z1.5
G0 F7800 X388.5 Y249.5
;TYPE:WALL-INNER
G1 F300 Z0.6
G1 F1500 E0.7
G1 F883.9 X399.5 Y249.5 E0.51729
G1 X399.5 Y250.5 E0.04703
G1 X388.5 Y250.5 E0.51729
G1 X388.5 Y249.5 E0.04703
G0 F7800 X387.5 Y248.5
;TYPE:WALL-OUTER
G1 F883.9 X400.5 Y248.5 E0.61134
G1 X400.5 Y251.5 E0.14108
G1 X387.5 Y251.5 E0.61134
G1 X387.5 Y248.5 E0.14108
G1 F1500 E-0.7
G1 F300 Z1.5
G0 F7800 X526.5 Y201.5 Z1.5
;TYPE:WALL-INNER
G1 F300 Z0.6
G1 F1500 E0.7
G1 F883.9 X527.5 Y201.5 E0.04703
G1 X527.5 Y212.5 E0.51729
G1 X526.5 Y212.5 E0.04703
G1 X526.5 Y201.5 E0.51729
G0 F7800 X525.5 Y200.5
;TYPE:WALL-OUTER
G1 F883.9 X528.5 Y200.5 E0.14108
G1 X528.5 Y213.5 E0.61134
G1 X525.5 Y213.5 E0.14108
G1 X525.5 Y200.5 E0.61134
;TIME_ELAPSED:1419.976864
G1 F1500 E-0.7
M140 S0
M141 S0
M82 ;absolute extrusion mode
M107
G1 X5 Y5 F3000 ;Wipe out
G90 ;Absolute positionning
G1 Z10
T0
G1 X0 Y0 ;Present print
M106 S0 ;Turn-off fan
M104 T0 S0 ;Turn-off hotend
M104 T1 S0 ;Turn-off hotend
M140 S0 ;Turn-off bed
M84 X Y E ;Disable all steppers but Z
M98 P"endPrint.g"
M83 ;relative extrusion mode
M104 S0
;End of Gcode
;SETTING_3 {"global_quality": "[general]\\nversion = 4\\nname = Setting XY CAL\\
;SETTING_3 ndefinition = fabbrix_elemento_v2\\n\\n[metadata]\\nquality_type = st
;SETTING_3 andard\\nsetting_version = 14\\ntype = quality_changes\\n\\n[values]\
;SETTING_3 \nadhesion_type = skirt\\nlayer_height_0 = 0.3\\nmaterial_bed_tempera
;SETTING_3 ture = 50\\nmaterial_bed_temperature_layer_0 = 50\\nprime_tower_enabl
;SETTING_3 e = False\\nprime_tower_position_x = 60\\nprime_tower_position_y = 30
;SETTING_3 \\nretraction_combing = off\\n\\n", "extruder_quality": ["[general]\\
;SETTING_3 nversion = 4\\nname = Setting XY CAL\\ndefinition = fabbrix_elemento_
;SETTING_3 v2\\n\\n[metadata]\\nintent_category = default\\nquality_type = stand
;SETTING_3 ard\\nposition = 0\\nsetting_version = 14\\ntype = quality_changes\\n
;SETTING_3 \\n[values]\\nbottom_layers = 0\\ninfill_sparse_density = 0\\nmateria
;SETTING_3 l_print_temperature = 210\\nmultiple_mesh_overlap = 0.0\\nprime_tower
;SETTING_3 _flow = 120\\nprime_tower_min_volume = 12\\nretraction_amount = 0.7\\
;SETTING_3 nretraction_hop = 0.9\\nretraction_hop_after_extruder_switch_height =
;SETTING_3  0.9\\nretraction_hop_enabled = True\\nskirt_line_count = 4\\nspeed_l
;SETTING_3 ayer_0 = 10\\nspeed_travel = 180\\nswitch_extruder_retraction_amount 
;SETTING_3 = 4\\ntop_layers = 0\\nwall_line_count = 2\\nz_seam_corner = z_seam_c
;SETTING_3 orner_outer\\nz_seam_position = frontleft\\nz_seam_relative = True\\n
;SETTING_3 zig_zaggify_infill = True\\n\\n", "[general]\\nversion = 4\\nname = S
;SETTING_3 etting XY CAL\\ndefinition = fabbrix_elemento_v2\\n\\n[metadata]\\nin
;SETTING_3 tent_category = default\\nquality_type = standard\\nposition = 1\\nse
;SETTING_3 tting_version = 14\\ntype = quality_changes\\n\\n[values]\\nbottom_la
;SETTING_3 yers = 0\\ninfill_sparse_density = 0\\ninitial_bottom_layers = 0\\nre
;SETTING_3 traction_amount = 0.5\\nretraction_hop = 1\\nretraction_hop_after_ext
;SETTING_3 ruder_switch_height = 0.9\\nretraction_hop_enabled = True\\nretractio
;SETTING_3 n_speed = 35\\nspeed_layer_0 = 10\\nspeed_travel = 180\\nswitch_extru
;SETTING_3 der_retraction_amount = 4\\ntop_layers = 0\\nwall_line_count = 2\\n\\
;SETTING_3 n"]}
