;FLAVOR:RepRap
;TIME:1421
;Filament used: 0.275465m, 0.272099m
;Layer height: 0.3
;MINX:373.52
;MINY:150.52
;MINZ:0.3
;MAXX:626.48
;MAXY:349.48
;MAXZ:1.6
;LINEARADVANCEPROCESSED
;Generated with Cura_SteamEngine 4.6.2
T0
M190 S50
M104 S210
M104 T1 S175
M109 S210
M109 T1 S175
M82 ;absolute extrusion mode
T0
M104 S200
M109 S200
M98 P"startPrint.g"
M82 ;absolute extrusion mode
G21 ;metric values
G90 ;absolute positioning
M83 ;set extruder to relative mode
M107 ;start with the fan off
M109 S200 B210 F1;activate auto temp min 180 max 210 scaling factor 1 (for PLA)
G28; Home Axis
G29 S1; Z-Probe the bed (requires Z-Probe!)
G1 Z5.0 F9000 ;move the head 5mm up for CYA clearance
G92 E0 ;zero the extruded length
M117 Cleaning...;Put Cleaning message on screen
G1 X-20 Y0 F4000 ; move half way along the front edge
G1 Z1 ; move nozzle close to bed
M109 S200 ; heat nozzle to 200 degC and wait until reached
G4 P1000 ; wait 10 seconds for nozzle length to stabilize
G1 E15 ; extrude 10 mm of filament
G1 Z15 F12000 E5 ; move 15 mm up, fast, while extruding 5mm
G92 E0 ; reset extruder
M117 Printing...;Put printing message on LCD screen
M141 S28
M83 ;relative extrusion mode
G1 F2100 E-0.7
;LAYER_COUNT:2
M572 S0.000000 D1 ;added by LinearAdvanceSettingPlugin
M572 S0.000000 D0 ;added by LinearAdvanceSettingPlugin
;LAYER:0
M107
G1 F300 Z1.2
G0 F4800 X411.139 Y153.651 Z1.2
;TYPE:SKIRT
G1 F300 Z0.3
G1 F2100 E0.7
G1 F600 X412.048 Y153.704 E0.03083
G1 X414.034 Y154.003 E0.068
G1 X416.6 Y154.37 E0.08777
G1 X419.105 Y154.656 E0.08537
G1 X421.646 Y154.874 E0.08635
G1 X424.147 Y155.017 E0.08482
G1 X426.715 Y155.091 E0.08699
G1 X429.239 Y155.093 E0.08546
G1 X431.755 Y155.024 E0.08522
G1 X434.324 Y154.879 E0.08712
G1 X436.809 Y154.669 E0.08444
G1 X439.347 Y154.383 E0.08648
G1 X441.885 Y154.023 E0.08679
G1 X443.284 Y153.792 E0.04801
G1 X444.567 Y153.662 E0.04366
G1 X445.33 Y153.64 E0.02585
G1 X608.293 Y153.64 E5.51776
G1 X609.125 Y153.65 E0.02817
G1 X610.033 Y153.702 E0.03079
G1 X610.934 Y153.833 E0.03083
G1 X611.82 Y154.043 E0.03083
G1 X612.683 Y154.329 E0.03078
G1 X613.519 Y154.691 E0.03085
G1 X614.319 Y155.124 E0.0308
G1 X615.078 Y155.626 E0.03081
G1 X615.791 Y156.193 E0.03084
G1 X616.45 Y156.82 E0.0308
G1 X617.053 Y157.502 E0.03082
G1 X617.593 Y158.235 E0.03083
G1 X618.066 Y159.012 E0.0308
G1 X618.47 Y159.828 E0.03083
G1 X618.8 Y160.676 E0.03081
G1 X619.055 Y161.55 E0.03083
G1 X619.232 Y162.442 E0.03079
G1 X619.347 Y163.71 E0.04311
G1 X619.483 Y167.105 E0.11504
G1 X619.665 Y169.636 E0.08592
G1 X619.915 Y172.134 E0.085
G1 X620.244 Y174.683 E0.08702
G1 X620.634 Y177.15 E0.08457
G1 X621.105 Y179.67 E0.0868
G1 X621.636 Y182.123 E0.08498
G1 X622.245 Y184.6 E0.08637
G1 X622.962 Y187.193 E0.09109
G1 X623.165 Y188.08 E0.03081
G1 X623.315 Y189.295 E0.04145
G1 X623.36 Y190.33 E0.03508
G1 X623.36 Y213.264 E0.77652
G1 X623.35 Y214.119 E0.02895
G1 X623.299 Y215.028 E0.03083
G1 X623.168 Y215.929 E0.03083
G1 X622.959 Y216.814 E0.03079
G1 X622.673 Y217.678 E0.03082
G1 X622.312 Y218.514 E0.03083
G1 X621.879 Y219.315 E0.03083
G1 X621.377 Y220.074 E0.03081
G1 X620.811 Y220.787 E0.03082
G1 X620.184 Y221.447 E0.03082
G1 X619.502 Y222.049 E0.0308
G1 X618.77 Y222.59 E0.03082
G1 X617.993 Y223.064 E0.03082
G1 X617.177 Y223.468 E0.03083
G1 X616.329 Y223.798 E0.03081
G1 X615.455 Y224.054 E0.03084
G1 X614.563 Y224.231 E0.03079
G1 X613.281 Y224.347 E0.04358
G1 X612.67 Y224.36 E0.02069
G1 X537.076 Y224.36 E2.55954
G1 X534.476 Y224.397 E0.08804
G1 X531.919 Y224.505 E0.08665
G1 X529.42 Y224.683 E0.08483
G1 X526.856 Y224.937 E0.08724
G1 X524.359 Y225.256 E0.08523
G1 X521.864 Y225.648 E0.08551
G1 X519.372 Y226.112 E0.08583
G1 X516.907 Y226.642 E0.08537
G1 X514.45 Y227.245 E0.08566
G1 X511.969 Y227.926 E0.08711
G1 X509.573 Y228.66 E0.08485
G1 X507.147 Y229.478 E0.08669
G1 X504.773 Y230.354 E0.08568
G1 X502.414 Y231.301 E0.08607
G1 X500.126 Y232.297 E0.08449
G1 X497.796 Y233.389 E0.08713
G1 X495.526 Y234.531 E0.08604
G1 X493.312 Y235.728 E0.08522
G1 X491.114 Y236.996 E0.08592
G1 X488.964 Y238.318 E0.08546
G1 X486.821 Y239.722 E0.08675
G1 X484.761 Y241.157 E0.085
G1 X482.702 Y242.678 E0.08667
G1 X480.729 Y244.224 E0.08487
G1 X478.779 Y245.843 E0.08582
G1 X476.835 Y247.553 E0.08766
G1 X475 Y249.259 E0.08483
G1 X473.214 Y251.019 E0.0849
G1 X471.457 Y252.85 E0.08592
G1 X469.732 Y254.755 E0.08702
G1 X468.09 Y256.669 E0.08539
G1 X466.487 Y258.655 E0.08642
G1 X464.974 Y260.641 E0.08453
G1 X463.471 Y262.729 E0.08711
G1 X462.069 Y264.8 E0.08468
G1 X460.706 Y266.943 E0.08599
G1 X459.392 Y269.144 E0.08679
G1 X458.174 Y271.319 E0.0844
G1 X456.983 Y273.597 E0.08704
G1 X455.869 Y275.882 E0.08607
G1 X454.835 Y278.166 E0.08489
G1 X453.85 Y280.518 E0.08634
G1 X452.928 Y282.897 E0.08639
G1 X452.086 Y285.283 E0.08567
G1 X451.311 Y287.684 E0.08543
G1 X450.608 Y290.091 E0.0849
G1 X449.96 Y292.574 E0.08689
G1 X449.389 Y295.043 E0.0858
G1 X448.879 Y297.564 E0.08709
G1 X448.457 Y300.021 E0.08441
G1 X448.101 Y302.506 E0.085
G1 X447.809 Y305.055 E0.08687
G1 X447.591 Y307.581 E0.08585
G1 X447.446 Y310.1 E0.08543
G1 X447.37 Y312.683 E0.0875
G1 X447.36 Y314.075 E0.04713
G1 X447.36 Y331.264 E0.582
G1 X447.349 Y332.133 E0.02943
G1 X447.297 Y333.042 E0.03083
G1 X447.165 Y333.943 E0.03083
G1 X446.954 Y334.828 E0.03081
G1 X446.666 Y335.692 E0.03084
G1 X446.304 Y336.527 E0.03081
G1 X445.87 Y337.327 E0.03082
G1 X445.368 Y338.086 E0.03081
G1 X444.8 Y338.797 E0.03081
G1 X444.173 Y339.457 E0.03082
G1 X443.49 Y340.058 E0.0308
G1 X442.757 Y340.598 E0.03083
G1 X441.979 Y341.071 E0.03083
G1 X441.163 Y341.473 E0.0308
G1 X440.315 Y341.803 E0.03081
G1 X439.441 Y342.057 E0.03082
G1 X438.548 Y342.233 E0.03082
G1 X437.29 Y342.347 E0.04277
G1 X433.896 Y342.483 E0.11501
G1 X431.363 Y342.665 E0.08599
G1 X428.866 Y342.915 E0.08497
G1 X426.317 Y343.244 E0.08702
G1 X423.85 Y343.634 E0.08457
G1 X421.33 Y344.105 E0.0868
G1 X418.877 Y344.636 E0.08498
G1 X416.4 Y345.245 E0.08637
G1 X413.807 Y345.962 E0.09109
G1 X412.92 Y346.165 E0.03081
G1 X411.705 Y346.315 E0.04145
G1 X410.67 Y346.36 E0.03508
G1 X387.707 Y346.36 E0.7775
G1 X386.875 Y346.35 E0.02817
G1 X385.967 Y346.298 E0.03079
G1 X385.066 Y346.167 E0.03083
G1 X384.18 Y345.957 E0.03083
G1 X383.317 Y345.671 E0.03078
G1 X382.481 Y345.309 E0.03085
G1 X381.681 Y344.876 E0.0308
G1 X380.922 Y344.374 E0.03081
G1 X380.209 Y343.807 E0.03084
G1 X379.55 Y343.18 E0.0308
G1 X378.947 Y342.498 E0.03082
G1 X378.407 Y341.765 E0.03083
G1 X377.934 Y340.988 E0.0308
G1 X377.53 Y340.172 E0.03083
G1 X377.2 Y339.324 E0.03081
G1 X376.945 Y338.45 E0.03083
G1 X376.768 Y337.558 E0.03079
G1 X376.653 Y336.271 E0.04375
G1 X376.64 Y335.658 E0.02076
G1 X376.64 Y164.674 E5.78935
G1 X376.651 Y163.853 E0.0278
G1 X376.705 Y162.945 E0.0308
G1 X376.838 Y162.044 E0.03084
G1 X377.05 Y161.159 E0.03081
G1 X377.338 Y160.296 E0.0308
G1 X377.701 Y159.461 E0.03083
G1 X378.137 Y158.662 E0.03082
G1 X378.64 Y157.904 E0.0308
G1 X379.208 Y157.193 E0.03081
G1 X379.837 Y156.534 E0.03085
G1 X380.52 Y155.933 E0.0308
G1 X381.254 Y155.395 E0.03081
G1 X382.032 Y154.923 E0.03081
G1 X382.849 Y154.521 E0.03083
G1 X383.698 Y154.193 E0.03082
G1 X384.572 Y153.94 E0.03081
G1 X385.465 Y153.765 E0.03081
G1 X386.719 Y153.653 E0.04263
G1 X387.33 Y153.64 E0.02069
G1 X410.293 Y153.64 E0.7775
G1 X411.139 Y153.651 E0.02865
G0 F4800 X411.15 Y152.931
G1 F600 X412.089 Y152.985 E0.03185
G1 X412.73 Y153.067 E0.02188
G1 X414.12 Y153.288 E0.04766
G1 X416.711 Y153.658 E0.08862
G1 X419.181 Y153.94 E0.08418
G1 X421.677 Y154.155 E0.08483
G1 X424.209 Y154.299 E0.08587
G1 X426.701 Y154.371 E0.08441
G1 X429.22 Y154.373 E0.08529
G1 X431.764 Y154.303 E0.08617
G1 X434.224 Y154.164 E0.08343
G1 X436.771 Y153.949 E0.08655
G1 X439.272 Y153.667 E0.08522
G1 X441.757 Y153.315 E0.08498
G1 X443.167 Y153.082 E0.04839
G1 X444.539 Y152.942 E0.0467
G1 X445.33 Y152.92 E0.02679
G1 X608.293 Y152.92 E5.51776
G1 X609.134 Y152.93 E0.02848
G1 X610.074 Y152.982 E0.03188
G1 X611.006 Y153.114 E0.03187
G1 X611.923 Y153.324 E0.03185
G1 X612.82 Y153.611 E0.03189
G1 X613.688 Y153.974 E0.03186
G1 X614.523 Y154.409 E0.03188
G1 X615.318 Y154.913 E0.03187
G1 X616.067 Y155.483 E0.03187
G1 X616.765 Y156.114 E0.03186
G1 X617.407 Y156.802 E0.03186
G1 X617.988 Y157.543 E0.03188
G1 X618.505 Y158.33 E0.03188
G1 X618.953 Y159.158 E0.03188
G1 X619.328 Y160.021 E0.03186
G1 X619.63 Y160.913 E0.03189
G1 X619.854 Y161.827 E0.03186
G1 X620 Y162.757 E0.03187
G1 X620.066 Y163.689 E0.03164
G1 X620.203 Y167.092 E0.11532
G1 X620.38 Y169.549 E0.08341
G1 X620.634 Y172.077 E0.08603
G1 X620.957 Y174.585 E0.08562
G1 X621.346 Y177.047 E0.08439
G1 X621.808 Y179.52 E0.08518
G1 X622.334 Y181.948 E0.08412
G1 X622.94 Y184.411 E0.08588
G1 X623.656 Y187.001 E0.09098
G1 X623.868 Y187.918 E0.03187
G1 X624.034 Y189.249 E0.04542
G1 X624.08 Y190.33 E0.03663
G1 X624.08 Y213.264 E0.77652
G1 X624.07 Y214.128 E0.02926
G1 X624.019 Y215.068 E0.03187
G1 X623.887 Y216 E0.03187
G1 X623.677 Y216.918 E0.03189
G1 X623.391 Y217.814 E0.03185
G1 X623.028 Y218.683 E0.03189
G1 X622.594 Y219.518 E0.03186
G1 X622.09 Y220.313 E0.03187
G1 X621.521 Y221.063 E0.03188
G1 X620.89 Y221.761 E0.03186
G1 X620.202 Y222.404 E0.03188
G1 X619.462 Y222.985 E0.03186
G1 X618.675 Y223.502 E0.03188
G1 X617.847 Y223.95 E0.03188
G1 X616.984 Y224.326 E0.03187
G1 X616.093 Y224.628 E0.03185
G1 X615.179 Y224.853 E0.03187
G1 X614.249 Y224.999 E0.03187
G1 X613.302 Y225.067 E0.03215
G1 X612.67 Y225.08 E0.0214
G1 X537.086 Y225.08 E2.5592
G1 X534.481 Y225.117 E0.08821
G1 X531.966 Y225.224 E0.08523
G1 X529.47 Y225.401 E0.08472
G1 X526.951 Y225.65 E0.08571
G1 X524.49 Y225.965 E0.08401
G1 X521.96 Y226.363 E0.08672
G1 X519.521 Y226.816 E0.08399
G1 X517.055 Y227.347 E0.08541
G1 X514.629 Y227.942 E0.08458
G1 X512.164 Y228.619 E0.08655
G1 X509.798 Y229.344 E0.08379
G1 X507.389 Y230.156 E0.08608
G1 X505.043 Y231.022 E0.08467
G1 X502.691 Y231.966 E0.08581
G1 X500.397 Y232.965 E0.08472
G1 X498.133 Y234.026 E0.08466
G1 X495.858 Y235.171 E0.08624
G1 X493.677 Y236.349 E0.08393
G1 X491.46 Y237.628 E0.08666
G1 X489.344 Y238.929 E0.0841
G1 X487.251 Y240.3 E0.08472
G1 X485.169 Y241.75 E0.08591
G1 X483.142 Y243.248 E0.08534
G1 X481.179 Y244.786 E0.08444
G1 X479.222 Y246.411 E0.08613
G1 X477.347 Y248.06 E0.08454
G1 X475.505 Y249.773 E0.08517
G1 X473.712 Y251.539 E0.08521
G1 X471.967 Y253.359 E0.08537
G1 X470.283 Y255.217 E0.0849
G1 X468.641 Y257.133 E0.08544
G1 X467.075 Y259.072 E0.08439
G1 X465.525 Y261.106 E0.08659
G1 X464.092 Y263.098 E0.08309
G1 X462.653 Y265.224 E0.08692
G1 X461.317 Y267.324 E0.08427
G1 X460.018 Y269.5 E0.08581
G1 X458.803 Y271.669 E0.08418
G1 X457.632 Y273.91 E0.08561
G1 X456.522 Y276.187 E0.08577
G1 X455.497 Y278.45 E0.08412
G1 X454.509 Y280.808 E0.08656
G1 X453.61 Y283.129 E0.08428
G1 X452.775 Y285.494 E0.08492
G1 X451.991 Y287.923 E0.08642
G1 X451.297 Y290.301 E0.08388
G1 X450.659 Y292.744 E0.08549
G1 X450.091 Y295.2 E0.08535
G1 X449.594 Y297.661 E0.08501
G1 X449.168 Y300.138 E0.0851
G1 X448.813 Y302.618 E0.08483
G1 X448.525 Y305.128 E0.08554
G1 X448.311 Y307.615 E0.08452
G1 X448.164 Y310.162 E0.08638
G1 X448.09 Y312.664 E0.08475
G1 X448.08 Y314.08 E0.04795
G1 X448.08 Y331.264 E0.58183
G1 X448.069 Y332.143 E0.02976
G1 X448.016 Y333.083 E0.03188
G1 X447.884 Y334.015 E0.03187
G1 X447.672 Y334.932 E0.03187
G1 X447.384 Y335.828 E0.03187
G1 X447.021 Y336.697 E0.03189
G1 X446.585 Y337.531 E0.03186
G1 X446.081 Y338.326 E0.03187
G1 X445.51 Y339.074 E0.03186
G1 X444.878 Y339.772 E0.03188
G1 X444.189 Y340.413 E0.03186
G1 X443.448 Y340.994 E0.03188
G1 X442.661 Y341.51 E0.03186
G1 X441.833 Y341.957 E0.03186
G1 X440.969 Y342.332 E0.03189
G1 X440.077 Y342.632 E0.03186
G1 X439.163 Y342.856 E0.03186
G1 X438.233 Y343.001 E0.03187
G1 X437.31 Y343.066 E0.03133
G1 X433.906 Y343.204 E0.11535
G1 X431.453 Y343.38 E0.08327
G1 X428.923 Y343.634 E0.08609
G1 X426.415 Y343.957 E0.08562
G1 X423.953 Y344.346 E0.08439
G1 X421.48 Y344.808 E0.08518
G1 X419.052 Y345.334 E0.08412
G1 X416.589 Y345.94 E0.08588
G1 X413.999 Y346.656 E0.09098
G1 X413.082 Y346.868 E0.03187
G1 X411.751 Y347.034 E0.04542
G1 X410.67 Y347.08 E0.03663
G1 X387.707 Y347.08 E0.7775
G1 X386.866 Y347.07 E0.02848
G1 X385.926 Y347.018 E0.03188
G1 X384.994 Y346.886 E0.03187
G1 X384.077 Y346.676 E0.03185
G1 X383.18 Y346.389 E0.03189
G1 X382.312 Y346.026 E0.03186
G1 X381.477 Y345.591 E0.03188
G1 X380.682 Y345.087 E0.03187
G1 X379.933 Y344.517 E0.03187
G1 X379.235 Y343.886 E0.03186
G1 X378.593 Y343.198 E0.03186
G1 X378.012 Y342.457 E0.03188
G1 X377.495 Y341.67 E0.03188
G1 X377.047 Y340.842 E0.03188
G1 X376.672 Y339.979 E0.03186
G1 X376.37 Y339.087 E0.03189
G1 X376.146 Y338.173 E0.03186
G1 X376 Y337.243 E0.03187
G1 X375.933 Y336.29 E0.03235
G1 X375.92 Y335.658 E0.0214
G1 X375.92 Y164.674 E5.78935
G1 X375.931 Y163.842 E0.02817
G1 X375.985 Y162.903 E0.03185
G1 X376.119 Y161.971 E0.03188
G1 X376.331 Y161.054 E0.03187
G1 X376.621 Y160.158 E0.03189
G1 X376.985 Y159.29 E0.03187
G1 X377.422 Y158.456 E0.03188
G1 X377.928 Y157.663 E0.03185
G1 X378.499 Y156.915 E0.03186
G1 X379.132 Y156.218 E0.03188
G1 X379.822 Y155.577 E0.03189
G1 X380.563 Y154.998 E0.03184
G1 X381.351 Y154.483 E0.03187
G1 X382.18 Y154.037 E0.03187
G1 X383.044 Y153.663 E0.03188
G1 X383.936 Y153.364 E0.03185
G1 X384.851 Y153.141 E0.03189
G1 X385.781 Y152.997 E0.03186
G1 X386.698 Y152.933 E0.03112
G1 X387.33 Y152.92 E0.0214
G1 X410.293 Y152.92 E0.7775
G1 X411.15 Y152.931 E0.02902
G0 F4800 X411.16 Y152.211
G1 F600 X412.13 Y152.265 E0.03289
G1 X412.843 Y152.356 E0.02434
G1 X414.269 Y152.583 E0.04889
G1 X416.754 Y152.938 E0.08499
G1 X419.253 Y153.223 E0.08516
G1 X421.746 Y153.437 E0.08472
G1 X424.235 Y153.579 E0.08441
G1 X426.723 Y153.651 E0.08428
G1 X429.201 Y153.653 E0.0839
G1 X431.738 Y153.583 E0.08593
G1 X434.194 Y153.445 E0.08329
G1 X436.67 Y153.236 E0.08413
G1 X439.193 Y152.951 E0.08597
G1 X441.671 Y152.6 E0.08474
G1 X443.05 Y152.372 E0.04733
G1 X444.014 Y152.253 E0.03289
G1 X445.33 Y152.2 E0.04459
G1 X608.293 Y152.2 E5.51776
G1 X609.143 Y152.21 E0.02878
G1 X610.113 Y152.262 E0.03289
G1 X611.075 Y152.395 E0.03288
G1 X612.024 Y152.605 E0.03291
G1 X612.951 Y152.893 E0.03287
G1 X613.852 Y153.257 E0.0329
G1 X614.72 Y153.693 E0.03289
G1 X615.549 Y154.199 E0.03288
G1 X616.334 Y154.772 E0.03291
G1 X617.069 Y155.407 E0.03289
G1 X617.749 Y156.101 E0.0329
G1 X618.37 Y156.848 E0.03289
G1 X618.927 Y157.644 E0.03289
G1 X619.417 Y158.482 E0.03287
G1 X619.836 Y159.359 E0.03291
G1 X620.182 Y160.266 E0.03287
G1 X620.452 Y161.2 E0.03292
G1 X620.644 Y162.152 E0.03288
G1 X620.757 Y163.117 E0.0329
G1 X620.808 Y164.431 E0.04452
G1 X620.92 Y167.011 E0.08744
G1 X621.102 Y169.53 E0.08551
G1 X621.348 Y171.985 E0.08354
G1 X621.666 Y174.453 E0.08425
G1 X622.058 Y176.938 E0.08518
G1 X622.516 Y179.383 E0.08423
G1 X623.038 Y181.798 E0.08366
G1 X623.635 Y184.222 E0.08453
G1 X624.35 Y186.809 E0.09088
G1 X624.57 Y187.756 E0.03292
G1 X624.711 Y188.717 E0.03289
G1 X624.776 Y189.58 E0.0293
G1 X624.8 Y190.33 E0.02541
G1 X624.8 Y213.264 E0.77652
G1 X624.79 Y214.137 E0.02956
G1 X624.738 Y215.107 E0.03289
G1 X624.606 Y216.07 E0.03291
G1 X624.396 Y217.018 E0.03288
G1 X624.109 Y217.946 E0.03289
G1 X623.746 Y218.847 E0.03289
G1 X623.31 Y219.715 E0.03289
G1 X622.804 Y220.544 E0.03288
G1 X622.232 Y221.329 E0.03289
G1 X621.597 Y222.064 E0.03289
G1 X620.904 Y222.745 E0.0329
G1 X620.157 Y223.366 E0.03289
G1 X619.361 Y223.924 E0.03291
G1 X618.523 Y224.414 E0.03287
G1 X617.647 Y224.834 E0.03289
G1 X616.739 Y225.18 E0.0329
G1 X615.806 Y225.45 E0.03289
G1 X614.854 Y225.643 E0.03289
G1 X613.889 Y225.757 E0.0329
G1 X612.67 Y225.8 E0.0413
G1 X537.096 Y225.8 E2.55886
G1 X534.487 Y225.837 E0.08835
G1 X532.012 Y225.942 E0.08388
G1 X529.556 Y226.116 E0.08337
G1 X527.042 Y226.365 E0.08554
G1 X524.557 Y226.683 E0.08483
G1 X522.097 Y227.07 E0.08432
G1 X519.656 Y227.524 E0.08407
G1 X517.203 Y228.051 E0.08495
G1 X514.817 Y228.637 E0.08319
G1 X512.391 Y229.303 E0.08518
G1 X510 Y230.035 E0.08467
G1 X507.64 Y230.832 E0.08434
G1 X505.28 Y231.702 E0.08516
G1 X502.997 Y232.619 E0.0833
G1 X500.667 Y233.633 E0.08604
G1 X498.454 Y234.67 E0.08275
G1 X496.201 Y235.804 E0.0854
G1 X494.002 Y236.993 E0.08464
G1 X491.858 Y238.229 E0.08379
G1 X489.725 Y239.541 E0.08479
G1 X487.642 Y240.905 E0.0843
G1 X485.576 Y242.344 E0.08525
G1 X483.599 Y243.805 E0.08323
G1 X481.629 Y245.348 E0.08473
G1 X479.686 Y246.962 E0.08552
G1 X477.841 Y248.585 E0.0832
G1 X475.991 Y250.305 E0.08553
G1 X474.228 Y252.042 E0.0838
G1 X472.511 Y253.831 E0.08396
G1 X470.82 Y255.698 E0.08529
G1 X469.19 Y257.6 E0.08481
G1 X467.636 Y259.524 E0.08374
G1 X466.119 Y261.514 E0.08472
G1 X464.669 Y263.531 E0.08411
G1 X463.258 Y265.615 E0.08521
G1 X461.922 Y267.714 E0.08424
G1 X460.644 Y269.856 E0.08445
G1 X459.44 Y272.005 E0.0834
G1 X458.266 Y274.251 E0.08581
G1 X457.181 Y276.477 E0.08385
G1 X456.154 Y278.746 E0.08433
G1 X455.187 Y281.053 E0.0847
G1 X454.277 Y283.401 E0.08526
G1 X453.456 Y285.727 E0.08352
G1 X452.691 Y288.097 E0.08432
G1 X451.985 Y290.518 E0.08539
G1 X451.361 Y292.905 E0.08354
G1 X450.793 Y295.363 E0.08542
G1 X450.304 Y297.784 E0.08363
G1 X449.879 Y300.255 E0.08489
G1 X449.524 Y302.73 E0.08466
G1 X449.241 Y305.2 E0.08418
G1 X449.027 Y307.682 E0.08435
G1 X448.885 Y310.155 E0.08387
G1 X448.81 Y312.69 E0.08587
G1 X448.8 Y314.086 E0.04727
G1 X448.8 Y331.264 E0.58163
G1 X448.789 Y332.153 E0.0301
G1 X448.736 Y333.123 E0.03289
G1 X448.603 Y334.085 E0.03288
G1 X448.391 Y335.034 E0.03292
G1 X448.102 Y335.961 E0.03288
G1 X447.738 Y336.862 E0.0329
G1 X447.301 Y337.729 E0.03287
G1 X446.794 Y338.558 E0.0329
G1 X446.221 Y339.342 E0.03288
G1 X445.585 Y340.076 E0.03288
G1 X444.891 Y340.756 E0.0329
G1 X444.143 Y341.376 E0.0329
G1 X443.347 Y341.932 E0.03288
G1 X442.508 Y342.422 E0.0329
G1 X441.631 Y342.84 E0.03289
G1 X440.723 Y343.185 E0.03289
G1 X439.79 Y343.454 E0.03288
G1 X438.837 Y343.646 E0.03292
G1 X437.872 Y343.758 E0.03289
G1 X436.569 Y343.808 E0.04415
G1 X433.99 Y343.92 E0.0874
G1 X431.47 Y344.102 E0.08555
G1 X429.015 Y344.348 E0.08354
G1 X426.547 Y344.666 E0.08425
G1 X424.062 Y345.058 E0.08518
G1 X421.617 Y345.516 E0.08423
G1 X419.202 Y346.038 E0.08366
G1 X416.778 Y346.635 E0.08453
G1 X414.191 Y347.35 E0.09088
G1 X413.244 Y347.57 E0.03292
G1 X412.283 Y347.711 E0.03289
G1 X411.42 Y347.776 E0.0293
G1 X410.67 Y347.8 E0.02541
G1 X387.707 Y347.8 E0.7775
G1 X386.857 Y347.79 E0.02878
G1 X385.887 Y347.738 E0.03289
G1 X384.925 Y347.605 E0.03288
G1 X383.976 Y347.395 E0.03291
G1 X383.049 Y347.107 E0.03287
G1 X382.148 Y346.743 E0.0329
G1 X381.28 Y346.307 E0.03289
G1 X380.451 Y345.801 E0.03288
G1 X379.666 Y345.228 E0.03291
G1 X378.931 Y344.593 E0.03289
G1 X378.251 Y343.899 E0.0329
G1 X377.63 Y343.152 E0.03289
G1 X377.073 Y342.356 E0.03289
G1 X376.583 Y341.518 E0.03287
G1 X376.164 Y340.641 E0.03291
G1 X375.818 Y339.734 E0.03287
G1 X375.548 Y338.8 E0.03292
G1 X375.356 Y337.848 E0.03288
G1 X375.243 Y336.883 E0.0329
G1 X375.2 Y335.658 E0.0415
G1 X375.2 Y164.674 E5.78935
G1 X375.211 Y163.832 E0.02851
G1 X375.266 Y162.862 E0.0329
G1 X375.4 Y161.9 E0.03289
G1 X375.613 Y160.952 E0.0329
G1 X375.903 Y160.025 E0.03289
G1 X376.268 Y159.125 E0.03288
G1 X376.706 Y158.258 E0.03289
G1 X377.214 Y157.43 E0.03289
G1 X377.789 Y156.646 E0.03292
G1 X378.426 Y155.913 E0.03288
G1 X379.121 Y155.234 E0.0329
G1 X379.869 Y154.615 E0.03287
G1 X380.666 Y154.059 E0.0329
G1 X381.506 Y153.571 E0.03289
G1 X382.383 Y153.154 E0.03288
G1 X383.291 Y152.81 E0.03288
G1 X384.225 Y152.542 E0.0329
G1 X385.178 Y152.352 E0.0329
G1 X386.143 Y152.241 E0.03289
G1 X387.33 Y152.2 E0.04021
G1 X410.293 Y152.2 E0.7775
G1 X411.16 Y152.211 E0.02936
G0 F4800 X411.17 Y151.491
G1 F600 X412.169 Y151.546 E0.03388
G1 X412.956 Y151.645 E0.02686
G1 X414.355 Y151.867 E0.04796
G1 X416.869 Y152.226 E0.08599
G1 X419.321 Y152.506 E0.08356
G1 X421.78 Y152.718 E0.08357
G1 X424.261 Y152.859 E0.08414
G1 X426.744 Y152.931 E0.08411
G1 X429.217 Y152.933 E0.08373
G1 X431.678 Y152.865 E0.08336
G1 X434.13 Y152.727 E0.08315
G1 X436.632 Y152.516 E0.08502
G1 X439.083 Y152.239 E0.08352
G1 X441.536 Y151.892 E0.08388
G1 X442.932 Y151.661 E0.04791
G1 X443.925 Y151.538 E0.03388
G1 X444.841 Y151.49 E0.03106
G1 X608.293 Y151.48 E5.53432
G1 X609.152 Y151.49 E0.02909
G1 X610.152 Y151.543 E0.03391
G1 X611.143 Y151.675 E0.03385
G1 X612.121 Y151.887 E0.03388
G1 X613.079 Y152.175 E0.03387
G1 X614.011 Y152.54 E0.03389
G1 X614.911 Y152.977 E0.03388
G1 X615.773 Y153.485 E0.03388
G1 X616.592 Y154.06 E0.03388
G1 X617.362 Y154.699 E0.03388
G1 X618.079 Y155.397 E0.03388
G1 X618.738 Y156.151 E0.03391
G1 X619.334 Y156.954 E0.03386
G1 X619.864 Y157.803 E0.03389
G1 X620.325 Y158.691 E0.03388
G1 X620.714 Y159.613 E0.03388
G1 X621.027 Y160.563 E0.03387
G1 X621.264 Y161.535 E0.03388
G1 X621.423 Y162.523 E0.03388
G1 X621.506 Y163.647 E0.03816
G1 X621.639 Y166.962 E0.11233
G1 X621.817 Y169.442 E0.08419
G1 X622.066 Y171.927 E0.08456
G1 X622.379 Y174.35 E0.08272
G1 X622.766 Y176.806 E0.08418
G1 X623.222 Y179.24 E0.08385
G1 X623.743 Y181.649 E0.08345
G1 X624.332 Y184.041 E0.08341
G1 X625.044 Y186.618 E0.09052
G1 X625.271 Y187.592 E0.03386
G1 X625.421 Y188.581 E0.03387
G1 X625.495 Y189.535 E0.0324
G1 X625.52 Y190.33 E0.02693
G1 X625.52 Y213.264 E0.77652
G1 X625.51 Y214.146 E0.02987
G1 X625.458 Y215.145 E0.03387
G1 X625.326 Y216.137 E0.03388
G1 X625.115 Y217.115 E0.03388
G1 X624.827 Y218.073 E0.03387
G1 X624.463 Y219.006 E0.03391
G1 X624.026 Y219.906 E0.03388
G1 X623.518 Y220.768 E0.03388
G1 X622.943 Y221.587 E0.03388
G1 X622.305 Y222.357 E0.03386
G1 X621.607 Y223.075 E0.03391
G1 X620.854 Y223.734 E0.03388
G1 X620.051 Y224.33 E0.03386
G1 X619.203 Y224.861 E0.03388
G1 X618.315 Y225.323 E0.03389
G1 X617.393 Y225.712 E0.03388
G1 X616.443 Y226.026 E0.03388
G1 X615.471 Y226.263 E0.03388
G1 X614.483 Y226.422 E0.03388
G1 X613.342 Y226.506 E0.03874
G1 X612.67 Y226.52 E0.02276
G1 X537.106 Y226.52 E2.55852
G1 X534.527 Y226.556 E0.08733
G1 X532.059 Y226.661 E0.08364
G1 X529.571 Y226.838 E0.08445
G1 X527.132 Y227.079 E0.08298
G1 X524.653 Y227.397 E0.08462
G1 X522.232 Y227.777 E0.08298
G1 X519.804 Y228.228 E0.08362
G1 X517.352 Y228.756 E0.08493
G1 X514.997 Y229.334 E0.0821
G1 X512.586 Y229.996 E0.08466
G1 X510.225 Y230.719 E0.08361
G1 X507.871 Y231.514 E0.08413
G1 X505.549 Y232.37 E0.08379
G1 X503.273 Y233.284 E0.08304
G1 X500.981 Y234.281 E0.08463
G1 X498.747 Y235.328 E0.08354
G1 X496.531 Y236.443 E0.08399
G1 X494.366 Y237.614 E0.08334
G1 X492.235 Y238.843 E0.08329
G1 X490.106 Y240.152 E0.08462
G1 X488.033 Y241.51 E0.08391
G1 X486.007 Y242.921 E0.0836
G1 X484.016 Y244.392 E0.08382
G1 X482.101 Y245.893 E0.08238
G1 X480.168 Y247.498 E0.08507
G1 X478.297 Y249.143 E0.08435
G1 X476.495 Y250.819 E0.08332
G1 X474.744 Y252.544 E0.08322
G1 X473.021 Y254.341 E0.08429
G1 X471.374 Y256.158 E0.08303
G1 X469.738 Y258.066 E0.0851
G1 X468.206 Y259.964 E0.08259
G1 X466.687 Y261.956 E0.08482
G1 X465.261 Y263.939 E0.0827
G1 X463.868 Y265.997 E0.08414
G1 X462.534 Y268.094 E0.08415
G1 X461.285 Y270.185 E0.08247
G1 X460.063 Y272.369 E0.08474
G1 X458.9 Y274.593 E0.08498
G1 X457.84 Y276.768 E0.08192
G1 X456.81 Y279.042 E0.08453
G1 X455.851 Y281.331 E0.08403
G1 X454.948 Y283.663 E0.08467
G1 X454.144 Y285.938 E0.0817
G1 X453.378 Y288.312 E0.08446
G1 X452.676 Y290.718 E0.08486
G1 X452.061 Y293.074 E0.08244
G1 X451.503 Y295.485 E0.08379
G1 X451.005 Y297.947 E0.08505
G1 X450.595 Y300.338 E0.08214
G1 X450.241 Y302.807 E0.08445
G1 X449.958 Y305.272 E0.08401
G1 X449.745 Y307.752 E0.08428
G1 X449.604 Y310.181 E0.08238
G1 X449.53 Y312.716 E0.08587
G1 X449.52 Y314.091 E0.04656
G1 X449.52 Y331.264 E0.58146
G1 X449.509 Y332.163 E0.03044
G1 X449.455 Y333.162 E0.03387
G1 X449.322 Y334.154 E0.03389
G1 X449.11 Y335.132 E0.03388
G1 X448.82 Y336.09 E0.03389
G1 X448.455 Y337.021 E0.03386
G1 X448.017 Y337.921 E0.03389
G1 X447.508 Y338.782 E0.03387
G1 X446.932 Y339.601 E0.0339
G1 X446.293 Y340.37 E0.03385
G1 X445.594 Y341.086 E0.03388
G1 X444.84 Y341.744 E0.03388
G1 X444.036 Y342.34 E0.03389
G1 X443.187 Y342.87 E0.03389
G1 X442.299 Y343.33 E0.03386
G1 X441.376 Y343.718 E0.0339
G1 X440.426 Y344.03 E0.03386
G1 X439.453 Y344.266 E0.0339
G1 X438.465 Y344.424 E0.03388
G1 X437.352 Y344.506 E0.03779
G1 X434.039 Y344.639 E0.11227
G1 X431.558 Y344.817 E0.08422
G1 X429.073 Y345.066 E0.08456
G1 X426.65 Y345.379 E0.08272
G1 X424.194 Y345.766 E0.08418
G1 X421.76 Y346.222 E0.08385
G1 X419.351 Y346.743 E0.08345
G1 X416.959 Y347.332 E0.08341
G1 X414.382 Y348.044 E0.09052
G1 X413.408 Y348.271 E0.03386
G1 X412.419 Y348.421 E0.03387
G1 X411.465 Y348.495 E0.0324
G1 X410.67 Y348.52 E0.02693
G1 X387.707 Y348.52 E0.7775
G1 X386.848 Y348.51 E0.02909
G1 X385.848 Y348.457 E0.03391
G1 X384.857 Y348.325 E0.03385
G1 X383.879 Y348.113 E0.03388
G1 X382.921 Y347.825 E0.03387
G1 X381.989 Y347.46 E0.03389
G1 X381.089 Y347.023 E0.03388
G1 X380.227 Y346.515 E0.03388
G1 X379.408 Y345.94 E0.03388
G1 X378.638 Y345.301 E0.03388
G1 X377.921 Y344.603 E0.03388
G1 X377.262 Y343.849 E0.03391
G1 X376.666 Y343.046 E0.03386
G1 X376.136 Y342.197 E0.03389
G1 X375.675 Y341.309 E0.03388
G1 X375.286 Y340.387 E0.03388
G1 X374.973 Y339.437 E0.03387
G1 X374.736 Y338.465 E0.03388
G1 X374.577 Y337.477 E0.03388
G1 X374.494 Y336.329 E0.03897
G1 X374.48 Y335.658 E0.02272
G1 X374.48 Y164.674 E5.78935
G1 X374.491 Y163.821 E0.02888
G1 X374.546 Y162.822 E0.03388
G1 X374.681 Y161.83 E0.0339
G1 X374.894 Y160.853 E0.03386
G1 X375.185 Y159.895 E0.0339
G1 X375.551 Y158.964 E0.03387
G1 X375.991 Y158.065 E0.03389
G1 X376.501 Y157.204 E0.03388
G1 X377.078 Y156.387 E0.03387
G1 X377.718 Y155.618 E0.03388
G1 X378.418 Y154.903 E0.03388
G1 X379.173 Y154.246 E0.03389
G1 X379.977 Y153.651 E0.03387
G1 X380.827 Y153.122 E0.0339
G1 X381.716 Y152.663 E0.03388
G1 X382.639 Y152.277 E0.03387
G1 X383.59 Y151.965 E0.03389
G1 X384.562 Y151.731 E0.03385
G1 X385.551 Y151.574 E0.03391
G1 X386.658 Y151.494 E0.03758
G1 X387.33 Y151.48 E0.02276
G1 X410.293 Y151.48 E0.7775
G1 X411.17 Y151.491 E0.0297
;MESH:CalibrationMultiExtruder1
G0 F4800 X388.08 Y165.08
;TYPE:WALL-INNER
G1 F600 X409.92 Y165.08 E0.73948
G1 X409.92 Y166.92 E0.0623
G1 X389.92 Y166.92 E0.67718
G1 X389.92 Y173.48 E0.22212
G1 X409.92 Y173.48 E0.67718
G1 X409.92 Y175.32 E0.0623
G1 X389.92 Y175.32 E0.67718
G1 X389.92 Y181.88 E0.22212
G1 X409.92 Y181.88 E0.67718
G1 X409.92 Y183.72 E0.0623
G1 X389.92 Y183.72 E0.67718
G1 X389.92 Y190.28 E0.22212
G1 X409.92 Y190.28 E0.67718
G1 X409.92 Y192.12 E0.0623
G1 X389.92 Y192.12 E0.67718
G1 X389.92 Y198.68 E0.22212
G1 X409.92 Y198.68 E0.67718
G1 X409.92 Y200.52 E0.0623
G1 X389.92 Y200.52 E0.67718
G1 X389.92 Y207.08 E0.22212
G1 X409.92 Y207.08 E0.67718
G1 X409.92 Y208.92 E0.0623
G1 X389.92 Y208.92 E0.67718
G1 X389.92 Y215.48 E0.22212
G1 X409.92 Y215.48 E0.67718
G1 X409.92 Y217.32 E0.0623
G1 X389.92 Y217.32 E0.67718
G1 X389.92 Y223.88 E0.22212
G1 X409.92 Y223.88 E0.67718
G1 X409.92 Y225.72 E0.0623
G1 X389.92 Y225.72 E0.67718
G1 X389.92 Y232.28 E0.22212
G1 X409.92 Y232.28 E0.67718
G1 X409.92 Y234.12 E0.0623
G1 X389.92 Y234.12 E0.67718
G1 X389.92 Y240.68 E0.22212
G1 X409.92 Y240.68 E0.67718
G1 X409.92 Y242.52 E0.0623
G1 X389.92 Y242.52 E0.67718
G1 X389.92 Y249.08 E0.22212
G1 X409.92 Y249.08 E0.67718
G1 X409.92 Y250.92 E0.0623
G1 X389.92 Y250.92 E0.67718
G1 X389.92 Y257.48 E0.22212
G1 X409.92 Y257.48 E0.67718
G1 X409.92 Y259.32 E0.0623
G1 X389.92 Y259.32 E0.67718
G1 X389.92 Y265.88 E0.22212
G1 X409.92 Y265.88 E0.67718
G1 X409.92 Y267.72 E0.0623
G1 X389.92 Y267.72 E0.67718
G1 X389.92 Y274.28 E0.22212
G1 X409.92 Y274.28 E0.67718
G1 X409.92 Y276.12 E0.0623
G1 X389.92 Y276.12 E0.67718
G1 X389.92 Y282.68 E0.22212
G1 X409.92 Y282.68 E0.67718
G1 X409.92 Y284.52 E0.0623
G1 X389.92 Y284.52 E0.67718
G1 X389.92 Y291.08 E0.22212
G1 X409.92 Y291.08 E0.67718
G1 X409.92 Y292.92 E0.0623
G1 X389.92 Y292.92 E0.67718
G1 X389.92 Y299.48 E0.22212
G1 X409.92 Y299.48 E0.67718
G1 X409.92 Y301.32 E0.0623
G1 X389.92 Y301.32 E0.67718
G1 X389.92 Y307.88 E0.22212
G1 X409.92 Y307.88 E0.67718
G1 X409.92 Y309.72 E0.0623
G1 X389.92 Y309.72 E0.67718
G1 X389.92 Y316.28 E0.22212
G1 X409.92 Y316.28 E0.67718
G1 X409.92 Y318.12 E0.0623
G1 X389.92 Y318.12 E0.67718
G1 X389.92 Y324.68 E0.22212
G1 X409.92 Y324.68 E0.67718
G1 X409.92 Y326.52 E0.0623
G1 X389.92 Y326.52 E0.67718
G1 X389.92 Y333.08 E0.22212
G1 X409.92 Y333.08 E0.67718
G1 X409.92 Y334.92 E0.0623
G1 X388.08 Y334.92 E0.73948
G1 X388.08 Y165.08 E5.75061
G0 F4800 X387.4 Y164.4
;TYPE:WALL-OUTER
G1 F600 X410.6 Y164.4 E0.78553
G1 X410.6 Y167.6 E0.10835
G1 X390.6 Y167.6 E0.67718
G1 X390.6 Y172.8 E0.17607
G1 X410.6 Y172.8 E0.67718
G1 X410.6 Y176 E0.10835
G1 X390.6 Y176 E0.67718
G1 X390.6 Y181.2 E0.17607
G1 X410.6 Y181.2 E0.67718
G1 X410.6 Y184.4 E0.10835
G1 X390.6 Y184.4 E0.67718
G1 X390.6 Y189.6 E0.17607
G1 X410.6 Y189.6 E0.67718
G1 X410.6 Y192.8 E0.10835
G1 X390.6 Y192.8 E0.67718
G1 X390.6 Y198 E0.17607
G1 X410.6 Y198 E0.67718
G1 X410.6 Y201.2 E0.10835
G1 X390.6 Y201.2 E0.67718
G1 X390.6 Y206.4 E0.17607
G1 X410.6 Y206.4 E0.67718
G1 X410.6 Y209.6 E0.10835
G1 X390.6 Y209.6 E0.67718
G1 X390.6 Y214.8 E0.17607
G1 X410.6 Y214.8 E0.67718
G1 X410.6 Y218 E0.10835
G1 X390.6 Y218 E0.67718
G1 X390.6 Y223.2 E0.17607
G1 X410.6 Y223.2 E0.67718
G1 X410.6 Y226.4 E0.10835
G1 X390.6 Y226.4 E0.67718
G1 X390.6 Y231.6 E0.17607
G1 X410.6 Y231.6 E0.67718
G1 X410.6 Y234.8 E0.10835
G1 X390.6 Y234.8 E0.67718
G1 X390.6 Y240 E0.17607
G1 X410.6 Y240 E0.67718
G1 X410.6 Y243.2 E0.10835
G1 X390.6 Y243.2 E0.67718
G1 X390.6 Y248.4 E0.17607
G1 X410.6 Y248.4 E0.67718
G1 X410.6 Y251.6 E0.10835
G1 X390.6 Y251.6 E0.67718
G1 X390.6 Y256.8 E0.17607
G1 X410.6 Y256.8 E0.67718
G1 X410.6 Y260 E0.10835
G1 X390.6 Y260 E0.67718
G1 X390.6 Y265.2 E0.17607
G1 X410.6 Y265.2 E0.67718
G1 X410.6 Y268.4 E0.10835
G1 X390.6 Y268.4 E0.67718
G1 X390.6 Y273.6 E0.17607
G1 X410.6 Y273.6 E0.67718
G1 X410.6 Y276.8 E0.10835
G1 X390.6 Y276.8 E0.67718
G1 X390.6 Y282 E0.17607
G1 X410.6 Y282 E0.67718
G1 X410.6 Y285.2 E0.10835
G1 X390.6 Y285.2 E0.67718
G1 X390.6 Y290.4 E0.17607
G1 X410.6 Y290.4 E0.67718
G1 X410.6 Y293.6 E0.10835
G1 X390.6 Y293.6 E0.67718
G1 X390.6 Y298.8 E0.17607
G1 X410.6 Y298.8 E0.67718
G1 X410.6 Y302 E0.10835
G1 X390.6 Y302 E0.67718
G1 X390.6 Y307.2 E0.17607
G1 X410.6 Y307.2 E0.67718
G1 X410.6 Y310.4 E0.10835
G1 X390.6 Y310.4 E0.67718
G1 X390.6 Y315.6 E0.17607
G1 X410.6 Y315.6 E0.67718
G1 X410.6 Y318.8 E0.10835
G1 X390.6 Y318.8 E0.67718
G1 X390.6 Y324 E0.17607
G1 X410.6 Y324 E0.67718
G1 X410.6 Y327.2 E0.10835
G1 X390.6 Y327.2 E0.67718
G1 X390.6 Y332.4 E0.17607
G1 X410.6 Y332.4 E0.67718
G1 X410.6 Y335.6 E0.10835
G1 X387.4 Y335.6 E0.78553
G1 X387.4 Y164.4 E5.79666
G1 F2100 E-0.7
G1 F300 Z1.2
G0 F4800 X442.08 Y191.08 Z1.2
;TYPE:WALL-INNER
G1 F300 Z0.3
G1 F2100 E0.7
G1 F600 X443.92 Y191.08 E0.0623
G1 X443.92 Y211.08 E0.67718
G1 X450.48 Y211.08 E0.22212
G1 X450.48 Y191.08 E0.67718
G1 X452.32 Y191.08 E0.0623
G1 X452.32 Y211.08 E0.67718
G1 X458.88 Y211.08 E0.22212
G1 X458.88 Y191.08 E0.67718
G1 X460.72 Y191.08 E0.0623
G1 X460.72 Y211.08 E0.67718
G1 X467.28 Y211.08 E0.22212
G1 X467.28 Y191.08 E0.67718
G1 X469.12 Y191.08 E0.0623
G1 X469.12 Y211.08 E0.67718
G1 X475.68 Y211.08 E0.22212
G1 X475.68 Y191.08 E0.67718
G1 X477.52 Y191.08 E0.0623
G1 X477.52 Y211.08 E0.67718
G1 X484.08 Y211.08 E0.22212
G1 X484.08 Y191.08 E0.67718
G1 X485.92 Y191.08 E0.0623
G1 X485.92 Y211.08 E0.67718
G1 X492.48 Y211.08 E0.22212
G1 X492.48 Y191.08 E0.67718
G1 X494.32 Y191.08 E0.0623
G1 X494.32 Y211.08 E0.67718
G1 X500.88 Y211.08 E0.22212
G1 X500.88 Y191.08 E0.67718
G1 X502.72 Y191.08 E0.0623
G1 X502.72 Y211.08 E0.67718
G1 X509.28 Y211.08 E0.22212
G1 X509.28 Y191.08 E0.67718
G1 X511.12 Y191.08 E0.0623
G1 X511.12 Y211.08 E0.67718
G1 X517.68 Y211.08 E0.22212
G1 X517.68 Y191.08 E0.67718
G1 X519.52 Y191.08 E0.0623
G1 X519.52 Y211.08 E0.67718
G1 X526.08 Y211.08 E0.22212
G1 X526.08 Y191.08 E0.67718
G1 X527.92 Y191.08 E0.0623
G1 X527.92 Y211.08 E0.67718
G1 X534.48 Y211.08 E0.22212
G1 X534.48 Y191.08 E0.67718
G1 X536.32 Y191.08 E0.0623
G1 X536.32 Y211.08 E0.67718
G1 X542.88 Y211.08 E0.22212
G1 X542.88 Y191.08 E0.67718
G1 X544.72 Y191.08 E0.0623
G1 X544.72 Y211.08 E0.67718
G1 X551.28 Y211.08 E0.22212
G1 X551.28 Y191.08 E0.67718
G1 X553.12 Y191.08 E0.0623
G1 X553.12 Y211.08 E0.67718
G1 X559.68 Y211.08 E0.22212
G1 X559.68 Y191.08 E0.67718
G1 X561.52 Y191.08 E0.0623
G1 X561.52 Y211.08 E0.67718
G1 X568.08 Y211.08 E0.22212
G1 X568.08 Y191.08 E0.67718
G1 X569.92 Y191.08 E0.0623
G1 X569.92 Y211.08 E0.67718
G1 X576.48 Y211.08 E0.22212
G1 X576.48 Y191.08 E0.67718
G1 X578.32 Y191.08 E0.0623
G1 X578.32 Y211.08 E0.67718
G1 X584.88 Y211.08 E0.22212
G1 X584.88 Y191.08 E0.67718
G1 X586.72 Y191.08 E0.0623
G1 X586.72 Y211.08 E0.67718
G1 X593.28 Y211.08 E0.22212
G1 X593.28 Y191.08 E0.67718
G1 X595.12 Y191.08 E0.0623
G1 X595.12 Y211.08 E0.67718
G1 X601.68 Y211.08 E0.22212
G1 X601.68 Y191.08 E0.67718
G1 X603.52 Y191.08 E0.0623
G1 X603.52 Y211.08 E0.67718
G1 X610.08 Y211.08 E0.22212
G1 X610.08 Y191.08 E0.67718
G1 X611.92 Y191.08 E0.0623
G1 X611.92 Y212.92 E0.73948
G1 X442.08 Y212.92 E5.75061
G1 X442.08 Y191.08 E0.73948
G0 F4800 X441.4 Y190.4
M104 T1 S200
;TYPE:WALL-OUTER
G1 F600 X444.6 Y190.4 E0.10835
G1 X444.6 Y210.4 E0.67718
G1 X449.8 Y210.4 E0.17607
G1 X449.8 Y190.4 E0.67718
G1 X453 Y190.4 E0.10835
G1 X453 Y210.4 E0.67718
G1 X458.2 Y210.4 E0.17607
G1 X458.2 Y190.4 E0.67718
G1 X461.4 Y190.4 E0.10835
G1 X461.4 Y210.4 E0.67718
G1 X466.6 Y210.4 E0.17607
G1 X466.6 Y190.4 E0.67718
G1 X469.8 Y190.4 E0.10835
G1 X469.8 Y210.4 E0.67718
G1 X475 Y210.4 E0.17607
G1 X475 Y190.4 E0.67718
G1 X478.2 Y190.4 E0.10835
G1 X478.2 Y210.4 E0.67718
G1 X483.4 Y210.4 E0.17607
G1 X483.4 Y190.4 E0.67718
G1 X486.6 Y190.4 E0.10835
G1 X486.6 Y210.4 E0.67718
G1 X491.8 Y210.4 E0.17607
G1 X491.8 Y190.4 E0.67718
G1 X495 Y190.4 E0.10835
G1 X495 Y210.4 E0.67718
G1 X500.2 Y210.4 E0.17607
G1 X500.2 Y190.4 E0.67718
G1 X503.4 Y190.4 E0.10835
G1 X503.4 Y210.4 E0.67718
G1 X508.6 Y210.4 E0.17607
G1 X508.6 Y190.4 E0.67718
G1 X511.8 Y190.4 E0.10835
G1 X511.8 Y210.4 E0.67718
G1 X517 Y210.4 E0.17607
G1 X517 Y190.4 E0.67718
G1 X520.2 Y190.4 E0.10835
G1 X520.2 Y210.4 E0.67718
G1 X525.4 Y210.4 E0.17607
G1 X525.4 Y190.4 E0.67718
G1 X528.6 Y190.4 E0.10835
G1 X528.6 Y210.4 E0.67718
G1 X533.8 Y210.4 E0.17607
G1 X533.8 Y190.4 E0.67718
G1 X537 Y190.4 E0.10835
G1 X537 Y210.4 E0.67718
G1 X542.2 Y210.4 E0.17607
G1 X542.2 Y190.4 E0.67718
G1 X545.4 Y190.4 E0.10835
G1 X545.4 Y210.4 E0.67718
G1 X550.6 Y210.4 E0.17607
G1 X550.6 Y190.4 E0.67718
G1 X553.8 Y190.4 E0.10835
G1 X553.8 Y210.4 E0.67718
G1 X559 Y210.4 E0.17607
G1 X559 Y190.4 E0.67718
G1 X562.2 Y190.4 E0.10835
G1 X562.2 Y210.4 E0.67718
G1 X567.4 Y210.4 E0.17607
G1 X567.4 Y190.4 E0.67718
G1 X570.6 Y190.4 E0.10835
G1 X570.6 Y210.4 E0.67718
G1 X575.8 Y210.4 E0.17607
G1 X575.8 Y190.4 E0.67718
G1 X579 Y190.4 E0.10835
G1 X579 Y210.4 E0.67718
G1 X584.2 Y210.4 E0.17607
G1 X584.2 Y190.4 E0.67718
G1 X587.4 Y190.4 E0.10835
G1 X587.4 Y210.4 E0.67718
G1 X592.6 Y210.4 E0.17607
G1 X592.6 Y190.4 E0.67718
G1 X595.8 Y190.4 E0.10835
G1 X595.8 Y210.4 E0.67718
G1 X601 Y210.4 E0.17607
G1 X601 Y190.4 E0.67718
G1 X604.2 Y190.4 E0.10835
G1 X604.2 Y210.4 E0.67718
G1 X609.4 Y210.4 E0.17607
G1 X609.4 Y190.4 E0.67718
G1 X612.6 Y190.4 E0.10835
G1 X612.6 Y213.6 E0.78553
G1 X441.4 Y213.6 E5.79666
G1 X441.4 Y190.4 E0.78553
G1 F1200 E-4
G1 F300 Z1.2
T1
M109 S200
M104 T0 S175
M107 P2
G1 F2100 E-0.5
;MESH:CalibrationMultiExtruder1(1)
G0 F4800 X441.4 Y190.4 Z1.2
G1 F300 Z1.2
G0 F4800 X436.514 Y151.563
;TYPE:SKIRT
G1 F300 Z0.3
G1 F2100 E0.5
G1 F600 X438.946 Y151.288 E0.13812
G1 X441.424 Y150.937 E0.14123
G1 X442.776 Y150.714 E0.07733
G1 X443.806 Y150.585 E0.05858
G1 X444.803 Y150.53 E0.05635
G1 X608.293 Y150.52 E9.22601
G1 X609.165 Y150.53 E0.04921
G1 X610.202 Y150.583 E0.0586
G1 X611.231 Y150.716 E0.05855
G1 X612.248 Y150.928 E0.05862
G1 X613.245 Y151.218 E0.05859
G1 X614.217 Y151.583 E0.05859
G1 X615.158 Y152.022 E0.0586
G1 X616.062 Y152.532 E0.05857
G1 X616.924 Y153.111 E0.0586
G1 X617.74 Y153.754 E0.05863
G1 X618.503 Y154.457 E0.05855
G1 X619.21 Y155.218 E0.05862
G1 X619.856 Y156.03 E0.05855
G1 X620.438 Y156.89 E0.0586
G1 X620.952 Y157.792 E0.05859
G1 X621.395 Y158.731 E0.05859
G1 X621.764 Y159.702 E0.05862
G1 X622.058 Y160.698 E0.0586
G1 X622.274 Y161.713 E0.05856
G1 X622.411 Y162.742 E0.05858
G1 X622.465 Y163.62 E0.04964
G1 X622.598 Y166.922 E0.18649
G1 X622.772 Y169.348 E0.13725
G1 X623.019 Y171.814 E0.13986
G1 X623.33 Y174.224 E0.13713
G1 X623.713 Y176.649 E0.13854
G1 X624.161 Y179.042 E0.13739
G1 X624.676 Y181.424 E0.13753
G1 X625.262 Y183.805 E0.13837
G1 X625.969 Y186.362 E0.14971
G1 X626.207 Y187.373 E0.05861
G1 X626.366 Y188.398 E0.05853
G1 X626.453 Y189.474 E0.06092
G1 X626.48 Y190.33 E0.04833
G1 X626.48 Y213.264 E1.2942
G1 X626.47 Y214.158 E0.05045
G1 X626.417 Y215.195 E0.0586
G1 X626.285 Y216.225 E0.0586
G1 X626.073 Y217.241 E0.05857
G1 X625.784 Y218.238 E0.05858
G1 X625.42 Y219.21 E0.05857
G1 X624.981 Y220.151 E0.0586
G1 X624.471 Y221.056 E0.05862
G1 X623.893 Y221.919 E0.05861
G1 X623.251 Y222.734 E0.05855
G1 X622.548 Y223.498 E0.05859
G1 X621.787 Y224.205 E0.05862
G1 X620.975 Y224.852 E0.05859
G1 X620.116 Y225.434 E0.05855
G1 X619.214 Y225.949 E0.05861
G1 X618.275 Y226.392 E0.05859
G1 X617.305 Y226.762 E0.05859
G1 X616.309 Y227.056 E0.0586
G1 X615.294 Y227.273 E0.05857
G1 X614.265 Y227.411 E0.05859
G1 X613.048 Y227.475 E0.06877
G1 X537.12 Y227.48 E4.28474
G1 X534.546 Y227.516 E0.14527
G1 X532.097 Y227.62 E0.13833
G1 X529.663 Y227.793 E0.1377
G1 X527.243 Y228.033 E0.13723
G1 X524.817 Y228.343 E0.13802
G1 X522.382 Y228.726 E0.1391
G1 X519.966 Y229.175 E0.13867
G1 X517.608 Y229.682 E0.13611
G1 X515.221 Y230.268 E0.1387
G1 X512.849 Y230.92 E0.13882
G1 X510.52 Y231.633 E0.13745
G1 X508.195 Y232.417 E0.13846
G1 X505.894 Y233.266 E0.13841
G1 X503.64 Y234.171 E0.13707
G1 X501.388 Y235.151 E0.1386
G1 X499.171 Y236.19 E0.13817
G1 X496.95 Y237.308 E0.14032
G1 X494.858 Y238.439 E0.1342
G1 X492.719 Y239.672 E0.13933
G1 X490.611 Y240.969 E0.13967
G1 X488.583 Y242.297 E0.1368
G1 X486.562 Y243.705 E0.139
G1 X484.597 Y245.156 E0.13784
G1 X482.681 Y246.658 E0.13739
G1 X480.811 Y248.211 E0.13717
G1 X478.943 Y249.853 E0.14035
G1 X477.162 Y251.51 E0.13728
G1 X475.432 Y253.214 E0.13703
G1 X473.729 Y254.989 E0.13881
G1 X472.065 Y256.826 E0.13987
G1 X470.487 Y258.667 E0.13683
G1 X468.971 Y260.545 E0.1362
G1 X467.467 Y262.518 E0.14
G1 X466.031 Y264.513 E0.13871
G1 X464.669 Y266.526 E0.13716
G1 X463.364 Y268.577 E0.13718
G1 X462.087 Y270.716 E0.14058
G1 X460.915 Y272.81 E0.13542
G1 X459.769 Y275.001 E0.13953
G1 X458.712 Y277.169 E0.13611
G1 X457.679 Y279.452 E0.14141
G1 X456.745 Y281.679 E0.13628
G1 X455.859 Y283.967 E0.13846
G1 X455.049 Y286.26 E0.13723
G1 X454.286 Y288.626 E0.14029
G1 X453.608 Y290.948 E0.13651
G1 X452.998 Y293.284 E0.13624
G1 X452.435 Y295.718 E0.14098
G1 X451.948 Y298.131 E0.13892
G1 X451.542 Y300.49 E0.13508
G1 X451.191 Y302.947 E0.14006
G1 X450.914 Y305.358 E0.13695
G1 X450.705 Y307.781 E0.13724
G1 X450.562 Y310.265 E0.14041
G1 X450.49 Y312.707 E0.13787
G1 X450.48 Y314.098 E0.0785
G1 X450.48 Y331.264 E0.96871
G1 X450.469 Y332.176 E0.05147
G1 X450.414 Y333.213 E0.0586
G1 X450.281 Y334.243 E0.05861
G1 X450.068 Y335.259 E0.05858
G1 X449.778 Y336.256 E0.05859
G1 X449.411 Y337.227 E0.05858
G1 X448.971 Y338.168 E0.05862
G1 X448.461 Y339.072 E0.05857
G1 X447.882 Y339.934 E0.0586
G1 X447.238 Y340.748 E0.05857
G1 X446.533 Y341.511 E0.05862
G1 X445.772 Y342.217 E0.05858
G1 X444.959 Y342.863 E0.0586
G1 X444.099 Y343.444 E0.05857
G1 X443.196 Y343.957 E0.05861
G1 X442.257 Y344.399 E0.05857
G1 X441.286 Y344.768 E0.05862
G1 X440.29 Y345.061 E0.05859
G1 X439.274 Y345.276 E0.0586
G1 X438.245 Y345.412 E0.05857
G1 X437.38 Y345.465 E0.0489
G1 X434.079 Y345.598 E0.18643
G1 X431.652 Y345.772 E0.13731
G1 X429.186 Y346.019 E0.13986
G1 X426.776 Y346.33 E0.13713
G1 X424.351 Y346.713 E0.13854
G1 X421.958 Y347.161 E0.13739
G1 X419.576 Y347.676 E0.13753
G1 X417.195 Y348.262 E0.13837
G1 X414.638 Y348.969 E0.14971
G1 X413.627 Y349.207 E0.05861
G1 X412.602 Y349.366 E0.05853
G1 X411.526 Y349.453 E0.06092
G1 X410.67 Y349.48 E0.04833
G1 X387.707 Y349.48 E1.29584
G1 X386.835 Y349.47 E0.04921
G1 X385.798 Y349.417 E0.0586
G1 X384.769 Y349.284 E0.05855
G1 X383.752 Y349.072 E0.05862
G1 X382.755 Y348.782 E0.05859
G1 X381.783 Y348.417 E0.05859
G1 X380.842 Y347.978 E0.0586
G1 X379.938 Y347.468 E0.05857
G1 X379.076 Y346.889 E0.0586
G1 X378.26 Y346.246 E0.05863
G1 X377.497 Y345.543 E0.05855
G1 X376.79 Y344.782 E0.05862
G1 X376.144 Y343.97 E0.05855
G1 X375.562 Y343.11 E0.0586
G1 X375.048 Y342.208 E0.05859
G1 X374.605 Y341.269 E0.05859
G1 X374.236 Y340.298 E0.05862
G1 X373.942 Y339.302 E0.0586
G1 X373.726 Y338.287 E0.05856
G1 X373.589 Y337.258 E0.05858
G1 X373.525 Y336.022 E0.06984
G1 X373.52 Y164.674 E9.66945
G1 X373.532 Y163.806 E0.04899
G1 X373.587 Y162.77 E0.05855
G1 X373.722 Y161.74 E0.05862
G1 X373.936 Y160.724 E0.05859
G1 X374.228 Y159.728 E0.05857
G1 X374.595 Y158.757 E0.05858
G1 X375.036 Y157.817 E0.05859
G1 X375.549 Y156.913 E0.05866
G1 X376.129 Y156.052 E0.05858
G1 X376.773 Y155.239 E0.05853
G1 X377.479 Y154.477 E0.05862
G1 X378.241 Y153.771 E0.05862
G1 X379.055 Y153.127 E0.05857
G1 X379.916 Y152.547 E0.05858
G1 X380.819 Y152.035 E0.05858
G1 X381.759 Y151.594 E0.05859
G1 X382.73 Y151.226 E0.0586
G1 X383.727 Y150.935 E0.05861
G1 X384.743 Y150.721 E0.05859
G1 X385.772 Y150.586 E0.05857
G1 X386.951 Y150.525 E0.06662
G1 X410.293 Y150.52 E1.31723
G1 X411.184 Y150.531 E0.05028
G1 X412.221 Y150.586 E0.0586
G1 X413.106 Y150.697 E0.05033
G1 X414.451 Y150.911 E0.07686
G1 X417.003 Y151.275 E0.14547
G1 X419.405 Y151.55 E0.13643
G1 X421.881 Y151.762 E0.14024
G1 X424.308 Y151.901 E0.13718
G1 X426.738 Y151.971 E0.13719
G1 X429.19 Y151.973 E0.13837
G1 X431.633 Y151.906 E0.13791
G1 X434.101 Y151.767 E0.13949
G1 X436.514 Y151.563 E0.13666
G1 F2100 E-0.5
G1 F300 Z1.3
G0 F4800 X435.2 Y330.2 Z1.3
;TYPE:WALL-INNER
G1 F300 Z0.3
G1 F2100 E0.5
G1 F600 X434.8 Y330.2 E0.02257
G1 X414.8 Y330.2 E1.12863
G1 X414.8 Y329.8 E0.02257
G1 X434.8 Y329.8 E0.37652
G1 X434.8 Y322.2 E0.42888
G1 X414.8 Y322.2 E1.12863
G1 X414.8 Y321.8 E0.02257
G1 X434.8 Y321.8 E0.37652
G1 X434.8 Y314.2 E0.42888
G1 X414.8 Y314.2 E1.12863
G1 X414.8 Y313.8 E0.02257
G1 X434.8 Y313.8 E0.37652
G1 X434.8 Y306.2 E0.42888
G1 X414.8 Y306.2 E1.12863
G1 X414.8 Y305.8 E0.02257
G1 X434.8 Y305.8 E0.37652
G1 X434.8 Y298.2 E0.42888
G1 X414.8 Y298.2 E1.12863
G1 X414.8 Y297.8 E0.02257
G1 X434.8 Y297.8 E0.37652
G1 X434.8 Y290.2 E0.42888
G1 X414.8 Y290.2 E1.12863
G1 X414.8 Y289.8 E0.02257
G1 X434.8 Y289.8 E0.37652
G1 X434.8 Y282.2 E0.42888
G1 X414.8 Y282.2 E1.12863
G1 X414.8 Y281.8 E0.02257
G1 X434.8 Y281.8 E0.37652
G1 X434.8 Y274.2 E0.42888
G1 X414.8 Y274.2 E1.12863
G1 X414.8 Y273.8 E0.02257
G1 X434.8 Y273.8 E0.37652
G1 X434.8 Y266.2 E0.42888
G1 X414.8 Y266.2 E1.12863
G1 X414.8 Y265.8 E0.02257
G1 X434.8 Y265.8 E0.37652
G1 X434.8 Y258.2 E0.42888
G1 X414.8 Y258.2 E1.12863
G1 X414.8 Y257.8 E0.02257
G1 X434.8 Y257.8 E0.37652
G1 X434.8 Y250.2 E0.42888
G1 X414.8 Y250.2 E1.12863
G1 X414.8 Y249.8 E0.02257
G1 X434.8 Y249.8 E0.37652
G1 X434.8 Y242.2 E0.42888
G1 X414.8 Y242.2 E1.12863
G1 X414.8 Y241.8 E0.02257
G1 X434.8 Y241.8 E0.37652
G1 X434.8 Y234.2 E0.42888
G1 X414.8 Y234.2 E1.12863
G1 X414.8 Y233.8 E0.02257
G1 X434.8 Y233.8 E0.37652
G1 X434.8 Y226.2 E0.42888
G1 X414.8 Y226.2 E1.12863
G1 X414.8 Y225.8 E0.02257
G1 X434.8 Y225.8 E0.37652
G1 X434.8 Y218.2 E0.42888
G1 X414.8 Y218.2 E1.12863
G1 X414.8 Y217.8 E0.02257
G1 X434.8 Y217.8 E0.37652
G1 X434.8 Y210.2 E0.42888
G1 X414.8 Y210.2 E1.12863
G1 X414.8 Y209.8 E0.02257
G1 X434.8 Y209.8 E0.37652
G1 X434.8 Y202.2 E0.42888
G1 X414.8 Y202.2 E1.12863
G1 X414.8 Y201.8 E0.02257
G1 X434.8 Y201.8 E0.37652
G1 X434.8 Y194.2 E0.42888
G1 X414.8 Y194.2 E1.12863
G1 X414.8 Y193.8 E0.02257
G1 X434.8 Y193.8 E0.37652
G1 X434.8 Y186.2 E0.42888
G1 X414.8 Y186.2 E1.12863
G1 X414.8 Y185.8 E0.02257
G1 X434.8 Y185.8 E0.37652
G1 X434.8 Y178.2 E0.42888
G1 X414.8 Y178.2 E1.12863
G1 X414.8 Y177.8 E0.02257
G1 X434.8 Y177.8 E0.37652
G1 X434.8 Y170.2 E0.42888
G1 X414.8 Y170.2 E1.12863
G1 X414.8 Y169.8 E0.02257
G1 X434.8 Y169.8 E0.37652
G1 X435.2 Y169.8 E0.01583
G1 X435.2 Y170.2 E0.01583
G1 X435.2 Y177.8 E0.14308
G1 X435.2 Y178.2 E0.01583
G1 X435.2 Y185.8 E0.14308
G1 X435.2 Y186.2 E0.01583
G1 X435.2 Y193.8 E0.14308
G1 X435.2 Y194.2 E0.01583
G1 X435.2 Y201.8 E0.14308
G1 X435.2 Y202.2 E0.01583
G1 X435.2 Y209.8 E0.14308
G1 X435.2 Y210.2 E0.01583
G1 X435.2 Y217.8 E0.14308
G1 X435.2 Y218.2 E0.01583
G1 X435.2 Y225.8 E0.14308
G1 X435.2 Y226.2 E0.01583
G1 X435.2 Y233.8 E0.14308
G1 X435.2 Y234.2 E0.01583
G1 X435.2 Y241.8 E0.14308
G1 X435.2 Y242.2 E0.01583
G1 X435.2 Y249.8 E0.14308
G1 X435.2 Y250.2 E0.01583
G1 X435.2 Y257.8 E0.14308
G1 X435.2 Y258.2 E0.01583
G1 X435.2 Y265.8 E0.14308
G1 X435.2 Y266.2 E0.01583
G1 X435.2 Y273.8 E0.14308
G1 X435.2 Y274.2 E0.01583
G1 X435.2 Y281.8 E0.14308
G1 X435.2 Y282.2 E0.01583
G1 X435.2 Y289.8 E0.14308
G1 X435.2 Y290.2 E0.01583
G1 X435.2 Y297.8 E0.14308
G1 X435.2 Y298.2 E0.01583
G1 X435.2 Y305.8 E0.14308
G1 X435.2 Y306.2 E0.01583
G1 X435.2 Y313.8 E0.14308
G1 X435.2 Y314.2 E0.01583
G1 X435.2 Y321.8 E0.14308
G1 X435.2 Y322.2 E0.01583
G1 X435.2 Y329.8 E0.14308
G1 X435.2 Y330.2 E0.01583
G1 F2100 E-0.5
G1 F300 Z1.3
G0 F4800 X436.4 Y331.4 Z1.3
;TYPE:WALL-OUTER
G1 F300 Z0.3
G1 F2100 E0.5
G1 F600 X413.6 Y331.4 E1.28664
G1 X413.6 Y328.6 E0.15801
G1 X433.6 Y328.6 E1.12863
G1 X433.6 Y323.4 E0.29344
G1 X413.6 Y323.4 E1.12863
G1 X413.6 Y320.6 E0.15801
G1 X433.6 Y320.6 E1.12863
G1 X433.6 Y315.4 E0.29344
G1 X413.6 Y315.4 E1.12863
G1 X413.6 Y312.6 E0.15801
G1 X433.6 Y312.6 E1.12863
G1 X433.6 Y307.4 E0.29344
G1 X413.6 Y307.4 E1.12863
G1 X413.6 Y304.6 E0.15801
G1 X433.6 Y304.6 E1.12863
G1 X433.6 Y299.4 E0.29344
G1 X413.6 Y299.4 E1.12863
G1 X413.6 Y296.6 E0.15801
G1 X433.6 Y296.6 E1.12863
G1 X433.6 Y291.4 E0.29344
G1 X413.6 Y291.4 E1.12863
G1 X413.6 Y288.6 E0.15801
G1 X433.6 Y288.6 E1.12863
G1 X433.6 Y283.4 E0.29344
G1 X413.6 Y283.4 E1.12863
G1 X413.6 Y280.6 E0.15801
G1 X433.6 Y280.6 E1.12863
G1 X433.6 Y275.4 E0.29344
G1 X413.6 Y275.4 E1.12863
G1 X413.6 Y272.6 E0.15801
G1 X433.6 Y272.6 E1.12863
G1 X433.6 Y267.4 E0.29344
G1 X413.6 Y267.4 E1.12863
G1 X413.6 Y264.6 E0.15801
G1 X433.6 Y264.6 E1.12863
G1 X433.6 Y259.4 E0.29344
G1 X413.6 Y259.4 E1.12863
G1 X413.6 Y256.6 E0.15801
G1 X433.6 Y256.6 E1.12863
G1 X433.6 Y251.4 E0.29344
G1 X413.6 Y251.4 E1.12863
G1 X413.6 Y248.6 E0.15801
G1 X433.6 Y248.6 E1.12863
G1 X433.6 Y243.4 E0.29344
G1 X413.6 Y243.4 E1.12863
G1 X413.6 Y240.6 E0.15801
G1 X433.6 Y240.6 E1.12863
G1 X433.6 Y235.4 E0.29344
G1 X413.6 Y235.4 E1.12863
G1 X413.6 Y232.6 E0.15801
G1 X433.6 Y232.6 E1.12863
G1 X433.6 Y227.4 E0.29344
G1 X413.6 Y227.4 E1.12863
G1 X413.6 Y224.6 E0.15801
G1 X433.6 Y224.6 E1.12863
G1 X433.6 Y219.4 E0.29344
G1 X413.6 Y219.4 E1.12863
G1 X413.6 Y216.6 E0.15801
G1 X433.6 Y216.6 E1.12863
G1 X433.6 Y211.4 E0.29344
G1 X413.6 Y211.4 E1.12863
G1 X413.6 Y208.6 E0.15801
G1 X433.6 Y208.6 E1.12863
G1 X433.6 Y203.4 E0.29344
G1 X413.6 Y203.4 E1.12863
G1 X413.6 Y200.6 E0.15801
G1 X433.6 Y200.6 E1.12863
G1 X433.6 Y195.4 E0.29344
G1 X413.6 Y195.4 E1.12863
G1 X413.6 Y192.6 E0.15801
G1 X433.6 Y192.6 E1.12863
G1 X433.6 Y187.4 E0.29344
G1 X413.6 Y187.4 E1.12863
G1 X413.6 Y184.6 E0.15801
G1 X433.6 Y184.6 E1.12863
G1 X433.6 Y179.4 E0.29344
G1 X413.6 Y179.4 E1.12863
G1 X413.6 Y176.6 E0.15801
G1 X433.6 Y176.6 E1.12863
G1 X433.6 Y171.4 E0.29344
G1 X413.6 Y171.4 E1.12863
G1 X413.6 Y168.6 E0.15801
G1 X436.4 Y168.6 E1.28664
G1 X436.4 Y331.4 E9.18708
G1 F2100 E-0.5
G1 F300 Z1.3
G0 F4800 X502.8 Y186.2 Z1.3
;TYPE:WALL-INNER
G1 F300 Z0.3
G1 F2100 E0.5
G1 F600 X502.8 Y166.2 E1.12863
G1 X495.2 Y166.2 E0.42888
G1 X495.2 Y186.2 E1.12863
G1 X494.8 Y186.2 E0.02257
G1 X494.8 Y166.2 E0.37652
G1 X487.2 Y166.2 E0.42888
G1 X487.2 Y186.2 E1.12863
G1 X486.8 Y186.2 E0.02257
G1 X486.8 Y166.2 E0.37652
G1 X479.2 Y166.2 E0.42888
G1 X479.2 Y186.2 E1.12863
G1 X478.8 Y186.2 E0.02257
G1 X478.8 Y166.2 E0.37652
G1 X471.2 Y166.2 E0.42888
G1 X471.2 Y186.2 E1.12863
G1 X470.8 Y186.2 E0.02257
G1 X470.8 Y166.2 E0.37652
G1 X463.2 Y166.2 E0.42888
G1 X463.2 Y186.2 E1.12863
G1 X462.8 Y186.2 E0.02257
G1 X462.8 Y166.2 E0.37652
G1 X455.2 Y166.2 E0.42888
G1 X455.2 Y186.2 E1.12863
G1 X454.8 Y186.2 E0.02257
G1 X454.8 Y166.2 E0.37652
G1 X447.2 Y166.2 E0.42888
G1 X447.2 Y186.2 E1.12863
G1 X446.8 Y186.2 E0.02257
G1 X446.8 Y166.2 E0.37652
G1 X446.8 Y165.8 E0.01583
G1 X447.2 Y165.8 E0.01583
G1 X454.8 Y165.8 E0.14308
G1 X455.2 Y165.8 E0.01583
G1 X462.8 Y165.8 E0.14308
G1 X463.2 Y165.8 E0.01583
G1 X470.8 Y165.8 E0.14308
G1 X471.2 Y165.8 E0.01583
G1 X478.8 Y165.8 E0.14308
G1 X479.2 Y165.8 E0.01583
G1 X486.8 Y165.8 E0.14308
G1 X487.2 Y165.8 E0.01583
G1 X494.8 Y165.8 E0.14308
G1 X495.2 Y165.8 E0.01583
G1 X502.8 Y165.8 E0.14308
G1 X503.2 Y165.8 E0.01583
G1 X510.8 Y165.8 E0.42888
G1 X511.2 Y165.8 E0.02257
G1 X518.8 Y165.8 E0.42888
G1 X519.2 Y165.8 E0.02257
G1 X526.8 Y165.8 E0.42888
G1 X527.2 Y165.8 E0.02257
G1 X534.8 Y165.8 E0.42888
G1 X535.2 Y165.8 E0.02257
G1 X542.8 Y165.8 E0.42888
G1 X543.2 Y165.8 E0.02257
G1 X550.8 Y165.8 E0.42888
G1 X551.2 Y165.8 E0.02257
G1 X558.8 Y165.8 E0.42888
G1 X559.2 Y165.8 E0.02257
G1 X566.8 Y165.8 E0.42888
G1 X567.2 Y165.8 E0.02257
G1 X574.8 Y165.8 E0.42888
G1 X575.2 Y165.8 E0.02257
G1 X582.8 Y165.8 E0.42888
G1 X583.2 Y165.8 E0.02257
G1 X590.8 Y165.8 E0.42888
G1 X591.2 Y165.8 E0.02257
G1 X598.8 Y165.8 E0.42888
G1 X599.2 Y165.8 E0.02257
G1 X606.8 Y165.8 E0.42888
G1 X607.2 Y165.8 E0.02257
G1 X607.2 Y166.2 E0.01583
G1 X607.2 Y186.2 E1.12863
G1 X606.8 Y186.2 E0.02257
G1 X606.8 Y166.2 E0.37652
G1 X599.2 Y166.2 E0.14308
G1 X599.2 Y186.2 E1.12863
G1 X598.8 Y186.2 E0.02257
G1 X598.8 Y166.2 E0.37652
G1 X591.2 Y166.2 E0.14308
G1 X591.2 Y186.2 E1.12863
G1 X590.8 Y186.2 E0.02257
G1 X590.8 Y166.2 E0.37652
G1 X583.2 Y166.2 E0.14308
G1 X583.2 Y186.2 E1.12863
G1 X582.8 Y186.2 E0.02257
G1 X582.8 Y166.2 E0.37652
G1 X575.2 Y166.2 E0.14308
G1 X575.2 Y186.2 E1.12863
G1 X574.8 Y186.2 E0.02257
G1 X574.8 Y166.2 E0.37652
G1 X567.2 Y166.2 E0.14308
G1 X567.2 Y186.2 E1.12863
G1 X566.8 Y186.2 E0.02257
G1 X566.8 Y166.2 E0.37652
G1 X559.2 Y166.2 E0.14308
G1 X559.2 Y186.2 E1.12863
G1 X558.8 Y186.2 E0.02257
G1 X558.8 Y166.2 E0.37652
G1 X551.2 Y166.2 E0.14308
G1 X551.2 Y186.2 E1.12863
G1 X550.8 Y186.2 E0.02257
G1 X550.8 Y166.2 E0.37652
G1 X543.2 Y166.2 E0.14308
G1 X543.2 Y186.2 E1.12863
G1 X542.8 Y186.2 E0.02257
G1 X542.8 Y166.2 E0.37652
G1 X535.2 Y166.2 E0.14308
G1 X535.2 Y186.2 E1.12863
G1 X534.8 Y186.2 E0.02257
G1 X534.8 Y166.2 E0.37652
G1 X527.2 Y166.2 E0.14308
G1 X527.2 Y186.2 E1.12863
G1 X526.8 Y186.2 E0.02257
G1 X526.8 Y166.2 E0.37652
G1 X519.2 Y166.2 E0.14308
G1 X519.2 Y186.2 E1.12863
G1 X518.8 Y186.2 E0.02257
G1 X518.8 Y166.2 E0.37652
G1 X511.2 Y166.2 E0.14308
G1 X511.2 Y186.2 E1.12863
G1 X510.8 Y186.2 E0.02257
G1 X510.8 Y166.2 E0.37652
G1 X503.2 Y166.2 E0.14308
G1 X503.2 Y186.2 E0.37652
G1 X502.8 Y186.2 E0.02257
G1 F2100 E-0.5
G1 F300 Z1.3
G0 F4800 X501.6 Y187.4 Z1.3
M104 T0 S210
;TYPE:WALL-OUTER
G1 F300 Z0.3
G1 F2100 E0.5
G1 F600 X501.6 Y167.4 E1.12863
G1 X496.4 Y167.4 E0.29344
G1 X496.4 Y187.4 E1.12863
G1 X493.6 Y187.4 E0.15801
G1 X493.6 Y167.4 E1.12863
G1 X488.4 Y167.4 E0.29344
G1 X488.4 Y187.4 E1.12863
G1 X485.6 Y187.4 E0.15801
G1 X485.6 Y167.4 E1.12863
G1 X480.4 Y167.4 E0.29344
G1 X480.4 Y187.4 E1.12863
G1 X477.6 Y187.4 E0.15801
G1 X477.6 Y167.4 E1.12863
G1 X472.4 Y167.4 E0.29344
G1 X472.4 Y187.4 E1.12863
G1 X469.6 Y187.4 E0.15801
G1 X469.6 Y167.4 E1.12863
G1 X464.4 Y167.4 E0.29344
G1 X464.4 Y187.4 E1.12863
G1 X461.6 Y187.4 E0.15801
G1 X461.6 Y167.4 E1.12863
G1 X456.4 Y167.4 E0.29344
G1 X456.4 Y187.4 E1.12863
G1 X453.6 Y187.4 E0.15801
G1 X453.6 Y167.4 E1.12863
G1 X448.4 Y167.4 E0.29344
G1 X448.4 Y187.4 E1.12863
G1 X445.6 Y187.4 E0.15801
G1 X445.6 Y164.6 E1.28664
G1 X608.4 Y164.6 E9.18708
G1 X608.4 Y187.4 E1.28664
G1 X605.6 Y187.4 E0.15801
G1 X605.6 Y167.4 E1.12863
G1 X600.4 Y167.4 E0.29344
G1 X600.4 Y187.4 E1.12863
G1 X597.6 Y187.4 E0.15801
G1 X597.6 Y167.4 E1.12863
G1 X592.4 Y167.4 E0.29344
G1 X592.4 Y187.4 E1.12863
G1 X589.6 Y187.4 E0.15801
G1 X589.6 Y167.4 E1.12863
G1 X584.4 Y167.4 E0.29344
G1 X584.4 Y187.4 E1.12863
G1 X581.6 Y187.4 E0.15801
G1 X581.6 Y167.4 E1.12863
G1 X576.4 Y167.4 E0.29344
G1 X576.4 Y187.4 E1.12863
G1 X573.6 Y187.4 E0.15801
G1 X573.6 Y167.4 E1.12863
G1 X568.4 Y167.4 E0.29344
G1 X568.4 Y187.4 E1.12863
G1 X565.6 Y187.4 E0.15801
G1 X565.6 Y167.4 E1.12863
G1 X560.4 Y167.4 E0.29344
G1 X560.4 Y187.4 E1.12863
G1 X557.6 Y187.4 E0.15801
G1 X557.6 Y167.4 E1.12863
G1 X552.4 Y167.4 E0.29344
G1 X552.4 Y187.4 E1.12863
G1 X549.6 Y187.4 E0.15801
G1 X549.6 Y167.4 E1.12863
G1 X544.4 Y167.4 E0.29344
G1 X544.4 Y187.4 E1.12863
G1 X541.6 Y187.4 E0.15801
G1 X541.6 Y167.4 E1.12863
G1 X536.4 Y167.4 E0.29344
G1 X536.4 Y187.4 E1.12863
G1 X533.6 Y187.4 E0.15801
G1 X533.6 Y167.4 E1.12863
G1 X528.4 Y167.4 E0.29344
G1 X528.4 Y187.4 E1.12863
G1 X525.6 Y187.4 E0.15801
G1 X525.6 Y167.4 E1.12863
G1 X520.4 Y167.4 E0.29344
G1 X520.4 Y187.4 E1.12863
G1 X517.6 Y187.4 E0.15801
G1 X517.6 Y167.4 E1.12863
G1 X512.4 Y167.4 E0.29344
G1 X512.4 Y187.4 E1.12863
G1 X509.6 Y187.4 E0.15801
G1 X509.6 Y167.4 E1.12863
G1 X504.4 Y167.4 E0.29344
G1 X504.4 Y187.4 E1.12863
G1 X501.6 Y187.4 E0.15801
G1 F2100 E-0.5
G1 F300 Z1.3
;MESH:NONMESH
G0 F4800 X435.2 Y250.2 Z1.3
;TIME_ELAPSED:1389.391173
;LAYER:1
M140 S50
M106 S127.5 P2
;MESH:CalibrationMultiExtruder1(1)
G0 F7800 X435.2 Y250.2 Z1.6
;TYPE:WALL-INNER
G1 F300 Z0.6
G1 F2100 E0.5
G1 F1050 X424.8 Y250.2 E0.58689
G1 X424.8 Y249.8 E0.02257
G1 X435.2 Y249.8 E0.19579
G1 X435.2 Y250.2 E0.02257
G1 F2100 E-0.5
G1 F300 Z1.6
G0 F7800 X436.4 Y251.4 Z1.6
;TYPE:WALL-OUTER
G1 F300 Z0.6
G1 F2100 E0.5
G1 F1050 X423.6 Y251.4 E0.72233
G1 X423.6 Y248.6 E0.15801
G1 X436.4 Y248.6 E0.72233
G1 X436.4 Y251.4 E0.15801
G1 F2100 E-0.5
G1 F300 Z1.6
G0 F7800 X526.8 Y176.2 Z1.6
;TYPE:WALL-INNER
G1 F300 Z0.6
G1 F2100 E0.5
G1 F1050 X526.8 Y165.8 E0.58689
G1 X527.2 Y165.8 E0.02257
G1 X527.2 Y176.2 E0.19579
G1 X526.8 Y176.2 E0.02257
G1 F2100 E-0.5
G1 F300 Z1.6
G0 F7800 X525.6 Y177.4 Z1.6
;TYPE:WALL-OUTER
G1 F300 Z0.6
G1 F2100 E0.5
G1 F1050 X525.6 Y164.6 E0.72233
G1 X528.4 Y164.6 E0.15801
G1 X528.4 Y177.4 E0.72233
G1 X525.6 Y177.4 E0.15801
G1 F1200 E-4
G1 F300 Z1.5
T0
M109 S210
M104 T1 S0
M106 S127.5
G1 F1200 E3.3
;MESH:CalibrationMultiExtruder1
G0 F7800 X525.6 Y177.4 Z1.5
G1 F300 Z1.5
G0 F7800 X388.08 Y249.08
;TYPE:WALL-INNER
G1 F300 Z0.6
G1 F2100 E0.7
G1 F946.8 X399.92 Y249.08 E0.40089
G1 X399.92 Y250.92 E0.0623
G1 X388.08 Y250.92 E0.40089
G1 X388.08 Y249.08 E0.0623
G0 F7800 X387.4 Y248.4
;TYPE:WALL-OUTER
G1 F946.8 X400.6 Y248.4 E0.44694
G1 X400.6 Y251.6 E0.10835
G1 X387.4 Y251.6 E0.44694
G1 X387.4 Y248.4 E0.10835
G1 F2100 E-0.7
G1 F300 Z1.5
G0 F7800 X526.08 Y201.08 Z1.5
;TYPE:WALL-INNER
G1 F300 Z0.6
G1 F2100 E0.7
G1 F946.8 X527.92 Y201.08 E0.0623
G1 X527.92 Y212.92 E0.40089
G1 X526.08 Y212.92 E0.0623
G1 X526.08 Y201.08 E0.40089
G0 F7800 X525.4 Y200.4
;TYPE:WALL-OUTER
G1 F946.8 X528.6 Y200.4 E0.10835
G1 X528.6 Y213.6 E0.44694
G1 X525.4 Y213.6 E0.10835
G1 X525.4 Y200.4 E0.44694
;TIME_ELAPSED:1421.076310
G1 F2100 E-0.7
M140 S0
M141 S0
M82 ;absolute extrusion mode
M107
G1 X5 Y5 F3000 ;Wipe out
G90 ;Absolute positionning
G1 Z10
T0
G1 X0 Y0 ;Present print
M106 S0 ;Turn-off fan
M104 T0 S0 ;Turn-off hotend
M104 T1 S0 ;Turn-off hotend
M140 S0 ;Turn-off bed
M84 X Y E ;Disable all steppers but Z
M98 P"endPrint.g"
M83 ;relative extrusion mode
M104 S0
;End of Gcode
;SETTING_3 {"global_quality": "[general]\\nversion = 4\\nname = Setting XY CAL\\
;SETTING_3 ndefinition = fabbrix_elemento_v2\\n\\n[metadata]\\nquality_type = st
;SETTING_3 andard\\nsetting_version = 14\\ntype = quality_changes\\n\\n[values]\
;SETTING_3 \nadhesion_type = skirt\\nlayer_height_0 = 0.3\\nmaterial_bed_tempera
;SETTING_3 ture = 50\\nmaterial_bed_temperature_layer_0 = 50\\nprime_tower_enabl
;SETTING_3 e = False\\nprime_tower_position_x = 60\\nprime_tower_position_y = 30
;SETTING_3 \\nretraction_combing = off\\n\\n", "extruder_quality": ["[general]\\
;SETTING_3 nversion = 4\\nname = Setting XY CAL\\ndefinition = fabbrix_elemento_
;SETTING_3 v2\\n\\n[metadata]\\nintent_category = default\\nquality_type = stand
;SETTING_3 ard\\nposition = 0\\nsetting_version = 14\\ntype = quality_changes\\n
;SETTING_3 \\n[values]\\nbottom_layers = 0\\ninfill_sparse_density = 0\\nmateria
;SETTING_3 l_print_temperature = 210\\nmultiple_mesh_overlap = 0.0\\nprime_tower
;SETTING_3 _flow = 120\\nprime_tower_min_volume = 12\\nretraction_amount = 0.7\\
;SETTING_3 nretraction_hop = 0.9\\nretraction_hop_after_extruder_switch_height =
;SETTING_3  0.9\\nretraction_hop_enabled = True\\nskirt_line_count = 4\\nspeed_l
;SETTING_3 ayer_0 = 10\\nspeed_travel = 180\\nswitch_extruder_retraction_amount 
;SETTING_3 = 4\\ntop_layers = 0\\nwall_line_count = 2\\nz_seam_corner = z_seam_c
;SETTING_3 orner_outer\\nz_seam_position = frontleft\\nz_seam_relative = True\\n
;SETTING_3 zig_zaggify_infill = True\\n\\n", "[general]\\nversion = 4\\nname = S
;SETTING_3 etting XY CAL\\ndefinition = fabbrix_elemento_v2\\n\\n[metadata]\\nin
;SETTING_3 tent_category = default\\nquality_type = standard\\nposition = 1\\nse
;SETTING_3 tting_version = 14\\ntype = quality_changes\\n\\n[values]\\nbottom_la
;SETTING_3 yers = 0\\ninfill_sparse_density = 0\\ninitial_bottom_layers = 0\\nre
;SETTING_3 traction_amount = 0.5\\nretraction_hop = 1\\nretraction_hop_after_ext
;SETTING_3 ruder_switch_height = 0.9\\nretraction_hop_enabled = True\\nretractio
;SETTING_3 n_speed = 35\\nspeed_layer_0 = 10\\nspeed_travel = 180\\nswitch_extru
;SETTING_3 der_retraction_amount = 4\\ntop_layers = 0\\nwall_line_count = 2\\n\\
;SETTING_3 n"]}
