;FLAVOR:RepRap
;TIME:898
;Filament used: 0.301675m, 0.241289m
;Layer height: 0.45
;MINX:374.34
;MINY:151.34
;MINZ:0.28
;MAXX:625.66
;MAXY:348.66
;MAXZ:0.28
;LINEARADVANCEPROCESSED
;Generated with Cura_SteamEngine 4.6.2
T0
M190 S60
M104 S200
M104 T1 S175
M109 S200
M109 T1 S175
M82 ;absolute extrusion mode
T0
M104 S200
M109 S200
M98 P"startPrint.g"
M82 ;absolute extrusion mode
G21 ;metric values
G90 ;absolute positioning
M83 ;set extruder to relative mode
M107 ;start with the fan off
M109 S200 B210 F1;activate auto temp min 180 max 210 scaling factor 1 (for PLA)
G28; Home Axis
G29 S1; Z-Probe the bed (requires Z-Probe!)
G1 Z5.0 F9000 ;move the head 5mm up for CYA clearance
G92 E0 ;zero the extruded length
M117 Cleaning...;Put Cleaning message on screen
G1 X-20 Y0 F4000 ; move half way along the front edge
G1 Z1 ; move nozzle close to bed
M109 S200 ; heat nozzle to 200 degC and wait until reached
G4 P1000 ; wait 10 seconds for nozzle length to stabilize
G1 E15 ; extrude 10 mm of filament
G1 Z15 F12000 E5 ; move 15 mm up, fast, while extruding 5mm
G92 E0 ; reset extruder
M117 Printing...;Put printing message on LCD screen
M141 S28
M83 ;relative extrusion mode
G1 F2100 E-0.5
;LAYER_COUNT:1
M572 S0.000000 D1 ;added by LinearAdvanceSettingPlugin
M572 S0.000000 D0 ;added by LinearAdvanceSettingPlugin
;LAYER:0
M107
G0 F6000 X411.139 Y153.651 Z0.28
;TYPE:SKIRT
G1 F2100 E0.5
G1 F1200 X412.048 Y153.704 E0.02877
G1 X412.617 Y153.778 E0.01813
G1 X414.034 Y154.003 E0.04534
G1 X416.6 Y154.37 E0.08192
G1 X419.105 Y154.656 E0.07968
G1 X421.646 Y154.874 E0.08059
G1 X424.147 Y155.017 E0.07917
G1 X426.715 Y155.091 E0.08119
G1 X429.239 Y155.093 E0.07976
G1 X431.755 Y155.024 E0.07954
G1 X434.324 Y154.879 E0.08131
G1 X436.809 Y154.669 E0.07881
G1 X439.347 Y154.383 E0.08071
G1 X441.885 Y154.023 E0.08101
G1 X443.284 Y153.792 E0.04481
G1 X444.567 Y153.662 E0.04075
G1 X445.33 Y153.64 E0.02412
G1 X608.293 Y153.64 E5.14991
G1 X609.125 Y153.65 E0.02629
G1 X610.033 Y153.702 E0.02874
G1 X610.934 Y153.833 E0.02877
G1 X611.82 Y154.043 E0.02877
G1 X612.683 Y154.329 E0.02873
G1 X613.519 Y154.691 E0.02879
G1 X614.319 Y155.124 E0.02875
G1 X615.078 Y155.626 E0.02876
G1 X615.791 Y156.193 E0.02879
G1 X616.45 Y156.82 E0.02875
G1 X617.053 Y157.502 E0.02877
G1 X617.593 Y158.235 E0.02877
G1 X618.066 Y159.012 E0.02875
G1 X618.47 Y159.828 E0.02877
G1 X618.8 Y160.676 E0.02876
G1 X619.055 Y161.55 E0.02877
G1 X619.232 Y162.442 E0.02874
G1 X619.347 Y163.71 E0.04024
G1 X619.37 Y164.518 E0.02554
G1 X619.483 Y167.105 E0.08183
G1 X619.665 Y169.636 E0.08019
G1 X619.915 Y172.134 E0.07934
G1 X620.244 Y174.683 E0.08122
G1 X620.634 Y177.15 E0.07893
G1 X621.105 Y179.67 E0.08102
G1 X621.636 Y182.123 E0.07931
G1 X622.245 Y184.6 E0.08061
G1 X622.962 Y187.193 E0.08502
G1 X623.165 Y188.08 E0.02876
G1 X623.315 Y189.295 E0.03869
G1 X623.339 Y189.672 E0.01194
G1 X623.36 Y190.33 E0.0208
G1 X623.36 Y213.264 E0.72475
G1 X623.35 Y214.119 E0.02702
G1 X623.299 Y215.028 E0.02877
G1 X623.168 Y215.929 E0.02877
G1 X622.959 Y216.814 E0.02874
G1 X622.673 Y217.678 E0.02876
G1 X622.312 Y218.514 E0.02878
G1 X621.879 Y219.315 E0.02877
G1 X621.377 Y220.074 E0.02876
G1 X620.811 Y220.787 E0.02877
G1 X620.184 Y221.447 E0.02877
G1 X619.502 Y222.049 E0.02875
G1 X618.77 Y222.59 E0.02876
G1 X617.993 Y223.064 E0.02876
G1 X617.177 Y223.468 E0.02877
G1 X616.329 Y223.798 E0.02876
G1 X615.455 Y224.054 E0.02878
G1 X614.563 Y224.231 E0.02874
G1 X613.281 Y224.347 E0.04068
G1 X612.67 Y224.36 E0.01931
G1 X537.076 Y224.36 E2.3889
G1 X534.476 Y224.397 E0.08217
G1 X531.919 Y224.505 E0.08088
G1 X529.42 Y224.683 E0.07917
G1 X526.856 Y224.937 E0.08142
G1 X524.359 Y225.256 E0.07955
G1 X521.864 Y225.648 E0.07981
G1 X519.372 Y226.112 E0.08011
G1 X516.907 Y226.642 E0.07968
G1 X514.45 Y227.245 E0.07995
G1 X511.969 Y227.926 E0.0813
G1 X509.573 Y228.66 E0.07919
G1 X507.147 Y229.478 E0.08091
G1 X504.773 Y230.354 E0.07997
G1 X502.414 Y231.301 E0.08033
G1 X500.126 Y232.297 E0.07886
G1 X497.796 Y233.389 E0.08132
G1 X495.526 Y234.531 E0.0803
G1 X493.312 Y235.728 E0.07954
G1 X491.114 Y236.996 E0.08019
G1 X488.964 Y238.318 E0.07976
G1 X486.821 Y239.722 E0.08096
G1 X484.761 Y241.157 E0.07934
G1 X482.702 Y242.678 E0.0809
G1 X480.729 Y244.224 E0.07921
G1 X478.779 Y245.843 E0.08009
G1 X476.835 Y247.553 E0.08182
G1 X475 Y249.259 E0.07918
G1 X473.214 Y251.019 E0.07924
G1 X471.457 Y252.85 E0.08019
G1 X469.732 Y254.755 E0.08121
G1 X468.09 Y256.669 E0.07969
G1 X466.487 Y258.655 E0.08065
G1 X464.974 Y260.641 E0.0789
G1 X463.471 Y262.729 E0.0813
G1 X462.069 Y264.8 E0.07903
G1 X460.706 Y266.943 E0.08026
G1 X459.392 Y269.144 E0.08101
G1 X458.174 Y271.319 E0.07878
G1 X456.983 Y273.597 E0.08123
G1 X455.869 Y275.882 E0.08033
G1 X454.835 Y278.166 E0.07923
G1 X453.85 Y280.518 E0.08058
G1 X452.928 Y282.897 E0.08063
G1 X452.086 Y285.283 E0.07996
G1 X451.311 Y287.684 E0.07973
G1 X450.608 Y290.091 E0.07924
G1 X449.96 Y292.574 E0.0811
G1 X449.389 Y295.043 E0.08008
G1 X448.879 Y297.564 E0.08128
G1 X448.457 Y300.021 E0.07878
G1 X448.101 Y302.506 E0.07933
G1 X447.809 Y305.055 E0.08108
G1 X447.591 Y307.581 E0.08012
G1 X447.446 Y310.1 E0.07974
G1 X447.37 Y312.683 E0.08166
G1 X447.36 Y314.075 E0.04399
G1 X447.36 Y331.264 E0.5432
G1 X447.349 Y332.133 E0.02746
G1 X447.297 Y333.042 E0.02877
G1 X447.165 Y333.943 E0.02878
G1 X446.954 Y334.828 E0.02875
G1 X446.666 Y335.692 E0.02878
G1 X446.304 Y336.527 E0.02876
G1 X445.87 Y337.327 E0.02876
G1 X445.368 Y338.086 E0.02876
G1 X444.8 Y338.797 E0.02876
G1 X444.173 Y339.457 E0.02877
G1 X443.49 Y340.058 E0.02875
G1 X442.757 Y340.598 E0.02877
G1 X441.979 Y341.071 E0.02877
G1 X441.163 Y341.473 E0.02875
G1 X440.315 Y341.803 E0.02876
G1 X439.441 Y342.057 E0.02876
G1 X438.548 Y342.233 E0.02876
G1 X437.29 Y342.347 E0.03992
G1 X436.462 Y342.371 E0.02618
G1 X433.896 Y342.483 E0.08117
G1 X431.363 Y342.665 E0.08025
G1 X428.866 Y342.915 E0.0793
G1 X426.317 Y343.244 E0.08122
G1 X423.85 Y343.634 E0.07893
G1 X421.33 Y344.105 E0.08102
G1 X418.877 Y344.636 E0.07931
G1 X416.4 Y345.245 E0.08061
G1 X413.807 Y345.962 E0.08502
G1 X412.92 Y346.165 E0.02876
G1 X411.705 Y346.315 E0.03869
G1 X411.328 Y346.339 E0.01194
G1 X410.67 Y346.36 E0.0208
G1 X387.707 Y346.36 E0.72567
G1 X386.875 Y346.35 E0.02629
G1 X385.967 Y346.298 E0.02874
G1 X385.066 Y346.167 E0.02877
G1 X384.18 Y345.957 E0.02877
G1 X383.317 Y345.671 E0.02873
G1 X382.481 Y345.309 E0.02879
G1 X381.681 Y344.876 E0.02875
G1 X380.922 Y344.374 E0.02876
G1 X380.209 Y343.807 E0.02879
G1 X379.55 Y343.18 E0.02875
G1 X378.947 Y342.498 E0.02877
G1 X378.407 Y341.765 E0.02877
G1 X377.934 Y340.988 E0.02875
G1 X377.53 Y340.172 E0.02877
G1 X377.2 Y339.324 E0.02876
G1 X376.945 Y338.45 E0.02877
G1 X376.768 Y337.558 E0.02874
G1 X376.653 Y336.271 E0.04083
G1 X376.64 Y335.658 E0.01938
G1 X376.64 Y164.674 E5.40339
G1 X376.651 Y163.853 E0.02595
G1 X376.705 Y162.945 E0.02875
G1 X376.838 Y162.044 E0.02878
G1 X377.05 Y161.159 E0.02876
G1 X377.338 Y160.296 E0.02875
G1 X377.701 Y159.461 E0.02877
G1 X378.137 Y158.662 E0.02876
G1 X378.64 Y157.904 E0.02875
G1 X379.208 Y157.193 E0.02876
G1 X379.837 Y156.534 E0.02879
G1 X380.52 Y155.933 E0.02875
G1 X381.254 Y155.395 E0.02876
G1 X382.032 Y154.923 E0.02876
G1 X382.849 Y154.521 E0.02877
G1 X383.698 Y154.193 E0.02876
G1 X384.572 Y153.94 E0.02875
G1 X385.465 Y153.765 E0.02876
G1 X386.719 Y153.653 E0.03979
G1 X387.33 Y153.64 E0.01931
G1 X410.293 Y153.64 E0.72567
G1 X411.139 Y153.651 E0.02674
G0 F6000 X411.15 Y152.931
G1 F1200 X412.089 Y152.985 E0.02972
G1 X412.73 Y153.067 E0.02042
G1 X414.12 Y153.288 E0.04448
G1 X416.711 Y153.658 E0.08271
G1 X419.181 Y153.94 E0.07856
G1 X421.677 Y154.155 E0.07917
G1 X424.209 Y154.299 E0.08014
G1 X426.701 Y154.371 E0.07878
G1 X429.22 Y154.373 E0.0796
G1 X431.764 Y154.303 E0.08043
G1 X434.224 Y154.164 E0.07786
G1 X436.771 Y153.949 E0.08078
G1 X439.272 Y153.667 E0.07954
G1 X441.757 Y153.315 E0.07931
G1 X443.167 Y153.082 E0.04516
G1 X444.539 Y152.942 E0.04358
G1 X445.33 Y152.92 E0.02501
G1 X608.293 Y152.92 E5.14991
G1 X609.134 Y152.93 E0.02658
G1 X610.074 Y152.982 E0.02975
G1 X611.006 Y153.114 E0.02975
G1 X611.923 Y153.324 E0.02973
G1 X612.82 Y153.611 E0.02976
G1 X613.688 Y153.974 E0.02973
G1 X614.523 Y154.409 E0.02975
G1 X615.318 Y154.913 E0.02975
G1 X616.067 Y155.483 E0.02974
G1 X616.765 Y156.114 E0.02974
G1 X617.407 Y156.802 E0.02974
G1 X617.988 Y157.543 E0.02976
G1 X618.505 Y158.33 E0.02976
G1 X618.953 Y159.158 E0.02975
G1 X619.328 Y160.021 E0.02974
G1 X619.63 Y160.913 E0.02976
G1 X619.854 Y161.827 E0.02974
G1 X620 Y162.757 E0.02975
G1 X620.066 Y163.689 E0.02953
G1 X620.086 Y164.392 E0.02223
G1 X620.203 Y167.092 E0.0854
G1 X620.38 Y169.549 E0.07785
G1 X620.634 Y172.077 E0.08029
G1 X620.957 Y174.585 E0.07991
G1 X621.346 Y177.047 E0.07877
G1 X621.808 Y179.52 E0.0795
G1 X622.334 Y181.948 E0.07851
G1 X622.94 Y184.411 E0.08016
G1 X623.656 Y187.001 E0.08492
G1 X623.868 Y187.918 E0.02974
G1 X624.034 Y189.249 E0.04239
G1 X624.058 Y189.626 E0.01194
G1 X624.08 Y190.33 E0.02226
G1 X624.08 Y213.264 E0.72475
G1 X624.07 Y214.128 E0.02731
G1 X624.019 Y215.068 E0.02975
G1 X623.887 Y216 E0.02975
G1 X623.677 Y216.918 E0.02976
G1 X623.391 Y217.814 E0.02972
G1 X623.028 Y218.683 E0.02976
G1 X622.594 Y219.518 E0.02974
G1 X622.09 Y220.313 E0.02975
G1 X621.521 Y221.063 E0.02975
G1 X620.89 Y221.761 E0.02974
G1 X620.202 Y222.404 E0.02976
G1 X619.462 Y222.985 E0.02973
G1 X618.675 Y223.502 E0.02976
G1 X617.847 Y223.95 E0.02975
G1 X616.984 Y224.326 E0.02975
G1 X616.093 Y224.628 E0.02973
G1 X615.179 Y224.853 E0.02975
G1 X614.249 Y224.999 E0.02975
G1 X613.302 Y225.067 E0.03
G1 X612.67 Y225.08 E0.01998
G1 X537.086 Y225.08 E2.38859
G1 X534.481 Y225.117 E0.08233
G1 X531.966 Y225.224 E0.07955
G1 X529.47 Y225.401 E0.07908
G1 X526.951 Y225.65 E0.07999
G1 X524.49 Y225.965 E0.07841
G1 X521.96 Y226.363 E0.08094
G1 X519.521 Y226.816 E0.07839
G1 X517.055 Y227.347 E0.07972
G1 X514.629 Y227.942 E0.07894
G1 X512.164 Y228.619 E0.08078
G1 X509.798 Y229.344 E0.0782
G1 X507.389 Y230.156 E0.08034
G1 X505.043 Y231.022 E0.07903
G1 X502.691 Y231.966 E0.08009
G1 X500.397 Y232.965 E0.07907
G1 X498.133 Y234.026 E0.07901
G1 X495.858 Y235.171 E0.08049
G1 X493.677 Y236.349 E0.07833
G1 X491.46 Y237.628 E0.08088
G1 X489.344 Y238.929 E0.0785
G1 X487.251 Y240.3 E0.07907
G1 X485.169 Y241.75 E0.08018
G1 X483.142 Y243.248 E0.07965
G1 X481.179 Y244.786 E0.07881
G1 X479.222 Y246.411 E0.08039
G1 X477.347 Y248.06 E0.07891
G1 X475.505 Y249.773 E0.07949
G1 X473.712 Y251.539 E0.07953
G1 X471.967 Y253.359 E0.07968
G1 X470.283 Y255.217 E0.07924
G1 X468.641 Y257.133 E0.07974
G1 X467.075 Y259.072 E0.07876
G1 X465.525 Y261.106 E0.08081
G1 X464.092 Y263.098 E0.07755
G1 X462.653 Y265.224 E0.08113
G1 X461.317 Y267.324 E0.07866
G1 X460.018 Y269.5 E0.08009
G1 X458.803 Y271.669 E0.07857
G1 X457.632 Y273.91 E0.07991
G1 X456.522 Y276.187 E0.08005
G1 X455.497 Y278.45 E0.07851
G1 X454.509 Y280.808 E0.08079
G1 X453.61 Y283.129 E0.07866
G1 X452.775 Y285.494 E0.07926
G1 X451.991 Y287.923 E0.08066
G1 X451.297 Y290.301 E0.07828
G1 X450.659 Y292.744 E0.07979
G1 X450.091 Y295.2 E0.07966
G1 X449.594 Y297.661 E0.07934
G1 X449.168 Y300.138 E0.07943
G1 X448.813 Y302.618 E0.07917
G1 X448.525 Y305.128 E0.07984
G1 X448.311 Y307.615 E0.07888
G1 X448.164 Y310.162 E0.08062
G1 X448.09 Y312.664 E0.0791
G1 X448.08 Y314.08 E0.04475
G1 X448.08 Y331.264 E0.54304
G1 X448.069 Y332.143 E0.02778
G1 X448.016 Y333.083 E0.02975
G1 X447.884 Y334.015 E0.02975
G1 X447.672 Y334.932 E0.02974
G1 X447.384 Y335.828 E0.02974
G1 X447.021 Y336.697 E0.02976
G1 X446.585 Y337.531 E0.02974
G1 X446.081 Y338.326 E0.02975
G1 X445.51 Y339.074 E0.02974
G1 X444.878 Y339.772 E0.02976
G1 X444.189 Y340.413 E0.02974
G1 X443.448 Y340.994 E0.02976
G1 X442.661 Y341.51 E0.02974
G1 X441.833 Y341.957 E0.02974
G1 X440.969 Y342.332 E0.02976
G1 X440.077 Y342.632 E0.02974
G1 X439.163 Y342.856 E0.02974
G1 X438.233 Y343.001 E0.02974
G1 X437.31 Y343.066 E0.02924
G1 X436.587 Y343.087 E0.02286
G1 X433.906 Y343.204 E0.0848
G1 X431.453 Y343.38 E0.07772
G1 X428.923 Y343.634 E0.08035
G1 X426.415 Y343.957 E0.07991
G1 X423.953 Y344.346 E0.07877
G1 X421.48 Y344.808 E0.0795
G1 X419.052 Y345.334 E0.07851
G1 X416.589 Y345.94 E0.08016
G1 X413.999 Y346.656 E0.08492
G1 X413.082 Y346.868 E0.02974
G1 X411.751 Y347.034 E0.04239
G1 X411.374 Y347.058 E0.01194
G1 X410.67 Y347.08 E0.02226
G1 X387.707 Y347.08 E0.72567
G1 X386.866 Y347.07 E0.02658
G1 X385.926 Y347.018 E0.02975
G1 X384.994 Y346.886 E0.02975
G1 X384.077 Y346.676 E0.02973
G1 X383.18 Y346.389 E0.02976
G1 X382.312 Y346.026 E0.02973
G1 X381.477 Y345.591 E0.02975
G1 X380.682 Y345.087 E0.02975
G1 X379.933 Y344.517 E0.02974
G1 X379.235 Y343.886 E0.02974
G1 X378.593 Y343.198 E0.02974
G1 X378.012 Y342.457 E0.02976
G1 X377.495 Y341.67 E0.02976
G1 X377.047 Y340.842 E0.02975
G1 X376.672 Y339.979 E0.02974
G1 X376.37 Y339.087 E0.02976
G1 X376.146 Y338.173 E0.02974
G1 X376 Y337.243 E0.02975
G1 X375.933 Y336.29 E0.03019
G1 X375.92 Y335.658 E0.01998
G1 X375.92 Y164.674 E5.40339
G1 X375.931 Y163.842 E0.02629
G1 X375.985 Y162.903 E0.02972
G1 X376.119 Y161.971 E0.02976
G1 X376.331 Y161.054 E0.02974
G1 X376.621 Y160.158 E0.02976
G1 X376.985 Y159.29 E0.02974
G1 X377.422 Y158.456 E0.02975
G1 X377.928 Y157.663 E0.02973
G1 X378.499 Y156.915 E0.02974
G1 X379.132 Y156.218 E0.02975
G1 X379.822 Y155.577 E0.02976
G1 X380.563 Y154.998 E0.02972
G1 X381.351 Y154.483 E0.02975
G1 X382.18 Y154.037 E0.02975
G1 X383.044 Y153.663 E0.02975
G1 X383.936 Y153.364 E0.02973
G1 X384.851 Y153.141 E0.02976
G1 X385.781 Y152.997 E0.02974
G1 X386.698 Y152.933 E0.02905
G1 X387.33 Y152.92 E0.01998
G1 X410.293 Y152.92 E0.72567
G1 X411.15 Y152.931 E0.02708
G0 F6000 X411.16 Y152.211
G1 F1200 X412.13 Y152.265 E0.0307
G1 X412.843 Y152.356 E0.02271
G1 X414.269 Y152.583 E0.04563
G1 X416.754 Y152.938 E0.07933
G1 X419.253 Y153.223 E0.07948
G1 X421.746 Y153.437 E0.07907
G1 X424.235 Y153.579 E0.07878
G1 X426.723 Y153.651 E0.07866
G1 X429.201 Y153.653 E0.07831
G1 X431.738 Y153.583 E0.0802
G1 X434.194 Y153.445 E0.07774
G1 X436.67 Y153.236 E0.07852
G1 X439.193 Y152.951 E0.08024
G1 X441.671 Y152.6 E0.07909
G1 X443.05 Y152.372 E0.04417
G1 X444.014 Y152.253 E0.0307
G1 X444.869 Y152.209 E0.02706
G1 X445.33 Y152.2 E0.01457
G1 X608.293 Y152.2 E5.14991
G1 X609.143 Y152.21 E0.02686
G1 X610.113 Y152.262 E0.0307
G1 X611.075 Y152.395 E0.03069
G1 X612.024 Y152.605 E0.03072
G1 X612.951 Y152.893 E0.03068
G1 X613.852 Y153.257 E0.03071
G1 X614.72 Y153.693 E0.0307
G1 X615.549 Y154.199 E0.03069
G1 X616.334 Y154.772 E0.03071
G1 X617.069 Y155.407 E0.0307
G1 X617.749 Y156.101 E0.0307
G1 X618.37 Y156.848 E0.0307
G1 X618.927 Y157.644 E0.0307
G1 X619.417 Y158.482 E0.03068
G1 X619.836 Y159.359 E0.03072
G1 X620.182 Y160.266 E0.03068
G1 X620.452 Y161.2 E0.03072
G1 X620.644 Y162.152 E0.03069
G1 X620.757 Y163.117 E0.0307
G1 X620.786 Y163.668 E0.01744
G1 X620.808 Y164.431 E0.02412
G1 X620.92 Y167.011 E0.08161
G1 X621.102 Y169.53 E0.07981
G1 X621.348 Y171.985 E0.07797
G1 X621.666 Y174.453 E0.07864
G1 X622.058 Y176.938 E0.0795
G1 X622.516 Y179.383 E0.07861
G1 X623.038 Y181.798 E0.07808
G1 X623.635 Y184.222 E0.07889
G1 X624.35 Y186.809 E0.08482
G1 X624.57 Y187.756 E0.03072
G1 X624.711 Y188.717 E0.03069
G1 X624.776 Y189.58 E0.02735
G1 X624.8 Y190.33 E0.02371
G1 X624.8 Y213.264 E0.72475
G1 X624.79 Y214.137 E0.02759
G1 X624.738 Y215.107 E0.0307
G1 X624.606 Y216.07 E0.03072
G1 X624.396 Y217.018 E0.03068
G1 X624.109 Y217.946 E0.0307
G1 X623.746 Y218.847 E0.0307
G1 X623.31 Y219.715 E0.0307
G1 X622.804 Y220.544 E0.03069
G1 X622.232 Y221.329 E0.03069
G1 X621.597 Y222.064 E0.0307
G1 X620.904 Y222.745 E0.0307
G1 X620.157 Y223.366 E0.0307
G1 X619.361 Y223.924 E0.03072
G1 X618.523 Y224.414 E0.03068
G1 X617.647 Y224.834 E0.0307
G1 X616.739 Y225.18 E0.03071
G1 X615.806 Y225.45 E0.03069
G1 X614.854 Y225.643 E0.0307
G1 X613.889 Y225.757 E0.03071
G1 X613.001 Y225.795 E0.02809
G1 X537.096 Y225.8 E2.39873
G1 X534.487 Y225.837 E0.08246
G1 X532.012 Y225.942 E0.07828
G1 X529.556 Y226.116 E0.07781
G1 X527.042 Y226.365 E0.07984
G1 X524.557 Y226.683 E0.07917
G1 X522.097 Y227.07 E0.0787
G1 X519.656 Y227.524 E0.07846
G1 X517.203 Y228.051 E0.07929
G1 X514.817 Y228.637 E0.07764
G1 X512.391 Y229.303 E0.0795
G1 X510 Y230.035 E0.07902
G1 X507.64 Y230.832 E0.07872
G1 X505.28 Y231.702 E0.07949
G1 X502.997 Y232.619 E0.07775
G1 X500.667 Y233.633 E0.0803
G1 X498.454 Y234.67 E0.07723
G1 X496.201 Y235.804 E0.07971
G1 X494.002 Y236.993 E0.079
G1 X491.858 Y238.229 E0.07821
G1 X489.725 Y239.541 E0.07914
G1 X487.642 Y240.905 E0.07868
G1 X485.576 Y242.344 E0.07957
G1 X483.599 Y243.805 E0.07769
G1 X481.629 Y245.348 E0.07908
G1 X479.686 Y246.962 E0.07982
G1 X477.841 Y248.585 E0.07765
G1 X475.991 Y250.305 E0.07983
G1 X474.228 Y252.042 E0.07821
G1 X472.511 Y253.831 E0.07836
G1 X470.82 Y255.698 E0.0796
G1 X469.19 Y257.6 E0.07916
G1 X467.636 Y259.524 E0.07816
G1 X466.119 Y261.514 E0.07908
G1 X464.669 Y263.531 E0.0785
G1 X463.258 Y265.615 E0.07953
G1 X461.922 Y267.714 E0.07863
G1 X460.644 Y269.856 E0.07882
G1 X459.44 Y272.005 E0.07784
G1 X458.266 Y274.251 E0.08009
G1 X457.181 Y276.477 E0.07826
G1 X456.154 Y278.746 E0.07871
G1 X455.187 Y281.053 E0.07905
G1 X454.277 Y283.401 E0.07958
G1 X453.456 Y285.727 E0.07795
G1 X452.691 Y288.097 E0.0787
G1 X451.985 Y290.518 E0.07969
G1 X451.361 Y292.905 E0.07797
G1 X450.793 Y295.363 E0.07972
G1 X450.304 Y297.784 E0.07805
G1 X449.879 Y300.255 E0.07923
G1 X449.524 Y302.73 E0.07901
G1 X449.241 Y305.2 E0.07857
G1 X449.027 Y307.682 E0.07873
G1 X448.885 Y310.155 E0.07828
G1 X448.81 Y312.69 E0.08015
G1 X448.8 Y314.086 E0.04412
G1 X448.8 Y331.264 E0.54285
G1 X448.789 Y332.153 E0.0281
G1 X448.736 Y333.123 E0.0307
G1 X448.603 Y334.085 E0.03069
G1 X448.391 Y335.034 E0.03073
G1 X448.102 Y335.961 E0.03069
G1 X447.738 Y336.862 E0.03071
G1 X447.301 Y337.729 E0.03068
G1 X446.794 Y338.558 E0.03071
G1 X446.221 Y339.342 E0.03069
G1 X445.585 Y340.076 E0.03069
G1 X444.891 Y340.756 E0.0307
G1 X444.143 Y341.376 E0.0307
G1 X443.347 Y341.932 E0.03068
G1 X442.508 Y342.422 E0.0307
G1 X441.631 Y342.84 E0.0307
G1 X440.723 Y343.185 E0.0307
G1 X439.79 Y343.454 E0.03069
G1 X438.837 Y343.646 E0.03072
G1 X437.872 Y343.758 E0.0307
G1 X437.331 Y343.786 E0.01712
G1 X436.569 Y343.808 E0.02409
G1 X433.99 Y343.92 E0.08158
G1 X431.47 Y344.102 E0.07984
G1 X429.015 Y344.348 E0.07797
G1 X426.547 Y344.666 E0.07864
G1 X424.062 Y345.058 E0.0795
G1 X421.617 Y345.516 E0.07861
G1 X419.202 Y346.038 E0.07808
G1 X416.778 Y346.635 E0.07889
G1 X414.191 Y347.35 E0.08482
G1 X413.244 Y347.57 E0.03072
G1 X412.283 Y347.711 E0.03069
G1 X411.42 Y347.776 E0.02735
G1 X410.67 Y347.8 E0.02371
G1 X387.707 Y347.8 E0.72567
G1 X386.857 Y347.79 E0.02686
G1 X385.887 Y347.738 E0.0307
G1 X384.925 Y347.605 E0.03069
G1 X383.976 Y347.395 E0.03072
G1 X383.049 Y347.107 E0.03068
G1 X382.148 Y346.743 E0.03071
G1 X381.28 Y346.307 E0.0307
G1 X380.451 Y345.801 E0.03069
G1 X379.666 Y345.228 E0.03071
G1 X378.931 Y344.593 E0.0307
G1 X378.251 Y343.899 E0.0307
G1 X377.63 Y343.152 E0.0307
G1 X377.073 Y342.356 E0.0307
G1 X376.583 Y341.518 E0.03068
G1 X376.164 Y340.641 E0.03072
G1 X375.818 Y339.734 E0.03068
G1 X375.548 Y338.8 E0.03072
G1 X375.356 Y337.848 E0.03069
G1 X375.243 Y336.883 E0.0307
G1 X375.213 Y336.31 E0.01813
G1 X375.2 Y335.658 E0.02061
G1 X375.2 Y164.674 E5.40339
G1 X375.211 Y163.832 E0.02661
G1 X375.266 Y162.862 E0.0307
G1 X375.4 Y161.9 E0.03069
G1 X375.613 Y160.952 E0.03071
G1 X375.903 Y160.025 E0.03069
G1 X376.268 Y159.125 E0.03069
G1 X376.706 Y158.258 E0.0307
G1 X377.214 Y157.43 E0.0307
G1 X377.789 Y156.646 E0.03072
G1 X378.426 Y155.913 E0.03069
G1 X379.121 Y155.234 E0.03071
G1 X379.869 Y154.615 E0.03068
G1 X380.666 Y154.059 E0.03071
G1 X381.506 Y153.571 E0.0307
G1 X382.383 Y153.154 E0.03069
G1 X383.291 Y152.81 E0.03068
G1 X384.225 Y152.542 E0.03071
G1 X385.178 Y152.352 E0.03071
G1 X386.143 Y152.241 E0.0307
G1 X386.998 Y152.205 E0.02704
G1 X410.293 Y152.2 E0.73616
G1 X411.16 Y152.211 E0.0274
G1 F2100 E-0.5
;MESH:CalibrationMultiExtruder1
G0 F6000 X411.653 Y163.347
G0 X411.665 Y167.226
G0 X410.226 Y167.226
G0 X390.212 Y167.212
G0 X390.212 Y173.188
G0 X410.214 Y173.2
G0 X410.21 Y175.599
G0 X390.212 Y175.612
G0 X390.212 Y181.588
G0 X410.199 Y181.6
G0 X410.194 Y183.999
G0 X390.212 Y184.012
G0 X390.212 Y189.988
G0 X410.183 Y190
G0 X410.179 Y192.399
G0 X390.212 Y192.412
G0 X390.212 Y198.388
G0 X410.168 Y198.4
G0 X410.164 Y200.799
G0 X390.212 Y200.812
G0 X390.212 Y206.788
G0 X410.153 Y206.8
G0 X410.148 Y209.199
G0 X390.212 Y209.212
G0 X390.212 Y215.188
G0 X410.137 Y215.2
G0 X410.133 Y217.599
G0 X390.212 Y217.612
G0 X390.212 Y223.588
G0 X410.122 Y223.6
G0 X410.118 Y225.999
G0 X390.212 Y226.012
G0 X390.212 Y231.988
G0 X410.107 Y232
G0 X410.102 Y234.399
G0 X390.212 Y234.412
G0 X390.212 Y240.388
G0 X410.092 Y240.4
G0 X410.087 Y242.799
G0 X390.212 Y242.812
G0 X390.212 Y248.788
G0 X410.076 Y248.8
G0 X410.072 Y251.198
G0 X390.212 Y251.212
G0 X390.212 Y257.188
G0 X410.061 Y257.199
G0 X410.056 Y259.598
G0 X390.212 Y259.612
G0 X390.212 Y265.588
G0 X410.046 Y265.599
G0 X410.041 Y267.998
G0 X390.212 Y268.012
G0 X390.212 Y273.988
G0 X410.03 Y273.999
G0 X410.026 Y276.398
G0 X390.212 Y276.412
G0 X390.212 Y282.388
G0 X410.015 Y282.399
G0 X410.01 Y284.798
G0 X390.212 Y284.812
G0 X390.212 Y290.788
G0 X410 Y290.799
G0 X409.995 Y293.198
G0 X390.212 Y293.212
G0 X390.212 Y299.188
G0 X409.984 Y299.199
G0 X409.98 Y301.598
G0 X390.212 Y301.612
G0 X390.212 Y307.588
G0 X409.969 Y307.599
G0 X409.965 Y309.998
G0 X390.212 Y310.012
G0 X390.212 Y315.988
G0 X409.954 Y315.999
G0 X409.949 Y318.398
G0 X390.212 Y318.412
G0 X390.212 Y324.388
G0 X409.938 Y324.399
G0 X409.934 Y326.798
G0 X390.212 Y326.812
G0 X390.212 Y332.788
G0 X409.923 Y332.799
G0 X409.92 Y334.92
;TYPE:WALL-INNER
G1 F2100 E0.5
G1 F1200 X388.08 Y334.92 E0.69018
G1 X388.08 Y165.08 E5.36724
G1 X409.92 Y165.08 E0.69018
G1 X409.92 Y166.92 E0.05815
G1 X389.92 Y166.92 E0.63203
G1 X389.92 Y173.48 E0.20731
G1 X409.92 Y173.48 E0.63203
G1 X409.92 Y175.32 E0.05815
G1 X389.92 Y175.32 E0.63203
G1 X389.92 Y181.88 E0.20731
G1 X409.92 Y181.88 E0.63203
G1 X409.92 Y183.72 E0.05815
G1 X389.92 Y183.72 E0.63203
G1 X389.92 Y190.28 E0.20731
G1 X409.92 Y190.28 E0.63203
G1 X409.92 Y192.12 E0.05815
G1 X389.92 Y192.12 E0.63203
G1 X389.92 Y198.68 E0.20731
G1 X409.92 Y198.68 E0.63203
G1 X409.92 Y200.52 E0.05815
G1 X389.92 Y200.52 E0.63203
G1 X389.92 Y207.08 E0.20731
G1 X409.92 Y207.08 E0.63203
G1 X409.92 Y208.92 E0.05815
G1 X389.92 Y208.92 E0.63203
G1 X389.92 Y215.48 E0.20731
G1 X409.92 Y215.48 E0.63203
G1 X409.92 Y217.32 E0.05815
G1 X389.92 Y217.32 E0.63203
G1 X389.92 Y223.88 E0.20731
G1 X409.92 Y223.88 E0.63203
G1 X409.92 Y225.72 E0.05815
G1 X389.92 Y225.72 E0.63203
G1 X389.92 Y232.28 E0.20731
G1 X409.92 Y232.28 E0.63203
G1 X409.92 Y234.12 E0.05815
G1 X389.92 Y234.12 E0.63203
G1 X389.92 Y240.68 E0.20731
G1 X409.92 Y240.68 E0.63203
G1 X409.92 Y242.52 E0.05815
G1 X389.92 Y242.52 E0.63203
G1 X389.92 Y249.08 E0.20731
G1 X409.92 Y249.08 E0.63203
G1 X409.92 Y250.92 E0.05815
G1 X389.92 Y250.92 E0.63203
G1 X389.92 Y257.48 E0.20731
G1 X409.92 Y257.48 E0.63203
G1 X409.92 Y259.32 E0.05815
G1 X389.92 Y259.32 E0.63203
G1 X389.92 Y265.88 E0.20731
G1 X409.92 Y265.88 E0.63203
G1 X409.92 Y267.72 E0.05815
G1 X389.92 Y267.72 E0.63203
G1 X389.92 Y274.28 E0.20731
G1 X409.92 Y274.28 E0.63203
G1 X409.92 Y276.12 E0.05815
G1 X389.92 Y276.12 E0.63203
G1 X389.92 Y282.68 E0.20731
G1 X409.92 Y282.68 E0.63203
G1 X409.92 Y284.52 E0.05815
G1 X389.92 Y284.52 E0.63203
G1 X389.92 Y291.08 E0.20731
G1 X409.92 Y291.08 E0.63203
G1 X409.92 Y292.92 E0.05815
G1 X389.92 Y292.92 E0.63203
G1 X389.92 Y299.48 E0.20731
G1 X409.92 Y299.48 E0.63203
G1 X409.92 Y301.32 E0.05815
G1 X389.92 Y301.32 E0.63203
G1 X389.92 Y307.88 E0.20731
G1 X409.92 Y307.88 E0.63203
G1 X409.92 Y309.72 E0.05815
G1 X389.92 Y309.72 E0.63203
G1 X389.92 Y316.28 E0.20731
G1 X409.92 Y316.28 E0.63203
G1 X409.92 Y318.12 E0.05815
G1 X389.92 Y318.12 E0.63203
G1 X389.92 Y324.68 E0.20731
G1 X409.92 Y324.68 E0.63203
G1 X409.92 Y326.52 E0.05815
G1 X389.92 Y326.52 E0.63203
G1 X389.92 Y333.08 E0.20731
G1 X409.92 Y333.08 E0.63203
G1 X409.92 Y334.92 E0.05815
G0 F6000 X410.6 Y335.6
;TYPE:WALL-OUTER
G1 F1200 X387.4 Y335.6 E0.73316
G1 X387.4 Y164.4 E5.41022
G1 X410.6 Y164.4 E0.73316
G1 X410.6 Y167.6 E0.10113
G1 X390.6 Y167.6 E0.63203
G1 X390.6 Y172.8 E0.16433
G1 X410.6 Y172.8 E0.63203
G1 X410.6 Y176 E0.10113
G1 X390.6 Y176 E0.63203
G1 X390.6 Y181.2 E0.16433
G1 X410.6 Y181.2 E0.63203
G1 X410.6 Y184.4 E0.10113
G1 X390.6 Y184.4 E0.63203
G1 X390.6 Y189.6 E0.16433
G1 X410.6 Y189.6 E0.63203
G1 X410.6 Y192.8 E0.10113
G1 X390.6 Y192.8 E0.63203
G1 X390.6 Y198 E0.16433
G1 X410.6 Y198 E0.63203
G1 X410.6 Y201.2 E0.10113
G1 X390.6 Y201.2 E0.63203
G1 X390.6 Y206.4 E0.16433
G1 X410.6 Y206.4 E0.63203
G1 X410.6 Y209.6 E0.10113
G1 X390.6 Y209.6 E0.63203
G1 X390.6 Y214.8 E0.16433
G1 X410.6 Y214.8 E0.63203
G1 X410.6 Y218 E0.10113
G1 X390.6 Y218 E0.63203
G1 X390.6 Y223.2 E0.16433
G1 X410.6 Y223.2 E0.63203
G1 X410.6 Y226.4 E0.10113
G1 X390.6 Y226.4 E0.63203
G1 X390.6 Y231.6 E0.16433
G1 X410.6 Y231.6 E0.63203
G1 X410.6 Y234.8 E0.10113
G1 X390.6 Y234.8 E0.63203
G1 X390.6 Y240 E0.16433
G1 X410.6 Y240 E0.63203
G1 X410.6 Y243.2 E0.10113
G1 X390.6 Y243.2 E0.63203
G1 X390.6 Y248.4 E0.16433
G1 X410.6 Y248.4 E0.63203
G1 X410.6 Y251.6 E0.10113
G1 X390.6 Y251.6 E0.63203
G1 X390.6 Y256.8 E0.16433
G1 X410.6 Y256.8 E0.63203
G1 X410.6 Y260 E0.10113
G1 X390.6 Y260 E0.63203
G1 X390.6 Y265.2 E0.16433
G1 X410.6 Y265.2 E0.63203
G1 X410.6 Y268.4 E0.10113
G1 X390.6 Y268.4 E0.63203
G1 X390.6 Y273.6 E0.16433
G1 X410.6 Y273.6 E0.63203
G1 X410.6 Y276.8 E0.10113
G1 X390.6 Y276.8 E0.63203
G1 X390.6 Y282 E0.16433
G1 X410.6 Y282 E0.63203
G1 X410.6 Y285.2 E0.10113
G1 X390.6 Y285.2 E0.63203
G1 X390.6 Y290.4 E0.16433
G1 X410.6 Y290.4 E0.63203
G1 X410.6 Y293.6 E0.10113
G1 X390.6 Y293.6 E0.63203
G1 X390.6 Y298.8 E0.16433
G1 X410.6 Y298.8 E0.63203
G1 X410.6 Y302 E0.10113
G1 X390.6 Y302 E0.63203
G1 X390.6 Y307.2 E0.16433
G1 X410.6 Y307.2 E0.63203
G1 X410.6 Y310.4 E0.10113
G1 X390.6 Y310.4 E0.63203
G1 X390.6 Y315.6 E0.16433
G1 X410.6 Y315.6 E0.63203
G1 X410.6 Y318.8 E0.10113
G1 X390.6 Y318.8 E0.63203
G1 X390.6 Y324 E0.16433
G1 X410.6 Y324 E0.63203
G1 X410.6 Y327.2 E0.10113
G1 X390.6 Y327.2 E0.63203
G1 X390.6 Y332.4 E0.16433
G1 X410.6 Y332.4 E0.63203
G1 X410.6 Y335.6 E0.10113
G0 F6000 X410.17 Y335.17
G0 X409.65 Y334.21
G0 X409.21 Y334.21
;TYPE:SKIN
G1 F1200 X388.79 Y334.21 E0.64531
G1 X388.79 Y165.79 E5.32236
G1 X409.21 Y165.79 E0.64531
G1 X409.21 Y166.21 E0.01327
G1 X389.21 Y166.21 E0.63203
G1 X389.21 Y174.19 E0.25218
G1 X409.21 Y174.19 E0.63203
G1 X409.21 Y174.61 E0.01327
G1 X389.21 Y174.61 E0.63203
G1 X389.21 Y182.59 E0.25218
G1 X409.21 Y182.59 E0.63203
G1 X409.21 Y183.01 E0.01327
G1 X389.21 Y183.01 E0.63203
G1 X389.21 Y190.99 E0.25218
G1 X409.21 Y190.99 E0.63203
G1 X409.21 Y191.41 E0.01327
G1 X389.21 Y191.41 E0.63203
G1 X389.21 Y199.39 E0.25218
G1 X409.21 Y199.39 E0.63203
G1 X409.21 Y199.81 E0.01327
G1 X389.21 Y199.81 E0.63203
G1 X389.21 Y207.79 E0.25218
G1 X409.21 Y207.79 E0.63203
G1 X409.21 Y208.21 E0.01327
G1 X389.21 Y208.21 E0.63203
G1 X389.21 Y216.19 E0.25218
G1 X409.21 Y216.19 E0.63203
G1 X409.21 Y216.61 E0.01327
G1 X389.21 Y216.61 E0.63203
G1 X389.21 Y224.59 E0.25218
G1 X409.21 Y224.59 E0.63203
G1 X409.21 Y225.01 E0.01327
G1 X389.21 Y225.01 E0.63203
G1 X389.21 Y232.99 E0.25218
G1 X409.21 Y232.99 E0.63203
G1 X409.21 Y233.41 E0.01327
G1 X389.21 Y233.41 E0.63203
G1 X389.21 Y241.39 E0.25218
G1 X409.21 Y241.39 E0.63203
G1 X409.21 Y241.81 E0.01327
G1 X389.21 Y241.81 E0.63203
G1 X389.21 Y249.79 E0.25218
G1 X409.21 Y249.79 E0.63203
G1 X409.21 Y250.21 E0.01327
G1 X389.21 Y250.21 E0.63203
G1 X389.21 Y258.19 E0.25218
G1 X409.21 Y258.19 E0.63203
G1 X409.21 Y258.61 E0.01327
G1 X389.21 Y258.61 E0.63203
G1 X389.21 Y266.59 E0.25218
G1 X409.21 Y266.59 E0.63203
G1 X409.21 Y267.01 E0.01327
G1 X389.21 Y267.01 E0.63203
G1 X389.21 Y274.99 E0.25218
G1 X409.21 Y274.99 E0.63203
G1 X409.21 Y275.41 E0.01327
G1 X389.21 Y275.41 E0.63203
G1 X389.21 Y283.39 E0.25218
G1 X409.21 Y283.39 E0.63203
G1 X409.21 Y283.81 E0.01327
G1 X389.21 Y283.81 E0.63203
G1 X389.21 Y291.79 E0.25218
G1 X409.21 Y291.79 E0.63203
G1 X409.21 Y292.21 E0.01327
G1 X389.21 Y292.21 E0.63203
G1 X389.21 Y300.19 E0.25218
G1 X409.21 Y300.19 E0.63203
G1 X409.21 Y300.61 E0.01327
G1 X389.21 Y300.61 E0.63203
G1 X389.21 Y308.59 E0.25218
G1 X409.21 Y308.59 E0.63203
G1 X409.21 Y309.01 E0.01327
G1 X389.21 Y309.01 E0.63203
G1 X389.21 Y316.99 E0.25218
G1 X409.21 Y316.99 E0.63203
G1 X409.21 Y317.41 E0.01327
G1 X389.21 Y317.41 E0.63203
G1 X389.21 Y325.39 E0.25218
G1 X409.21 Y325.39 E0.63203
G1 X409.21 Y325.81 E0.01327
G1 X389.21 Y325.81 E0.63203
G1 X389.21 Y333.79 E0.25218
G1 X409.21 Y333.79 E0.63203
G1 X409.21 Y334.21 E0.01327
G1 F2100 E-0.5
G0 F6000 X409.65 Y334.21
G0 X409.732 Y332.8
G0 X390.212 Y332.788
G0 X390.212 Y326.812
G0 X410.083 Y326.799
G0 X410.226 Y324.374
G0 X410.226 Y322.935
G0 X411.653 Y319.853
G0 X412.347 Y167.347
G0 X437.653 Y167.347
G0 X437.639 Y217.175
G0 X441.774 Y214.665
G0 X441.774 Y213.226
G0 X442.08 Y212.92
;TYPE:WALL-INNER
G1 F2100 E0.5
G1 F1200 X442.08 Y191.08 E0.69018
G1 X443.92 Y191.08 E0.05815
G1 X443.92 Y211.08 E0.63203
G1 X450.48 Y211.08 E0.20731
G1 X450.48 Y191.08 E0.63203
G1 X452.32 Y191.08 E0.05815
G1 X452.32 Y211.08 E0.63203
G1 X458.88 Y211.08 E0.20731
G1 X458.88 Y191.08 E0.63203
G1 X460.72 Y191.08 E0.05815
G1 X460.72 Y211.08 E0.63203
G1 X467.28 Y211.08 E0.20731
G1 X467.28 Y191.08 E0.63203
G1 X469.12 Y191.08 E0.05815
G1 X469.12 Y211.08 E0.63203
G1 X475.68 Y211.08 E0.20731
G1 X475.68 Y191.08 E0.63203
G1 X477.52 Y191.08 E0.05815
G1 X477.52 Y211.08 E0.63203
G1 X484.08 Y211.08 E0.20731
G1 X484.08 Y191.08 E0.63203
G1 X485.92 Y191.08 E0.05815
G1 X485.92 Y211.08 E0.63203
G1 X492.48 Y211.08 E0.20731
G1 X492.48 Y191.08 E0.63203
G1 X494.32 Y191.08 E0.05815
G1 X494.32 Y211.08 E0.63203
G1 X500.88 Y211.08 E0.20731
G1 X500.88 Y191.08 E0.63203
G1 X502.72 Y191.08 E0.05815
G1 X502.72 Y211.08 E0.63203
G1 X509.28 Y211.08 E0.20731
G1 X509.28 Y191.08 E0.63203
G1 X511.12 Y191.08 E0.05815
G1 X511.12 Y211.08 E0.63203
G1 X517.68 Y211.08 E0.20731
G1 X517.68 Y191.08 E0.63203
G1 X519.52 Y191.08 E0.05815
G1 X519.52 Y211.08 E0.63203
G1 X526.08 Y211.08 E0.20731
G1 X526.08 Y191.08 E0.63203
G1 X527.92 Y191.08 E0.05815
G1 X527.92 Y211.08 E0.63203
G1 X534.48 Y211.08 E0.20731
G1 X534.48 Y191.08 E0.63203
G1 X536.32 Y191.08 E0.05815
G1 X536.32 Y211.08 E0.63203
G1 X542.88 Y211.08 E0.20731
G1 X542.88 Y191.08 E0.63203
G1 X544.72 Y191.08 E0.05815
G1 X544.72 Y211.08 E0.63203
G1 X551.28 Y211.08 E0.20731
G1 X551.28 Y191.08 E0.63203
G1 X553.12 Y191.08 E0.05815
G1 X553.12 Y211.08 E0.63203
G1 X559.68 Y211.08 E0.20731
G1 X559.68 Y191.08 E0.63203
G1 X561.52 Y191.08 E0.05815
G1 X561.52 Y211.08 E0.63203
G1 X568.08 Y211.08 E0.20731
G1 X568.08 Y191.08 E0.63203
G1 X569.92 Y191.08 E0.05815
G1 X569.92 Y211.08 E0.63203
G1 X576.48 Y211.08 E0.20731
G1 X576.48 Y191.08 E0.63203
G1 X578.32 Y191.08 E0.05815
G1 X578.32 Y211.08 E0.63203
G1 X584.88 Y211.08 E0.20731
G1 X584.88 Y191.08 E0.63203
G1 X586.72 Y191.08 E0.05815
G1 X586.72 Y211.08 E0.63203
G1 X593.28 Y211.08 E0.20731
G1 X593.28 Y191.08 E0.63203
G1 X595.12 Y191.08 E0.05815
G1 X595.12 Y211.08 E0.63203
G1 X601.68 Y211.08 E0.20731
G1 X601.68 Y191.08 E0.63203
G1 X603.52 Y191.08 E0.05815
G1 X603.52 Y211.08 E0.63203
G1 X610.08 Y211.08 E0.20731
G1 X610.08 Y191.08 E0.63203
G1 X611.92 Y191.08 E0.05815
G1 X611.92 Y212.92 E0.69018
G1 X442.08 Y212.92 E5.36724
G0 F6000 X441.4 Y213.6
;TYPE:WALL-OUTER
G1 F1200 X441.4 Y190.4 E0.73316
G1 X444.6 Y190.4 E0.10113
G1 X444.6 Y210.4 E0.63203
G1 X449.8 Y210.4 E0.16433
G1 X449.8 Y190.4 E0.63203
G1 X453 Y190.4 E0.10113
G1 X453 Y210.4 E0.63203
G1 X458.2 Y210.4 E0.16433
G1 X458.2 Y190.4 E0.63203
G1 X461.4 Y190.4 E0.10113
G1 X461.4 Y210.4 E0.63203
G1 X466.6 Y210.4 E0.16433
G1 X466.6 Y190.4 E0.63203
G1 X469.8 Y190.4 E0.10113
G1 X469.8 Y210.4 E0.63203
G1 X475 Y210.4 E0.16433
G1 X475 Y190.4 E0.63203
G1 X478.2 Y190.4 E0.10113
G1 X478.2 Y210.4 E0.63203
G1 X483.4 Y210.4 E0.16433
G1 X483.4 Y190.4 E0.63203
G1 X486.6 Y190.4 E0.10113
G1 X486.6 Y210.4 E0.63203
G1 X491.8 Y210.4 E0.16433
G1 X491.8 Y190.4 E0.63203
G1 X495 Y190.4 E0.10113
G1 X495 Y210.4 E0.63203
G1 X500.2 Y210.4 E0.16433
G1 X500.2 Y190.4 E0.63203
G1 X503.4 Y190.4 E0.10113
G1 X503.4 Y210.4 E0.63203
G1 X508.6 Y210.4 E0.16433
G1 X508.6 Y190.4 E0.63203
G1 X511.8 Y190.4 E0.10113
G1 X511.8 Y210.4 E0.63203
G1 X517 Y210.4 E0.16433
G1 X517 Y190.4 E0.63203
G1 X520.2 Y190.4 E0.10113
G1 X520.2 Y210.4 E0.63203
G1 X525.4 Y210.4 E0.16433
G1 X525.4 Y190.4 E0.63203
G1 X528.6 Y190.4 E0.10113
G1 X528.6 Y210.4 E0.63203
G1 X533.8 Y210.4 E0.16433
G1 X533.8 Y190.4 E0.63203
G1 X537 Y190.4 E0.10113
G1 X537 Y210.4 E0.63203
G1 X542.2 Y210.4 E0.16433
G1 X542.2 Y190.4 E0.63203
G1 X545.4 Y190.4 E0.10113
G1 X545.4 Y210.4 E0.63203
G1 X550.6 Y210.4 E0.16433
G1 X550.6 Y190.4 E0.63203
G1 X553.8 Y190.4 E0.10113
G1 X553.8 Y210.4 E0.63203
G1 X559 Y210.4 E0.16433
G1 X559 Y190.4 E0.63203
G1 X562.2 Y190.4 E0.10113
G1 X562.2 Y210.4 E0.63203
G1 X567.4 Y210.4 E0.16433
G1 X567.4 Y190.4 E0.63203
G1 X570.6 Y190.4 E0.10113
G1 X570.6 Y210.4 E0.63203
G1 X575.8 Y210.4 E0.16433
G1 X575.8 Y190.4 E0.63203
G1 X579 Y190.4 E0.10113
G1 X579 Y210.4 E0.63203
G1 X584.2 Y210.4 E0.16433
G1 X584.2 Y190.4 E0.63203
G1 X587.4 Y190.4 E0.10113
G1 X587.4 Y210.4 E0.63203
G1 X592.6 Y210.4 E0.16433
G1 X592.6 Y190.4 E0.63203
G1 X595.8 Y190.4 E0.10113
G1 X595.8 Y210.4 E0.63203
G1 X601 Y210.4 E0.16433
G1 X601 Y190.4 E0.63203
G1 X604.2 Y190.4 E0.10113
G1 X604.2 Y210.4 E0.63203
G1 X609.4 Y210.4 E0.16433
G1 X609.4 Y190.4 E0.63203
G1 X612.6 Y190.4 E0.10113
G1 X612.6 Y213.6 E0.73316
G1 X441.4 Y213.6 E5.41022
G0 F6000 X441.83 Y213.17
G0 X442.35 Y212.21
G0 X442.79 Y212.21
M104 T1 S200
;TYPE:SKIN
G1 F1200 X442.79 Y191.79 E0.64531
G1 X443.21 Y191.79 E0.01327
G1 X443.21 Y211.79 E0.63203
G1 X451.19 Y211.79 E0.25218
G1 X451.19 Y191.79 E0.63203
G1 X451.61 Y191.79 E0.01327
G1 X451.61 Y211.79 E0.63203
G1 X459.59 Y211.79 E0.25218
G1 X459.59 Y191.79 E0.63203
G1 X460.01 Y191.79 E0.01327
G1 X460.01 Y211.79 E0.63203
G1 X467.99 Y211.79 E0.25218
G1 X467.99 Y191.79 E0.63203
G1 X468.41 Y191.79 E0.01327
G1 X468.41 Y211.79 E0.63203
G1 X476.39 Y211.79 E0.25218
G1 X476.39 Y191.79 E0.63203
G1 X476.81 Y191.79 E0.01327
G1 X476.81 Y211.79 E0.63203
G1 X484.79 Y211.79 E0.25218
G1 X484.79 Y191.79 E0.63203
G1 X485.21 Y191.79 E0.01327
G1 X485.21 Y211.79 E0.63203
G1 X493.19 Y211.79 E0.25218
G1 X493.19 Y191.79 E0.63203
G1 X493.61 Y191.79 E0.01327
G1 X493.61 Y211.79 E0.63203
G1 X501.59 Y211.79 E0.25218
G1 X501.59 Y191.79 E0.63203
G1 X502.01 Y191.79 E0.01327
G1 X502.01 Y211.79 E0.63203
G1 X509.99 Y211.79 E0.25218
G1 X509.99 Y191.79 E0.63203
G1 X510.41 Y191.79 E0.01327
G1 X510.41 Y211.79 E0.63203
G1 X518.39 Y211.79 E0.25218
G1 X518.39 Y191.79 E0.63203
G1 X518.81 Y191.79 E0.01327
G1 X518.81 Y211.79 E0.63203
G1 X526.79 Y211.79 E0.25218
G1 X526.79 Y191.79 E0.63203
G1 X527.21 Y191.79 E0.01327
G1 X527.21 Y211.79 E0.63203
G1 X535.19 Y211.79 E0.25218
G1 X535.19 Y191.79 E0.63203
G1 X535.61 Y191.79 E0.01327
G1 X535.61 Y211.79 E0.63203
G1 X543.59 Y211.79 E0.25218
G1 X543.59 Y191.79 E0.63203
G1 X544.01 Y191.79 E0.01327
G1 X544.01 Y211.79 E0.63203
G1 X551.99 Y211.79 E0.25218
G1 X551.99 Y191.79 E0.63203
G1 X552.41 Y191.79 E0.01327
G1 X552.41 Y211.79 E0.63203
G1 X560.39 Y211.79 E0.25218
G1 X560.39 Y191.79 E0.63203
G1 X560.81 Y191.79 E0.01327
G1 X560.81 Y211.79 E0.63203
G1 X568.79 Y211.79 E0.25218
G1 X568.79 Y191.79 E0.63203
G1 X569.21 Y191.79 E0.01327
G1 X569.21 Y211.79 E0.63203
G1 X577.19 Y211.79 E0.25218
G1 X577.19 Y191.79 E0.63203
G1 X577.61 Y191.79 E0.01327
G1 X577.61 Y211.79 E0.63203
G1 X585.59 Y211.79 E0.25218
G1 X585.59 Y191.79 E0.63203
G1 X586.01 Y191.79 E0.01327
G1 X586.01 Y211.79 E0.63203
G1 X593.99 Y211.79 E0.25218
G1 X593.99 Y191.79 E0.63203
G1 X594.41 Y191.79 E0.01327
G1 X594.41 Y211.79 E0.63203
G1 X602.39 Y211.79 E0.25218
G1 X602.39 Y191.79 E0.63203
G1 X602.81 Y191.79 E0.01327
G1 X602.81 Y211.79 E0.63203
G1 X610.79 Y211.79 E0.25218
G1 X610.79 Y191.79 E0.63203
G1 X611.21 Y191.79 E0.01327
G1 X611.21 Y212.21 E0.64531
G1 X442.79 Y212.21 E5.32236
G1 F1200 E-16
T1
M109 S200
M104 T0 S0
M107 P2
G1 F1500 E-6.5
;MESH:CalibrationMultiExtruder1(1)
G0 F6000 X442.79 Y212.21 Z0.28
G0 X442.79 Y214.665
G0 X478.404 Y249.235
;TYPE:SKIRT
G1 F1500 E6.5
G1 F1200 X476.609 Y250.905 E0.10761
G1 X474.827 Y252.66 E0.10978
G1 X473.127 Y254.432 E0.10778
G1 X471.467 Y256.264 E0.10851
G1 X469.854 Y258.146 E0.10879
G1 X468.328 Y260.036 E0.10662
G1 X466.796 Y262.045 E0.11089
G1 X465.374 Y264.022 E0.10689
G1 X463.974 Y266.09 E0.10961
G1 X462.655 Y268.164 E0.10788
G1 X461.402 Y270.263 E0.10729
G1 X460.192 Y272.425 E0.10874
G1 X459.032 Y274.642 E0.10982
G1 X457.969 Y276.824 E0.10653
G1 X456.929 Y279.12 E0.11063
G1 X455.991 Y281.358 E0.10651
G1 X455.074 Y283.726 E0.11146
G1 X454.273 Y285.995 E0.10561
G1 X453.512 Y288.351 E0.10867
G1 X452.819 Y290.727 E0.10863
G1 X452.197 Y293.108 E0.10801
G1 X451.634 Y295.545 E0.10978
G1 X451.143 Y297.971 E0.10864
G1 X450.73 Y300.376 E0.1071
G1 X450.382 Y302.808 E0.10783
G1 X450.096 Y305.3 E0.1101
G1 X449.886 Y307.735 E0.10727
G1 X449.744 Y310.194 E0.10811
G1 X449.67 Y312.723 E0.11105
G1 X449.66 Y314.092 E0.06009
G1 X449.66 Y331.264 E0.7537
G1 X449.649 Y332.165 E0.03955
G1 X449.595 Y333.17 E0.04417
G1 X449.462 Y334.167 E0.04415
G1 X449.249 Y335.151 E0.04419
G1 X448.96 Y336.114 E0.04413
G1 X448.594 Y337.052 E0.04419
G1 X448.156 Y337.957 E0.04413
G1 X447.647 Y338.825 E0.04416
G1 X447.07 Y339.65 E0.04419
G1 X446.43 Y340.426 E0.04415
G1 X445.731 Y341.149 E0.04414
G1 X444.976 Y341.815 E0.04419
G1 X444.17 Y342.418 E0.04418
G1 X443.32 Y342.955 E0.04413
G1 X442.429 Y343.423 E0.04417
G1 X441.504 Y343.819 E0.04416
G1 X440.55 Y344.14 E0.04418
G1 X439.574 Y344.384 E0.04416
G1 X438.582 Y344.551 E0.04415
G1 X437.356 Y344.646 E0.05397
G1 X436.561 Y344.669 E0.03491
G1 X434.02 Y344.78 E0.11163
G1 X431.582 Y344.955 E0.10728
G1 X429.105 Y345.203 E0.10926
G1 X426.649 Y345.52 E0.10869
G1 X424.213 Y345.905 E0.10825
G1 X421.816 Y346.353 E0.10703
G1 X419.381 Y346.88 E0.10935
G1 X416.963 Y347.475 E0.1093
G1 X414.42 Y348.178 E0.1158
G1 X413.44 Y348.408 E0.04418
G1 X412.445 Y348.559 E0.04417
G1 X411.851 Y348.61 E0.02617
G1 X411.474 Y348.634 E0.01658
G1 X410.67 Y348.66 E0.03531
G1 X387.707 Y348.66 E1.00788
G1 X386.846 Y348.65 E0.03779
G1 X385.841 Y348.597 E0.04417
G1 X384.844 Y348.464 E0.04415
G1 X383.86 Y348.253 E0.04417
G1 X382.896 Y347.964 E0.04417
G1 X381.958 Y347.6 E0.04416
G1 X381.052 Y347.162 E0.04417
G1 X380.184 Y346.654 E0.04414
G1 X379.359 Y346.078 E0.04416
G1 X378.582 Y345.439 E0.04415
G1 X377.858 Y344.74 E0.04417
G1 X377.192 Y343.985 E0.04419
G1 X376.588 Y343.18 E0.04417
G1 X376.05 Y342.33 E0.04415
G1 X375.582 Y341.44 E0.04413
G1 X375.185 Y340.515 E0.04418
G1 X374.863 Y339.562 E0.04415
G1 X374.618 Y338.586 E0.04417
G1 X374.451 Y337.594 E0.04415
G1 X374.354 Y336.333 E0.05551
G1 X374.34 Y335.658 E0.02963
G1 X374.34 Y164.674 E7.50471
G1 X374.351 Y163.819 E0.03753
G1 X374.407 Y162.814 E0.04418
G1 X374.541 Y161.817 E0.04415
G1 X374.755 Y160.834 E0.04416
G1 X375.046 Y159.87 E0.0442
G1 X375.412 Y158.933 E0.04415
G1 X375.852 Y158.028 E0.04417
G1 X376.362 Y157.161 E0.04415
G1 X376.939 Y156.337 E0.04415
G1 X377.58 Y155.562 E0.04414
G1 X378.281 Y154.839 E0.0442
G1 X379.037 Y154.175 E0.04416
G1 X379.843 Y153.573 E0.04415
G1 X380.694 Y153.037 E0.04414
G1 X381.586 Y152.57 E0.04419
G1 X382.511 Y152.175 E0.04415
G1 X383.465 Y151.855 E0.04417
G1 X384.442 Y151.612 E0.04419
G1 X385.434 Y151.447 E0.04414
G1 X386.654 Y151.354 E0.0537
G1 X387.33 Y151.34 E0.02968
G1 X410.293 Y151.34 E1.00788
G1 X411.172 Y151.351 E0.03858
G1 X412.177 Y151.406 E0.04418
G1 X412.978 Y151.507 E0.03544
G1 X414.341 Y151.724 E0.06058
G1 X416.9 Y152.089 E0.11345
G1 X419.313 Y152.365 E0.1066
G1 X421.835 Y152.581 E0.1111
G1 X424.237 Y152.718 E0.1056
G1 X426.748 Y152.791 E0.11026
G1 X429.213 Y152.793 E0.10819
G1 X431.667 Y152.725 E0.10775
G1 X434.145 Y152.586 E0.10893
G1 X436.604 Y152.378 E0.10831
G1 X439.047 Y152.102 E0.10791
G1 X441.537 Y151.749 E0.11038
G1 X442.909 Y151.523 E0.06103
G1 X443.908 Y151.399 E0.04418
G1 X444.835 Y151.35 E0.04074
G1 X445.33 Y151.34 E0.02173
G1 X608.293 Y151.34 E7.15266
G1 X609.154 Y151.35 E0.03779
G1 X610.159 Y151.403 E0.04417
G1 X611.156 Y151.536 E0.04415
G1 X612.14 Y151.747 E0.04417
G1 X613.104 Y152.036 E0.04417
G1 X614.042 Y152.4 E0.04416
G1 X614.948 Y152.838 E0.04417
G1 X615.816 Y153.346 E0.04414
G1 X616.641 Y153.922 E0.04416
G1 X617.418 Y154.561 E0.04415
G1 X618.142 Y155.26 E0.04417
G1 X618.808 Y156.015 E0.04419
G1 X619.412 Y156.82 E0.04417
G1 X619.95 Y157.67 E0.04415
G1 X620.418 Y158.56 E0.04413
G1 X620.815 Y159.485 E0.04418
G1 X621.137 Y160.438 E0.04415
G1 X621.382 Y161.414 E0.04417
G1 X621.549 Y162.406 E0.04415
G1 X621.646 Y163.643 E0.05446
G1 X621.669 Y164.439 E0.03495
G1 X621.78 Y166.981 E0.11168
G1 X621.955 Y169.418 E0.10724
G1 X622.203 Y171.895 E0.10926
G1 X622.52 Y174.351 E0.10869
G1 X622.905 Y176.787 E0.10825
G1 X623.353 Y179.184 E0.10703
G1 X623.88 Y181.619 E0.10935
G1 X624.475 Y184.037 E0.1093
G1 X625.178 Y186.58 E0.1158
G1 X625.408 Y187.56 E0.04418
G1 X625.559 Y188.555 E0.04417
G1 X625.61 Y189.149 E0.02617
G1 X625.634 Y189.526 E0.01658
G1 X625.66 Y190.33 E0.03531
G1 X625.66 Y213.264 E1.0066
G1 X625.65 Y214.148 E0.0388
G1 X625.598 Y215.153 E0.04417
G1 X625.466 Y216.15 E0.04414
G1 X625.255 Y217.134 E0.04417
G1 X624.966 Y218.098 E0.04417
G1 X624.602 Y219.036 E0.04416
G1 X624.165 Y219.942 E0.04415
G1 X623.657 Y220.811 E0.04418
G1 X623.082 Y221.636 E0.04414
G1 X622.443 Y222.413 E0.04415
G1 X621.744 Y223.137 E0.04417
G1 X620.99 Y223.804 E0.04418
G1 X620.186 Y224.408 E0.04414
G1 X619.336 Y224.946 E0.04415
G1 X618.446 Y225.416 E0.04418
G1 X617.521 Y225.813 E0.04418
G1 X616.568 Y226.135 E0.04415
G1 X615.592 Y226.381 E0.04418
G1 X614.6 Y226.548 E0.04415
G1 X613.346 Y226.646 E0.05521
G1 X612.67 Y226.66 E0.02968
G1 X537.108 Y226.66 E3.31651
G1 X534.535 Y226.696 E0.11294
G1 X532.04 Y226.802 E0.10961
G1 X529.595 Y226.976 E0.10759
G1 X527.164 Y227.217 E0.10722
G1 X524.692 Y227.533 E0.10938
G1 X522.246 Y227.917 E0.10867
G1 X519.818 Y228.369 E0.1084
G1 X517.381 Y228.893 E0.10941
G1 X515.033 Y229.469 E0.10611
G1 X512.63 Y230.129 E0.10938
G1 X510.266 Y230.853 E0.10852
G1 X507.93 Y231.641 E0.10821
G1 X505.584 Y232.506 E0.10975
G1 X503.317 Y233.417 E0.10724
G1 X501.049 Y234.404 E0.10856
G1 X498.807 Y235.455 E0.10868
G1 X496.599 Y236.566 E0.10849
G1 X494.426 Y237.741 E0.10843
G1 X492.301 Y238.966 E0.10766
G1 X490.195 Y240.262 E0.10854
G1 X488.112 Y241.625 E0.10926
G1 X486.092 Y243.032 E0.10805
G1 X484.125 Y244.486 E0.10736
G1 X482.138 Y246.043 E0.1108
G1 X480.27 Y247.594 E0.10657
G1 X478.404 Y249.235 E0.10907
G1 F1500 E-6.5
G0 F6000 X437.665 Y249.235
G0 X435.98 Y249.235
G0 X435.5 Y330.5
;TYPE:WALL-INNER
G1 F1500 E6.5
G1 F1200 X414.5 Y330.5 E0.92172
G1 X414.5 Y329.5 E0.04389
G1 X434.5 Y329.5 E0.87783
G1 X434.5 Y322.5 E0.30724
G1 X414.5 Y322.5 E0.87783
G1 X414.5 Y321.5 E0.04389
G1 X434.5 Y321.5 E0.87783
G1 X434.5 Y314.5 E0.30724
G1 X414.5 Y314.5 E0.87783
G1 X414.5 Y313.5 E0.04389
G1 X434.5 Y313.5 E0.87783
G1 X434.5 Y306.5 E0.30724
G1 X414.5 Y306.5 E0.87783
G1 X414.5 Y305.5 E0.04389
G1 X434.5 Y305.5 E0.87783
G1 X434.5 Y298.5 E0.30724
G1 X414.5 Y298.5 E0.87783
G1 X414.5 Y297.5 E0.04389
G1 X434.5 Y297.5 E0.87783
G1 X434.5 Y290.5 E0.30724
G1 X414.5 Y290.5 E0.87783
G1 X414.5 Y289.5 E0.04389
G1 X434.5 Y289.5 E0.87783
G1 X434.5 Y282.5 E0.30724
G1 X414.5 Y282.5 E0.87783
G1 X414.5 Y281.5 E0.04389
G1 X434.5 Y281.5 E0.87783
G1 X434.5 Y274.5 E0.30724
G1 X414.5 Y274.5 E0.87783
G1 X414.5 Y273.5 E0.04389
G1 X434.5 Y273.5 E0.87783
G1 X434.5 Y266.5 E0.30724
G1 X414.5 Y266.5 E0.87783
G1 X414.5 Y265.5 E0.04389
G1 X434.5 Y265.5 E0.87783
G1 X434.5 Y258.5 E0.30724
G1 X414.5 Y258.5 E0.87783
G1 X414.5 Y257.5 E0.04389
G1 X434.5 Y257.5 E0.87783
G1 X434.5 Y250.5 E0.30724
G1 X414.5 Y250.5 E0.87783
G1 X414.5 Y249.5 E0.04389
G1 X434.5 Y249.5 E0.87783
G1 X434.5 Y242.5 E0.30724
G1 X414.5 Y242.5 E0.87783
G1 X414.5 Y241.5 E0.04389
G1 X434.5 Y241.5 E0.87783
G1 X434.5 Y234.5 E0.30724
G1 X414.5 Y234.5 E0.87783
G1 X414.5 Y233.5 E0.04389
G1 X434.5 Y233.5 E0.87783
G1 X434.5 Y226.5 E0.30724
G1 X414.5 Y226.5 E0.87783
G1 X414.5 Y225.5 E0.04389
G1 X434.5 Y225.5 E0.87783
G1 X434.5 Y218.5 E0.30724
G1 X414.5 Y218.5 E0.87783
G1 X414.5 Y217.5 E0.04389
G1 X434.5 Y217.5 E0.87783
G1 X434.5 Y210.5 E0.30724
G1 X414.5 Y210.5 E0.87783
G1 X414.5 Y209.5 E0.04389
G1 X434.5 Y209.5 E0.87783
G1 X434.5 Y202.5 E0.30724
G1 X414.5 Y202.5 E0.87783
G1 X414.5 Y201.5 E0.04389
G1 X434.5 Y201.5 E0.87783
G1 X434.5 Y194.5 E0.30724
G1 X414.5 Y194.5 E0.87783
G1 X414.5 Y193.5 E0.04389
G1 X434.5 Y193.5 E0.87783
G1 X434.5 Y186.5 E0.30724
G1 X414.5 Y186.5 E0.87783
G1 X414.5 Y185.5 E0.04389
G1 X434.5 Y185.5 E0.87783
G1 X434.5 Y178.5 E0.30724
G1 X414.5 Y178.5 E0.87783
G1 X414.5 Y177.5 E0.04389
G1 X434.5 Y177.5 E0.87783
G1 X434.5 Y170.5 E0.30724
G1 X414.5 Y170.5 E0.87783
G1 X414.5 Y169.5 E0.04389
G1 X435.5 Y169.5 E0.92172
G1 X435.5 Y330.5 E7.0665
G0 F6000 X436.5 Y331.5
;TYPE:WALL-OUTER
G1 F1200 X413.5 Y331.5 E1.0095
G1 X413.5 Y328.5 E0.13167
G1 X433.5 Y328.5 E0.87783
G1 X433.5 Y323.5 E0.21946
G1 X413.5 Y323.5 E0.87783
G1 X413.5 Y320.5 E0.13167
G1 X433.5 Y320.5 E0.87783
G1 X433.5 Y315.5 E0.21946
G1 X413.5 Y315.5 E0.87783
G1 X413.5 Y312.5 E0.13167
G1 X433.5 Y312.5 E0.87783
G1 X433.5 Y307.5 E0.21946
G1 X413.5 Y307.5 E0.87783
G1 X413.5 Y304.5 E0.13167
G1 X433.5 Y304.5 E0.87783
G1 X433.5 Y299.5 E0.21946
G1 X413.5 Y299.5 E0.87783
G1 X413.5 Y296.5 E0.13167
G1 X433.5 Y296.5 E0.87783
G1 X433.5 Y291.5 E0.21946
G1 X413.5 Y291.5 E0.87783
G1 X413.5 Y288.5 E0.13167
G1 X433.5 Y288.5 E0.87783
G1 X433.5 Y283.5 E0.21946
G1 X413.5 Y283.5 E0.87783
G1 X413.5 Y280.5 E0.13167
G1 X433.5 Y280.5 E0.87783
G1 X433.5 Y275.5 E0.21946
G1 X413.5 Y275.5 E0.87783
G1 X413.5 Y272.5 E0.13167
G1 X433.5 Y272.5 E0.87783
G1 X433.5 Y267.5 E0.21946
G1 X413.5 Y267.5 E0.87783
G1 X413.5 Y264.5 E0.13167
G1 X433.5 Y264.5 E0.87783
G1 X433.5 Y259.5 E0.21946
G1 X413.5 Y259.5 E0.87783
G1 X413.5 Y256.5 E0.13167
G1 X433.5 Y256.5 E0.87783
G1 X433.5 Y251.5 E0.21946
G1 X413.5 Y251.5 E0.87783
G1 X413.5 Y248.5 E0.13167
G1 X433.5 Y248.5 E0.87783
G1 X433.5 Y243.5 E0.21946
G1 X413.5 Y243.5 E0.87783
G1 X413.5 Y240.5 E0.13167
G1 X433.5 Y240.5 E0.87783
G1 X433.5 Y235.5 E0.21946
G1 X413.5 Y235.5 E0.87783
G1 X413.5 Y232.5 E0.13167
G1 X433.5 Y232.5 E0.87783
G1 X433.5 Y227.5 E0.21946
G1 X413.5 Y227.5 E0.87783
G1 X413.5 Y224.5 E0.13167
G1 X433.5 Y224.5 E0.87783
G1 X433.5 Y219.5 E0.21946
G1 X413.5 Y219.5 E0.87783
G1 X413.5 Y216.5 E0.13167
G1 X433.5 Y216.5 E0.87783
G1 X433.5 Y211.5 E0.21946
G1 X413.5 Y211.5 E0.87783
G1 X413.5 Y208.5 E0.13167
G1 X433.5 Y208.5 E0.87783
G1 X433.5 Y203.5 E0.21946
G1 X413.5 Y203.5 E0.87783
G1 X413.5 Y200.5 E0.13167
G1 X433.5 Y200.5 E0.87783
G1 X433.5 Y195.5 E0.21946
G1 X413.5 Y195.5 E0.87783
G1 X413.5 Y192.5 E0.13167
G1 X433.5 Y192.5 E0.87783
G1 X433.5 Y187.5 E0.21946
G1 X413.5 Y187.5 E0.87783
G1 X413.5 Y184.5 E0.13167
G1 X433.5 Y184.5 E0.87783
G1 X433.5 Y179.5 E0.21946
G1 X413.5 Y179.5 E0.87783
G1 X413.5 Y176.5 E0.13167
G1 X433.5 Y176.5 E0.87783
G1 X433.5 Y171.5 E0.21946
G1 X413.5 Y171.5 E0.87783
G1 X413.5 Y168.5 E0.13167
G1 X436.5 Y168.5 E1.0095
G1 X436.5 Y331.5 E7.15428
G0 F6000 X435 Y330.293
G1 F1500 E-6.5
G0 F6000 X435.98 Y186.5
G0 X437.665 Y186.5
G0 X444.335 Y186.5
G0 X446.02 Y186.5
G0 X447.972 Y166.972
G0 X502.028 Y166.972
G0 X502.5 Y186.5
;TYPE:WALL-INNER
G1 F1500 E6.5
G1 F1200 X502.5 Y166.5 E0.87783
G1 X495.5 Y166.5 E0.30724
G1 X495.5 Y186.5 E0.87783
G1 X494.5 Y186.5 E0.04389
G1 X494.5 Y166.5 E0.87783
G1 X487.5 Y166.5 E0.30724
G1 X487.5 Y186.5 E0.87783
G1 X486.5 Y186.5 E0.04389
G1 X486.5 Y166.5 E0.87783
G1 X479.5 Y166.5 E0.30724
G1 X479.5 Y186.5 E0.87783
G1 X478.5 Y186.5 E0.04389
G1 X478.5 Y166.5 E0.87783
G1 X471.5 Y166.5 E0.30724
G1 X471.5 Y186.5 E0.87783
G1 X470.5 Y186.5 E0.04389
G1 X470.5 Y166.5 E0.87783
G1 X463.5 Y166.5 E0.30724
G1 X463.5 Y186.5 E0.87783
G1 X462.5 Y186.5 E0.04389
G1 X462.5 Y166.5 E0.87783
G1 X455.5 Y166.5 E0.30724
G1 X455.5 Y186.5 E0.87783
G1 X454.5 Y186.5 E0.04389
G1 X454.5 Y166.5 E0.87783
G1 X447.5 Y166.5 E0.30724
G1 X447.5 Y186.5 E0.87783
G1 X446.5 Y186.5 E0.04389
G1 X446.5 Y165.5 E0.92172
G1 X607.5 Y165.5 E7.0665
G1 X607.5 Y186.5 E0.92172
G1 X606.5 Y186.5 E0.04389
G1 X606.5 Y166.5 E0.87783
G1 X599.5 Y166.5 E0.30724
G1 X599.5 Y186.5 E0.87783
G1 X598.5 Y186.5 E0.04389
G1 X598.5 Y166.5 E0.87783
G1 X591.5 Y166.5 E0.30724
G1 X591.5 Y186.5 E0.87783
G1 X590.5 Y186.5 E0.04389
G1 X590.5 Y166.5 E0.87783
G1 X583.5 Y166.5 E0.30724
G1 X583.5 Y186.5 E0.87783
G1 X582.5 Y186.5 E0.04389
G1 X582.5 Y166.5 E0.87783
G1 X575.5 Y166.5 E0.30724
G1 X575.5 Y186.5 E0.87783
G1 X574.5 Y186.5 E0.04389
G1 X574.5 Y166.5 E0.87783
G1 X567.5 Y166.5 E0.30724
G1 X567.5 Y186.5 E0.87783
G1 X566.5 Y186.5 E0.04389
G1 X566.5 Y166.5 E0.87783
G1 X559.5 Y166.5 E0.30724
G1 X559.5 Y186.5 E0.87783
G1 X558.5 Y186.5 E0.04389
G1 X558.5 Y166.5 E0.87783
G1 X551.5 Y166.5 E0.30724
G1 X551.5 Y186.5 E0.87783
G1 X550.5 Y186.5 E0.04389
G1 X550.5 Y166.5 E0.87783
G1 X543.5 Y166.5 E0.30724
G1 X543.5 Y186.5 E0.87783
G1 X542.5 Y186.5 E0.04389
G1 X542.5 Y166.5 E0.87783
G1 X535.5 Y166.5 E0.30724
G1 X535.5 Y186.5 E0.87783
G1 X534.5 Y186.5 E0.04389
G1 X534.5 Y166.5 E0.87783
G1 X527.5 Y166.5 E0.30724
G1 X527.5 Y186.5 E0.87783
G1 X526.5 Y186.5 E0.04389
G1 X526.5 Y166.5 E0.87783
G1 X519.5 Y166.5 E0.30724
G1 X519.5 Y186.5 E0.87783
G1 X518.5 Y186.5 E0.04389
G1 X518.5 Y166.5 E0.87783
G1 X511.5 Y166.5 E0.30724
G1 X511.5 Y186.5 E0.87783
G1 X510.5 Y186.5 E0.04389
G1 X510.5 Y166.5 E0.87783
G1 X503.5 Y166.5 E0.30724
G1 X503.5 Y186.5 E0.87783
G1 X502.5 Y186.5 E0.04389
G0 F6000 X501.5 Y187.5
;TYPE:WALL-OUTER
G1 F1200 X501.5 Y167.5 E0.87783
G1 X496.5 Y167.5 E0.21946
G1 X496.5 Y187.5 E0.87783
G1 X493.5 Y187.5 E0.13167
G1 X493.5 Y167.5 E0.87783
G1 X488.5 Y167.5 E0.21946
G1 X488.5 Y187.5 E0.87783
G1 X485.5 Y187.5 E0.13167
G1 X485.5 Y167.5 E0.87783
G1 X480.5 Y167.5 E0.21946
G1 X480.5 Y187.5 E0.87783
G1 X477.5 Y187.5 E0.13167
G1 X477.5 Y167.5 E0.87783
G1 X472.5 Y167.5 E0.21946
G1 X472.5 Y187.5 E0.87783
G1 X469.5 Y187.5 E0.13167
G1 X469.5 Y167.5 E0.87783
G1 X464.5 Y167.5 E0.21946
G1 X464.5 Y187.5 E0.87783
G1 X461.5 Y187.5 E0.13167
G1 X461.5 Y167.5 E0.87783
G1 X456.5 Y167.5 E0.21946
G1 X456.5 Y187.5 E0.87783
G1 X453.5 Y187.5 E0.13167
G1 X453.5 Y167.5 E0.87783
G1 X448.5 Y167.5 E0.21946
G1 X448.5 Y187.5 E0.87783
G1 X445.5 Y187.5 E0.13167
G1 X445.5 Y164.5 E1.0095
G1 X608.5 Y164.5 E7.15428
G1 X608.5 Y187.5 E1.0095
G1 X605.5 Y187.5 E0.13167
G1 X605.5 Y167.5 E0.87783
G1 X600.5 Y167.5 E0.21946
G1 X600.5 Y187.5 E0.87783
G1 X597.5 Y187.5 E0.13167
G1 X597.5 Y167.5 E0.87783
G1 X592.5 Y167.5 E0.21946
G1 X592.5 Y187.5 E0.87783
G1 X589.5 Y187.5 E0.13167
G1 X589.5 Y167.5 E0.87783
G1 X584.5 Y167.5 E0.21946
G1 X584.5 Y187.5 E0.87783
G1 X581.5 Y187.5 E0.13167
G1 X581.5 Y167.5 E0.87783
G1 X576.5 Y167.5 E0.21946
G1 X576.5 Y187.5 E0.87783
G1 X573.5 Y187.5 E0.13167
G1 X573.5 Y167.5 E0.87783
G1 X568.5 Y167.5 E0.21946
G1 X568.5 Y187.5 E0.87783
G1 X565.5 Y187.5 E0.13167
G1 X565.5 Y167.5 E0.87783
G1 X560.5 Y167.5 E0.21946
G1 X560.5 Y187.5 E0.87783
G1 X557.5 Y187.5 E0.13167
G1 X557.5 Y167.5 E0.87783
G1 X552.5 Y167.5 E0.21946
G1 X552.5 Y187.5 E0.87783
G1 X549.5 Y187.5 E0.13167
G1 X549.5 Y167.5 E0.87783
G1 X544.5 Y167.5 E0.21946
G1 X544.5 Y187.5 E0.87783
G1 X541.5 Y187.5 E0.13167
G1 X541.5 Y167.5 E0.87783
G1 X536.5 Y167.5 E0.21946
G1 X536.5 Y187.5 E0.87783
G1 X533.5 Y187.5 E0.13167
G1 X533.5 Y167.5 E0.87783
G1 X528.5 Y167.5 E0.21946
G1 X528.5 Y187.5 E0.87783
G1 X525.5 Y187.5 E0.13167
G1 X525.5 Y167.5 E0.87783
G1 X520.5 Y167.5 E0.21946
G1 X520.5 Y187.5 E0.87783
G1 X517.5 Y187.5 E0.13167
G1 X517.5 Y167.5 E0.87783
G1 X512.5 Y167.5 E0.21946
G1 X512.5 Y187.5 E0.87783
G1 X509.5 Y187.5 E0.13167
G1 X509.5 Y167.5 E0.87783
G1 X504.5 Y167.5 E0.21946
G1 X504.5 Y187.5 E0.87783
G1 X501.5 Y187.5 E0.13167
G0 F6000 X502.707 Y186
;TIME_ELAPSED:898.905997
G1 F1500 E-6.5
M140 S0
M141 S0
M82 ;absolute extrusion mode
G1 X5 Y5 F3000 ;Wipe out
G90 ;Absolute positionning
G1 Z10
T0
G1 X0 Y0 ;Present print
M106 S0 ;Turn-off fan
M104 T0 S0 ;Turn-off hotend
M104 T1 S0 ;Turn-off hotend
M140 S0 ;Turn-off bed
M84 X Y E ;Disable all steppers but Z
M98 P"endPrint.g"
M83 ;relative extrusion mode
M104 S0
;End of Gcode
