;FLAVOR:RepRap
;TIME:859
;Filament used: 0.337811m, 0.23156m
;Layer height: 0.6
;MINX:373.04
;MINY:150.04
;MINZ:0.28
;MAXX:626.96
;MAXY:349.96
;MAXZ:0.48
;LINEARADVANCEPROCESSED
;Generated with Cura_SteamEngine 4.6.2
T0
M190 S60
M104 S200
M104 T1 S175
M109 S200
M109 T1 S175
M82 ;absolute extrusion mode
T0
M104 S200
M109 S200
M98 P"startPrint.g"
M82 ;absolute extrusion mode
G21 ;metric values
G90 ;absolute positioning
M83 ;set extruder to relative mode
M107 ;start with the fan off
M109 S200 B210 F1;activate auto temp min 180 max 210 scaling factor 1 (for PLA)
G28; Home Axis
G29 S1; Z-Probe the bed (requires Z-Probe!)
G1 Z5.0 F9000 ;move the head 5mm up for CYA clearance
G92 E0 ;zero the extruded length
M117 Cleaning...;Put Cleaning message on screen
G1 X-20 Y0 F4000 ; move half way along the front edge
G1 Z1 ; move nozzle close to bed
M109 S200 ; heat nozzle to 200 degC and wait until reached
G4 P1000 ; wait 10 seconds for nozzle length to stabilize
G1 E15 ; extrude 10 mm of filament
G1 Z15 F12000 E5 ; move 15 mm up, fast, while extruding 5mm
G92 E0 ; reset extruder
M117 Printing...;Put printing message on LCD screen
M141 S28
M83 ;relative extrusion mode
G1 F1500 E-6.5
;LAYER_COUNT:1
M572 S0.000000 D1 ;added by LinearAdvanceSettingPlugin
M572 S0.000000 D0 ;added by LinearAdvanceSettingPlugin
;LAYER:0
M107
G0 F6000 X411.143 Y153.411 Z0.28
;TYPE:SKIRT
G1 F1500 E6.5
G1 F1200 X412.062 Y153.464 E0.04848
G1 X414.097 Y153.77 E0.10839
G1 X416.588 Y154.126 E0.13253
G1 X419.158 Y154.42 E0.13624
G1 X421.643 Y154.633 E0.13136
G1 X424.168 Y154.777 E0.13321
G1 X426.722 Y154.851 E0.13457
G1 X429.233 Y154.853 E0.13225
G1 X431.77 Y154.783 E0.13367
G1 X434.29 Y154.641 E0.13294
G1 X436.796 Y154.429 E0.13246
G1 X439.321 Y154.145 E0.13383
G1 X441.859 Y153.785 E0.13501
G1 X443.245 Y153.556 E0.07399
G1 X444.558 Y153.422 E0.06951
G1 X445.33 Y153.4 E0.04068
G1 X608.293 Y153.4 E8.58319
G1 X609.128 Y153.41 E0.04398
G1 X610.047 Y153.462 E0.04848
G1 X610.958 Y153.593 E0.04848
G1 X611.854 Y153.803 E0.04847
G1 X612.729 Y154.09 E0.0485
G1 X613.576 Y154.452 E0.04851
G1 X614.388 Y154.886 E0.04849
G1 X615.159 Y155.388 E0.04846
G1 X615.884 Y155.956 E0.04851
G1 X616.557 Y156.585 E0.04852
G1 X617.172 Y157.269 E0.04845
G1 X617.726 Y158.004 E0.04848
G1 X618.214 Y158.785 E0.0485
G1 X618.633 Y159.605 E0.0485
G1 X618.979 Y160.458 E0.04848
G1 X619.249 Y161.338 E0.04848
G1 X619.442 Y162.239 E0.04853
G1 X619.556 Y163.152 E0.04846
G1 X619.61 Y164.515 E0.07184
G1 X619.722 Y167.079 E0.13517
G1 X619.906 Y169.63 E0.13471
G1 X620.155 Y172.118 E0.1317
G1 X620.482 Y174.649 E0.13441
G1 X620.874 Y177.137 E0.13266
G1 X621.337 Y179.609 E0.13246
G1 X621.866 Y182.056 E0.13186
G1 X622.479 Y184.546 E0.13506
G1 X623.193 Y187.129 E0.14115
G1 X623.399 Y188.026 E0.04847
G1 X623.555 Y189.28 E0.06656
G1 X623.6 Y190.33 E0.05535
G1 X623.6 Y213.264 E1.20792
G1 X623.59 Y214.122 E0.04519
G1 X623.539 Y215.041 E0.04848
G1 X623.408 Y215.953 E0.04853
G1 X623.198 Y216.849 E0.04847
G1 X622.912 Y217.724 E0.04849
G1 X622.551 Y218.571 E0.04849
G1 X622.117 Y219.383 E0.04849
G1 X621.615 Y220.155 E0.0485
G1 X621.047 Y220.88 E0.04851
G1 X620.419 Y221.553 E0.04848
G1 X619.735 Y222.169 E0.04848
G1 X619 Y222.723 E0.04848
G1 X618.22 Y223.212 E0.04849
G1 X617.4 Y223.631 E0.0485
G1 X616.547 Y223.977 E0.04848
G1 X615.667 Y224.248 E0.0485
G1 X614.767 Y224.441 E0.04848
G1 X613.853 Y224.556 E0.04852
G1 X612.67 Y224.6 E0.06235
G1 X537.079 Y224.6 E3.98134
G1 X534.454 Y224.637 E0.13827
G1 X531.946 Y224.744 E0.13222
G1 X529.426 Y224.922 E0.13306
G1 X526.911 Y225.171 E0.13311
G1 X524.422 Y225.49 E0.13217
G1 X521.87 Y225.891 E0.13606
G1 X519.439 Y226.343 E0.13023
G1 X516.94 Y226.881 E0.13464
G1 X514.504 Y227.478 E0.1321
G1 X512.038 Y228.156 E0.1347
G1 X509.645 Y228.889 E0.13182
G1 X507.231 Y229.703 E0.13418
G1 X504.881 Y230.57 E0.13193
G1 X502.493 Y231.529 E0.13554
G1 X500.216 Y232.52 E0.13079
G1 X497.899 Y233.606 E0.13478
G1 X495.641 Y234.742 E0.13313
G1 X493.439 Y235.932 E0.13183
G1 X491.252 Y237.193 E0.13296
G1 X489.072 Y238.535 E0.13483
G1 X486.973 Y239.909 E0.13213
G1 X484.874 Y241.371 E0.13473
G1 X482.86 Y242.859 E0.13189
G1 X480.859 Y244.427 E0.13389
G1 X478.94 Y246.021 E0.13139
G1 X477.024 Y247.705 E0.13435
G1 X475.163 Y249.436 E0.13386
G1 X473.368 Y251.205 E0.13274
G1 X471.621 Y253.026 E0.13291
G1 X469.938 Y254.883 E0.132
G1 X468.258 Y256.843 E0.13597
G1 X466.695 Y258.779 E0.13105
G1 X465.159 Y260.794 E0.13345
G1 X463.677 Y262.854 E0.13366
G1 X462.255 Y264.955 E0.13362
G1 X460.914 Y267.062 E0.13154
G1 X459.601 Y269.262 E0.13494
G1 X458.373 Y271.455 E0.13238
G1 X457.196 Y273.706 E0.13379
G1 X456.102 Y275.95 E0.13149
G1 X455.047 Y278.281 E0.13476
G1 X454.08 Y280.589 E0.1318
G1 X453.147 Y282.997 E0.13602
G1 X452.32 Y285.338 E0.13077
G1 X451.542 Y287.749 E0.13343
G1 X450.831 Y290.185 E0.13366
G1 X450.197 Y292.614 E0.13222
G1 X449.621 Y295.105 E0.13466
G1 X449.119 Y297.591 E0.13358
G1 X448.695 Y300.056 E0.13174
G1 X448.335 Y302.568 E0.13366
G1 X448.049 Y305.065 E0.13238
G1 X447.829 Y307.616 E0.13486
G1 X447.685 Y310.121 E0.13216
G1 X447.61 Y312.647 E0.1331
G1 X447.6 Y314.077 E0.07532
G1 X447.6 Y331.264 E0.90523
G1 X447.589 Y332.137 E0.04598
G1 X447.536 Y333.056 E0.04848
G1 X447.404 Y333.967 E0.04848
G1 X447.193 Y334.863 E0.04848
G1 X446.906 Y335.738 E0.0485
G1 X446.543 Y336.584 E0.04849
G1 X446.109 Y337.396 E0.04849
G1 X445.605 Y338.167 E0.04851
G1 X445.037 Y338.891 E0.04847
G1 X444.408 Y339.563 E0.04848
G1 X443.723 Y340.178 E0.04849
G1 X442.987 Y340.731 E0.04849
G1 X442.206 Y341.219 E0.0485
G1 X441.386 Y341.637 E0.04848
G1 X440.532 Y341.982 E0.04851
G1 X439.652 Y342.251 E0.04847
G1 X438.751 Y342.444 E0.04853
G1 X437.838 Y342.557 E0.04845
G1 X436.481 Y342.611 E0.07153
G1 X433.922 Y342.722 E0.13491
G1 X431.37 Y342.906 E0.13476
G1 X428.882 Y343.155 E0.1317
G1 X426.351 Y343.482 E0.13441
G1 X423.863 Y343.874 E0.13266
G1 X421.391 Y344.337 E0.13246
G1 X418.944 Y344.866 E0.13186
G1 X416.454 Y345.479 E0.13506
G1 X413.871 Y346.193 E0.14115
G1 X412.974 Y346.399 E0.04847
G1 X411.72 Y346.555 E0.06656
G1 X410.67 Y346.6 E0.05535
G1 X387.707 Y346.6 E1.20945
G1 X386.872 Y346.59 E0.04398
G1 X385.953 Y346.538 E0.04848
G1 X385.042 Y346.407 E0.04848
G1 X384.146 Y346.197 E0.04847
G1 X383.271 Y345.91 E0.0485
G1 X382.424 Y345.548 E0.04851
G1 X381.612 Y345.114 E0.04849
G1 X380.841 Y344.612 E0.04846
G1 X380.116 Y344.044 E0.04851
G1 X379.443 Y343.415 E0.04852
G1 X378.828 Y342.731 E0.04845
G1 X378.274 Y341.996 E0.04848
G1 X377.786 Y341.215 E0.0485
G1 X377.367 Y340.395 E0.0485
G1 X377.021 Y339.542 E0.04848
G1 X376.751 Y338.662 E0.04848
G1 X376.558 Y337.761 E0.04853
G1 X376.444 Y336.848 E0.04846
G1 X376.4 Y335.658 E0.06272
G1 X376.4 Y164.674 E9.00565
G1 X376.411 Y163.85 E0.0434
G1 X376.465 Y162.931 E0.04849
G1 X376.598 Y162.02 E0.04849
G1 X376.81 Y161.124 E0.04849
G1 X377.099 Y160.249 E0.04853
G1 X377.463 Y159.404 E0.04846
G1 X377.898 Y158.593 E0.04847
G1 X378.403 Y157.822 E0.04854
G1 X378.972 Y157.099 E0.04846
G1 X379.602 Y156.427 E0.04852
G1 X380.288 Y155.813 E0.04849
G1 X381.024 Y155.261 E0.04846
G1 X381.806 Y154.774 E0.04852
G1 X382.627 Y154.358 E0.04848
G1 X383.481 Y154.014 E0.04849
G1 X384.361 Y153.745 E0.04847
G1 X385.262 Y153.554 E0.04851
G1 X386.176 Y153.442 E0.0485
G1 X387.33 Y153.4 E0.06082
G1 X410.293 Y153.4 E1.20945
G1 X411.143 Y153.411 E0.04477
G0 F6000 X411.16 Y152.211
G1 F1200 X412.13 Y152.265 E0.05117
G1 X412.843 Y152.356 E0.03786
G1 X414.269 Y152.583 E0.07605
G1 X416.754 Y152.938 E0.13221
G1 X419.253 Y153.223 E0.13247
G1 X421.746 Y153.437 E0.13179
G1 X424.235 Y153.579 E0.13131
G1 X426.723 Y153.651 E0.1311
G1 X429.201 Y153.653 E0.13052
G1 X431.738 Y153.583 E0.13367
G1 X434.194 Y153.445 E0.12956
G1 X436.67 Y153.236 E0.13087
G1 X439.193 Y152.951 E0.13373
G1 X441.671 Y152.6 E0.13182
G1 X443.05 Y152.372 E0.07362
G1 X444.014 Y152.253 E0.05116
G1 X445.33 Y152.2 E0.06937
G1 X608.293 Y152.2 E8.58319
G1 X609.143 Y152.21 E0.04477
G1 X610.113 Y152.262 E0.05116
G1 X611.075 Y152.395 E0.05115
G1 X612.024 Y152.605 E0.05119
G1 X612.951 Y152.893 E0.05113
G1 X613.852 Y153.257 E0.05118
G1 X614.72 Y153.693 E0.05116
G1 X615.549 Y154.199 E0.05115
G1 X616.334 Y154.772 E0.05119
G1 X617.069 Y155.407 E0.05116
G1 X617.749 Y156.101 E0.05117
G1 X618.37 Y156.848 E0.05116
G1 X618.927 Y157.644 E0.05117
G1 X619.417 Y158.482 E0.05113
G1 X619.836 Y159.359 E0.05119
G1 X620.182 Y160.266 E0.05113
G1 X620.452 Y161.2 E0.05121
G1 X620.644 Y162.152 E0.05115
G1 X620.757 Y163.117 E0.05117
G1 X620.808 Y164.431 E0.06926
G1 X620.92 Y167.011 E0.13602
G1 X621.102 Y169.53 E0.13302
G1 X621.348 Y171.985 E0.12995
G1 X621.666 Y174.453 E0.13106
G1 X622.058 Y176.938 E0.1325
G1 X622.516 Y179.383 E0.13102
G1 X623.038 Y181.798 E0.13013
G1 X623.635 Y184.222 E0.13149
G1 X624.35 Y186.809 E0.14136
G1 X624.57 Y187.756 E0.05121
G1 X624.711 Y188.717 E0.05116
G1 X624.776 Y189.58 E0.04558
G1 X624.8 Y190.33 E0.03952
G1 X624.8 Y213.264 E1.20792
G1 X624.79 Y214.137 E0.04598
G1 X624.738 Y215.107 E0.05116
G1 X624.606 Y216.07 E0.0512
G1 X624.396 Y217.018 E0.05114
G1 X624.109 Y217.946 E0.05116
G1 X623.746 Y218.847 E0.05116
G1 X623.31 Y219.715 E0.05116
G1 X622.804 Y220.544 E0.05115
G1 X622.232 Y221.329 E0.05116
G1 X621.597 Y222.064 E0.05116
G1 X620.904 Y222.745 E0.05117
G1 X620.157 Y223.366 E0.05116
G1 X619.361 Y223.924 E0.0512
G1 X618.523 Y224.414 E0.05113
G1 X617.647 Y224.834 E0.05117
G1 X616.739 Y225.18 E0.05118
G1 X615.806 Y225.45 E0.05116
G1 X614.854 Y225.643 E0.05116
G1 X613.889 Y225.757 E0.05118
G1 X612.67 Y225.8 E0.06424
G1 X537.096 Y225.8 E3.98045
G1 X534.487 Y225.837 E0.13743
G1 X532.012 Y225.942 E0.13047
G1 X529.556 Y226.116 E0.12968
G1 X527.042 Y226.365 E0.13306
G1 X524.557 Y226.683 E0.13195
G1 X522.097 Y227.07 E0.13116
G1 X519.656 Y227.524 E0.13077
G1 X517.203 Y228.051 E0.13215
G1 X514.817 Y228.637 E0.1294
G1 X512.391 Y229.303 E0.1325
G1 X510 Y230.035 E0.1317
G1 X507.64 Y230.832 E0.1312
G1 X505.28 Y231.702 E0.13248
G1 X502.997 Y232.619 E0.12958
G1 X500.667 Y233.633 E0.13384
G1 X498.454 Y234.67 E0.12872
G1 X496.201 Y235.804 E0.13285
G1 X494.002 Y236.993 E0.13167
G1 X491.858 Y238.229 E0.13034
G1 X489.725 Y239.541 E0.1319
G1 X487.642 Y240.905 E0.13114
G1 X485.576 Y242.344 E0.13261
G1 X483.599 Y243.805 E0.12948
G1 X481.629 Y245.348 E0.1318
G1 X479.686 Y246.962 E0.13304
G1 X477.841 Y248.585 E0.12942
G1 X475.991 Y250.305 E0.13305
G1 X474.228 Y252.042 E0.13035
G1 X472.511 Y253.831 E0.1306
G1 X470.82 Y255.698 E0.13267
G1 X469.19 Y257.6 E0.13193
G1 X467.636 Y259.524 E0.13026
G1 X466.119 Y261.514 E0.13179
G1 X464.669 Y263.531 E0.13084
G1 X463.258 Y265.615 E0.13256
G1 X461.922 Y267.714 E0.13105
G1 X460.644 Y269.856 E0.13137
G1 X459.44 Y272.005 E0.12974
G1 X458.266 Y274.251 E0.13348
G1 X457.181 Y276.477 E0.13043
G1 X456.154 Y278.746 E0.13118
G1 X455.187 Y281.053 E0.13175
G1 X454.277 Y283.401 E0.13263
G1 X453.456 Y285.727 E0.12992
G1 X452.691 Y288.097 E0.13117
G1 X451.985 Y290.518 E0.13282
G1 X451.361 Y292.905 E0.12995
G1 X450.793 Y295.363 E0.13287
G1 X450.304 Y297.784 E0.13009
G1 X449.879 Y300.255 E0.13206
G1 X449.524 Y302.73 E0.13169
G1 X449.241 Y305.2 E0.13094
G1 X449.027 Y307.682 E0.13121
G1 X448.885 Y310.155 E0.13047
G1 X448.81 Y312.69 E0.13358
G1 X448.8 Y314.086 E0.07353
G1 X448.8 Y331.264 E0.90476
G1 X448.789 Y332.153 E0.04683
G1 X448.736 Y333.123 E0.05117
G1 X448.603 Y334.085 E0.05115
G1 X448.391 Y335.034 E0.05122
G1 X448.102 Y335.961 E0.05114
G1 X447.738 Y336.862 E0.05118
G1 X447.301 Y337.729 E0.05114
G1 X446.794 Y338.558 E0.05118
G1 X446.221 Y339.342 E0.05115
G1 X445.585 Y340.076 E0.05115
G1 X444.891 Y340.756 E0.05117
G1 X444.143 Y341.376 E0.05117
G1 X443.347 Y341.932 E0.05114
G1 X442.508 Y342.422 E0.05117
G1 X441.631 Y342.84 E0.05117
G1 X440.723 Y343.185 E0.05116
G1 X439.79 Y343.454 E0.05114
G1 X438.837 Y343.646 E0.0512
G1 X437.872 Y343.758 E0.05117
G1 X436.569 Y343.808 E0.06868
G1 X433.99 Y343.92 E0.13596
G1 X431.47 Y344.102 E0.13307
G1 X429.015 Y344.348 E0.12995
G1 X426.547 Y344.666 E0.13106
G1 X424.062 Y345.058 E0.1325
G1 X421.617 Y345.516 E0.13102
G1 X419.202 Y346.038 E0.13013
G1 X416.778 Y346.635 E0.13149
G1 X414.191 Y347.35 E0.14136
G1 X413.244 Y347.57 E0.05121
G1 X412.283 Y347.711 E0.05116
G1 X411.42 Y347.776 E0.04558
G1 X410.67 Y347.8 E0.03952
G1 X387.707 Y347.8 E1.20945
G1 X386.857 Y347.79 E0.04477
G1 X385.887 Y347.738 E0.05116
G1 X384.925 Y347.605 E0.05115
G1 X383.976 Y347.395 E0.05119
G1 X383.049 Y347.107 E0.05113
G1 X382.148 Y346.743 E0.05118
G1 X381.28 Y346.307 E0.05116
G1 X380.451 Y345.801 E0.05115
G1 X379.666 Y345.228 E0.05119
G1 X378.931 Y344.593 E0.05116
G1 X378.251 Y343.899 E0.05117
G1 X377.63 Y343.152 E0.05116
G1 X377.073 Y342.356 E0.05117
G1 X376.583 Y341.518 E0.05113
G1 X376.164 Y340.641 E0.05119
G1 X375.818 Y339.734 E0.05113
G1 X375.548 Y338.8 E0.05121
G1 X375.356 Y337.848 E0.05115
G1 X375.243 Y336.883 E0.05117
G1 X375.2 Y335.658 E0.06456
G1 X375.2 Y164.674 E9.00565
G1 X375.211 Y163.832 E0.04435
G1 X375.266 Y162.862 E0.05117
G1 X375.4 Y161.9 E0.05116
G1 X375.613 Y160.952 E0.05118
G1 X375.903 Y160.025 E0.05116
G1 X376.268 Y159.125 E0.05115
G1 X376.706 Y158.258 E0.05116
G1 X377.214 Y157.43 E0.05116
G1 X377.789 Y156.646 E0.05121
G1 X378.426 Y155.913 E0.05115
G1 X379.121 Y155.234 E0.05118
G1 X379.869 Y154.615 E0.05114
G1 X380.666 Y154.059 E0.05118
G1 X381.506 Y153.571 E0.05117
G1 X382.383 Y153.154 E0.05115
G1 X383.291 Y152.81 E0.05114
G1 X384.225 Y152.542 E0.05118
G1 X385.178 Y152.352 E0.05118
G1 X386.143 Y152.241 E0.05116
G1 X387.33 Y152.2 E0.06256
G1 X410.293 Y152.2 E1.20945
G1 X411.16 Y152.211 E0.04567
G0 F6000 X411.177 Y151.011
G1 F1200 X412.195 Y151.066 E0.0537
G1 X413.031 Y151.171 E0.04438
G1 X414.439 Y151.395 E0.07509
G1 X416.914 Y151.748 E0.13168
G1 X419.383 Y152.03 E0.13089
G1 X421.812 Y152.239 E0.12841
G1 X424.268 Y152.379 E0.12957
G1 X426.759 Y152.451 E0.13125
G1 X429.204 Y152.453 E0.12878
G1 X431.673 Y152.385 E0.13009
G1 X434.096 Y152.248 E0.12782
G1 X436.574 Y152.039 E0.13098
G1 X439.03 Y151.762 E0.13018
G1 X441.483 Y151.414 E0.13049
G1 X442.854 Y151.188 E0.07318
G1 X443.866 Y151.061 E0.05372
G1 X444.822 Y151.01 E0.05042
G1 X608.293 Y151 E8.60995
G1 X609.159 Y151.01 E0.04561
G1 X610.177 Y151.063 E0.05369
G1 X611.188 Y151.196 E0.05371
G1 X612.185 Y151.408 E0.05369
G1 X613.163 Y151.697 E0.05371
G1 X614.115 Y152.061 E0.05368
G1 X615.036 Y152.5 E0.05374
G1 X615.919 Y153.009 E0.05368
G1 X616.76 Y153.586 E0.05372
G1 X617.553 Y154.227 E0.05371
G1 X618.293 Y154.928 E0.05369
G1 X618.976 Y155.685 E0.0537
G1 X619.598 Y156.493 E0.05371
G1 X620.154 Y157.347 E0.05367
G1 X620.642 Y158.243 E0.05374
G1 X621.058 Y159.173 E0.05366
G1 X621.4 Y160.134 E0.05373
G1 X621.666 Y161.118 E0.05369
G1 X621.853 Y162.121 E0.05374
G1 X621.986 Y163.633 E0.07994
G1 X622.12 Y166.978 E0.17632
G1 X622.294 Y169.394 E0.12758
G1 X622.541 Y171.856 E0.13032
G1 X622.854 Y174.282 E0.12884
G1 X623.238 Y176.716 E0.12978
G1 X623.693 Y179.151 E0.13047
G1 X624.211 Y181.54 E0.12875
G1 X624.801 Y183.94 E0.13017
G1 X625.506 Y186.49 E0.13935
G1 X625.739 Y187.482 E0.05367
G1 X625.893 Y188.49 E0.05371
G1 X625.974 Y189.504 E0.05358
G1 X626 Y190.33 E0.04353
G1 X626 Y213.264 E1.20792
G1 X625.99 Y214.152 E0.04677
G1 X625.937 Y215.17 E0.05369
G1 X625.805 Y216.181 E0.0537
G1 X625.594 Y217.179 E0.05373
G1 X625.306 Y218.157 E0.0537
G1 X624.941 Y219.109 E0.0537
G1 X624.503 Y220.03 E0.05371
G1 X623.995 Y220.913 E0.05365
G1 X623.418 Y221.754 E0.05372
G1 X622.778 Y222.548 E0.05371
G1 X622.077 Y223.288 E0.05369
G1 X621.321 Y223.972 E0.0537
G1 X620.513 Y224.594 E0.05371
G1 X619.659 Y225.151 E0.0537
G1 X618.763 Y225.639 E0.05374
G1 X617.833 Y226.056 E0.05368
G1 X616.872 Y226.398 E0.05373
G1 X615.888 Y226.664 E0.05369
G1 X614.886 Y226.852 E0.0537
G1 X613.872 Y226.961 E0.05371
G1 X612.67 Y227 E0.06334
G1 X537.113 Y227 E3.97955
G1 X534.519 Y227.037 E0.13664
G1 X532.077 Y227.14 E0.12873
G1 X529.654 Y227.312 E0.12794
G1 X527.168 Y227.559 E0.13158
G1 X524.72 Y227.872 E0.12998
G1 X522.322 Y228.249 E0.12785
G1 X519.885 Y228.702 E0.13055
G1 X517.493 Y229.217 E0.12887
G1 X515.096 Y229.804 E0.12998
G1 X512.713 Y230.459 E0.13017
G1 X510.377 Y231.175 E0.12869
G1 X508.049 Y231.96 E0.1294
G1 X505.721 Y232.819 E0.1307
G1 X503.442 Y233.734 E0.12935
G1 X501.192 Y234.713 E0.12924
G1 X498.953 Y235.763 E0.13025
G1 X496.748 Y236.872 E0.13
G1 X494.605 Y238.03 E0.1283
G1 X492.469 Y239.262 E0.12987
G1 X490.379 Y240.548 E0.12925
G1 X488.288 Y241.917 E0.13164
G1 X486.302 Y243.301 E0.1275
G1 X484.298 Y244.781 E0.13121
G1 X482.399 Y246.268 E0.12703
G1 X480.471 Y247.87 E0.13203
G1 X478.62 Y249.497 E0.1298
G1 X476.838 Y251.155 E0.1282
G1 X475.088 Y252.88 E0.12942
G1 X473.367 Y254.673 E0.1309
G1 X471.735 Y256.474 E0.12801
G1 X470.121 Y258.357 E0.13062
G1 X468.573 Y260.274 E0.12978
G1 X467.083 Y262.229 E0.12947
G1 X465.632 Y264.247 E0.13091
G1 X464.271 Y266.257 E0.12785
G1 X462.946 Y268.34 E0.13003
G1 X461.702 Y270.423 E0.12779
G1 X460.478 Y272.61 E0.132
G1 X459.349 Y274.768 E0.12828
G1 X458.259 Y277.005 E0.13106
G1 X457.26 Y279.211 E0.12755
G1 X456.293 Y281.518 E0.13175
G1 X455.4 Y283.824 E0.13024
G1 X454.595 Y286.105 E0.1274
G1 X453.83 Y288.475 E0.13117
G1 X453.151 Y290.801 E0.12762
G1 X452.525 Y293.196 E0.13038
G1 X451.964 Y295.623 E0.1312
G1 X451.479 Y298.023 E0.12896
G1 X451.069 Y300.414 E0.12777
G1 X450.714 Y302.892 E0.13185
G1 X450.438 Y305.299 E0.12761
G1 X450.223 Y307.784 E0.13137
G1 X450.083 Y310.223 E0.12867
G1 X450.01 Y312.69 E0.12999
G1 X450 Y314.094 E0.07395
G1 X450 Y331.264 E0.90434
G1 X449.989 Y332.17 E0.04772
G1 X449.935 Y333.188 E0.05369
G1 X449.801 Y334.199 E0.05371
G1 X449.589 Y335.196 E0.05369
G1 X449.299 Y336.174 E0.05373
G1 X448.933 Y337.125 E0.05367
G1 X448.494 Y338.046 E0.05374
G1 X447.984 Y338.928 E0.05366
G1 X447.407 Y339.769 E0.05372
G1 X446.765 Y340.561 E0.0537
G1 X446.063 Y341.301 E0.05372
G1 X445.306 Y341.983 E0.05367
G1 X444.497 Y342.604 E0.05372
G1 X443.642 Y343.16 E0.05372
G1 X442.746 Y343.647 E0.05371
G1 X441.815 Y344.062 E0.05369
G1 X440.854 Y344.403 E0.05371
G1 X439.87 Y344.668 E0.05367
G1 X438.867 Y344.855 E0.05374
G1 X437.366 Y344.986 E0.07936
G1 X434.023 Y345.12 E0.17622
G1 X431.606 Y345.294 E0.12763
G1 X429.144 Y345.541 E0.13032
G1 X426.718 Y345.854 E0.12884
G1 X424.284 Y346.238 E0.12978
G1 X421.849 Y346.693 E0.13047
G1 X419.46 Y347.211 E0.12875
G1 X417.06 Y347.801 E0.13017
G1 X414.51 Y348.506 E0.13935
G1 X413.518 Y348.739 E0.05367
G1 X412.51 Y348.893 E0.05371
G1 X411.496 Y348.974 E0.05358
G1 X410.67 Y349 E0.04353
G1 X387.707 Y349 E1.20945
G1 X386.841 Y348.99 E0.04561
G1 X385.823 Y348.937 E0.05369
G1 X384.812 Y348.804 E0.05371
G1 X383.815 Y348.592 E0.05369
G1 X382.837 Y348.303 E0.05371
G1 X381.885 Y347.939 E0.05368
G1 X380.964 Y347.5 E0.05374
G1 X380.081 Y346.991 E0.05368
G1 X379.24 Y346.414 E0.05372
G1 X378.447 Y345.773 E0.05371
G1 X377.707 Y345.072 E0.05369
G1 X377.024 Y344.315 E0.0537
G1 X376.402 Y343.507 E0.05371
G1 X375.846 Y342.653 E0.05367
G1 X375.358 Y341.757 E0.05374
G1 X374.942 Y340.827 E0.05366
G1 X374.6 Y339.866 E0.05373
G1 X374.334 Y338.882 E0.05369
G1 X374.147 Y337.879 E0.05374
G1 X374.038 Y336.866 E0.05366
G1 X374 Y335.658 E0.06366
G1 X374 Y164.674 E9.00565
G1 X374.011 Y163.814 E0.0453
G1 X374.067 Y162.795 E0.05375
G1 X374.202 Y161.785 E0.05367
G1 X374.415 Y160.788 E0.0537
G1 X374.707 Y159.811 E0.05371
G1 X375.073 Y158.859 E0.05372
G1 X375.514 Y157.94 E0.05369
G1 X376.025 Y157.057 E0.05373
G1 X376.603 Y156.218 E0.05366
G1 X377.246 Y155.426 E0.05373
G1 X377.949 Y154.687 E0.05372
G1 X378.707 Y154.006 E0.05367
G1 X379.517 Y153.386 E0.05373
G1 X380.372 Y152.831 E0.05369
G1 X381.269 Y152.346 E0.05371
G1 X382.2 Y151.931 E0.05369
G1 X383.162 Y151.592 E0.05372
G1 X384.147 Y151.328 E0.05371
G1 X385.149 Y151.143 E0.05367
G1 X386.645 Y151.014 E0.07909
G1 X387.33 Y151 E0.03609
G1 X410.293 Y151 E1.20945
G1 X411.177 Y151.011 E0.04656
G1 F1500 E-6.5
;MESH:CalibrationMultiExtruder1
G0 F6000 X411.653 Y163.347
G0 X411.665 Y225.58
G0 X409.78 Y225.58
G0 X389.772 Y225.572
G0 X389.772 Y333.228
G0 X409.2 Y334.2
;TYPE:WALL-INNER
G1 F1500 E6.5
G1 F1200 X389.2 Y334.2 E1.05339
G1 X388.8 Y334.2 E0.02107
G1 X388.8 Y333.8 E0.01477
G1 X388.8 Y325.8 E0.42136
G1 X388.8 Y325.4 E0.02107
G1 X388.8 Y317.4 E0.42136
G1 X388.8 Y317 E0.02107
G1 X388.8 Y309 E0.42136
G1 X388.8 Y308.6 E0.02107
G1 X388.8 Y300.6 E0.42136
G1 X388.8 Y300.2 E0.02107
G1 X388.8 Y292.2 E0.42136
G1 X388.8 Y291.8 E0.02107
G1 X388.8 Y283.8 E0.42136
G1 X388.8 Y283.4 E0.02107
G1 X388.8 Y275.4 E0.42136
G1 X388.8 Y275 E0.02107
G1 X388.8 Y267 E0.42136
G1 X388.8 Y266.6 E0.02107
G1 X388.8 Y258.6 E0.42136
G1 X388.8 Y258.2 E0.02107
G1 X388.8 Y250.2 E0.42136
G1 X388.8 Y249.8 E0.02107
G1 X388.8 Y241.8 E0.42136
G1 X388.8 Y241.4 E0.02107
G1 X388.8 Y233.4 E0.42136
G1 X388.8 Y233 E0.02107
G1 X388.8 Y225 E0.42136
G1 X388.8 Y224.6 E0.02107
G1 X388.8 Y216.6 E0.42136
G1 X388.8 Y216.2 E0.02107
G1 X388.8 Y208.2 E0.42136
G1 X388.8 Y207.8 E0.02107
G1 X388.8 Y199.8 E0.42136
G1 X388.8 Y199.4 E0.02107
G1 X388.8 Y191.4 E0.42136
G1 X388.8 Y191 E0.02107
G1 X388.8 Y183 E0.42136
G1 X388.8 Y182.6 E0.02107
G1 X388.8 Y174.6 E0.42136
G1 X388.8 Y174.2 E0.02107
G1 X388.8 Y166.2 E0.42136
G1 X388.8 Y165.8 E0.02107
G1 X389.2 Y165.8 E0.01477
G1 X409.2 Y165.8 E1.05339
G1 X409.2 Y166.2 E0.02107
G1 X389.2 Y166.2 E0.35142
G1 X389.2 Y174.2 E0.14057
G1 X409.2 Y174.2 E1.05339
G1 X409.2 Y174.6 E0.02107
G1 X389.2 Y174.6 E0.35142
G1 X389.2 Y182.6 E0.14057
G1 X409.2 Y182.6 E1.05339
G1 X409.2 Y183 E0.02107
G1 X389.2 Y183 E0.35142
G1 X389.2 Y191 E0.14057
G1 X409.2 Y191 E1.05339
G1 X409.2 Y191.4 E0.02107
G1 X389.2 Y191.4 E0.35142
G1 X389.2 Y199.4 E0.14057
G1 X409.2 Y199.4 E1.05339
G1 X409.2 Y199.8 E0.02107
G1 X389.2 Y199.8 E0.35142
G1 X389.2 Y207.8 E0.14057
G1 X409.2 Y207.8 E1.05339
G1 X409.2 Y208.2 E0.02107
G1 X389.2 Y208.2 E0.35142
G1 X389.2 Y216.2 E0.14057
G1 X409.2 Y216.2 E1.05339
G1 X409.2 Y216.6 E0.02107
G1 X389.2 Y216.6 E0.35142
G1 X389.2 Y224.6 E0.14057
G1 X409.2 Y224.6 E1.05339
G1 X409.2 Y225 E0.02107
G1 X389.2 Y225 E0.35142
G1 X389.2 Y233 E0.14057
G1 X409.2 Y233 E1.05339
G1 X409.2 Y233.4 E0.02107
G1 X389.2 Y233.4 E0.35142
G1 X389.2 Y241.4 E0.14057
G1 X409.2 Y241.4 E1.05339
G1 X409.2 Y241.8 E0.02107
G1 X389.2 Y241.8 E0.35142
G1 X389.2 Y249.8 E0.14057
G1 X409.2 Y249.8 E1.05339
G1 X409.2 Y250.2 E0.02107
G1 X389.2 Y250.2 E0.35142
G1 X389.2 Y258.2 E0.14057
G1 X409.2 Y258.2 E1.05339
G1 X409.2 Y258.6 E0.02107
G1 X389.2 Y258.6 E0.35142
G1 X389.2 Y266.6 E0.14057
G1 X409.2 Y266.6 E1.05339
G1 X409.2 Y267 E0.02107
G1 X389.2 Y267 E0.35142
G1 X389.2 Y275 E0.14057
G1 X409.2 Y275 E1.05339
G1 X409.2 Y275.4 E0.02107
G1 X389.2 Y275.4 E0.35142
G1 X389.2 Y283.4 E0.14057
G1 X409.2 Y283.4 E1.05339
G1 X409.2 Y283.8 E0.02107
G1 X389.2 Y283.8 E0.35142
G1 X389.2 Y291.8 E0.14057
G1 X409.2 Y291.8 E1.05339
G1 X409.2 Y292.2 E0.02107
G1 X389.2 Y292.2 E0.35142
G1 X389.2 Y300.2 E0.14057
G1 X409.2 Y300.2 E1.05339
G1 X409.2 Y300.6 E0.02107
G1 X389.2 Y300.6 E0.35142
G1 X389.2 Y308.6 E0.14057
G1 X409.2 Y308.6 E1.05339
G1 X409.2 Y309 E0.02107
G1 X389.2 Y309 E0.35142
G1 X389.2 Y317 E0.14057
G1 X409.2 Y317 E1.05339
G1 X409.2 Y317.4 E0.02107
G1 X389.2 Y317.4 E0.35142
G1 X389.2 Y325.4 E0.14057
G1 X409.2 Y325.4 E1.05339
G1 X409.2 Y325.8 E0.02107
G1 X389.2 Y325.8 E0.35142
G1 X389.2 Y333.8 E0.14057
G1 X409.2 Y333.8 E0.35142
G1 X409.2 Y334.2 E0.02107
G1 F1500 E-6.5
G0 F6000 X410.4 Y335.4
;TYPE:WALL-OUTER
G1 F1500 E6.5
G1 F1200 X387.6 Y335.4 E1.20087
G1 X387.6 Y164.6 E8.99596
G1 X410.4 Y164.6 E1.20087
G1 X410.4 Y167.4 E0.14747
G1 X390.4 Y167.4 E1.05339
G1 X390.4 Y173 E0.29495
G1 X410.4 Y173 E1.05339
G1 X410.4 Y175.8 E0.14747
G1 X390.4 Y175.8 E1.05339
G1 X390.4 Y181.4 E0.29495
G1 X410.4 Y181.4 E1.05339
G1 X410.4 Y184.2 E0.14747
G1 X390.4 Y184.2 E1.05339
G1 X390.4 Y189.8 E0.29495
G1 X410.4 Y189.8 E1.05339
G1 X410.4 Y192.6 E0.14747
G1 X390.4 Y192.6 E1.05339
G1 X390.4 Y198.2 E0.29495
G1 X410.4 Y198.2 E1.05339
G1 X410.4 Y201 E0.14747
G1 X390.4 Y201 E1.05339
G1 X390.4 Y206.6 E0.29495
G1 X410.4 Y206.6 E1.05339
G1 X410.4 Y209.4 E0.14747
G1 X390.4 Y209.4 E1.05339
G1 X390.4 Y215 E0.29495
G1 X410.4 Y215 E1.05339
G1 X410.4 Y217.8 E0.14747
G1 X390.4 Y217.8 E1.05339
G1 X390.4 Y223.4 E0.29495
G1 X410.4 Y223.4 E1.05339
G1 X410.4 Y226.2 E0.14747
G1 X390.4 Y226.2 E1.05339
G1 X390.4 Y231.8 E0.29495
G1 X410.4 Y231.8 E1.05339
G1 X410.4 Y234.6 E0.14747
G1 X390.4 Y234.6 E1.05339
G1 X390.4 Y240.2 E0.29495
G1 X410.4 Y240.2 E1.05339
G1 X410.4 Y243 E0.14747
G1 X390.4 Y243 E1.05339
G1 X390.4 Y248.6 E0.29495
G1 X410.4 Y248.6 E1.05339
G1 X410.4 Y251.4 E0.14747
G1 X390.4 Y251.4 E1.05339
G1 X390.4 Y257 E0.29495
G1 X410.4 Y257 E1.05339
G1 X410.4 Y259.8 E0.14747
G1 X390.4 Y259.8 E1.05339
G1 X390.4 Y265.4 E0.29495
G1 X410.4 Y265.4 E1.05339
G1 X410.4 Y268.2 E0.14747
G1 X390.4 Y268.2 E1.05339
G1 X390.4 Y273.8 E0.29495
G1 X410.4 Y273.8 E1.05339
G1 X410.4 Y276.6 E0.14747
G1 X390.4 Y276.6 E1.05339
G1 X390.4 Y282.2 E0.29495
G1 X410.4 Y282.2 E1.05339
G1 X410.4 Y285 E0.14747
G1 X390.4 Y285 E1.05339
G1 X390.4 Y290.6 E0.29495
G1 X410.4 Y290.6 E1.05339
G1 X410.4 Y293.4 E0.14747
G1 X390.4 Y293.4 E1.05339
G1 X390.4 Y299 E0.29495
G1 X410.4 Y299 E1.05339
G1 X410.4 Y301.8 E0.14747
G1 X390.4 Y301.8 E1.05339
G1 X390.4 Y307.4 E0.29495
G1 X410.4 Y307.4 E1.05339
G1 X410.4 Y310.2 E0.14747
G1 X390.4 Y310.2 E1.05339
G1 X390.4 Y315.8 E0.29495
G1 X410.4 Y315.8 E1.05339
G1 X410.4 Y318.6 E0.14747
G1 X390.4 Y318.6 E1.05339
G1 X390.4 Y324.2 E0.29495
G1 X410.4 Y324.2 E1.05339
G1 X410.4 Y327 E0.14747
G1 X390.4 Y327 E1.05339
G1 X390.4 Y332.6 E0.29495
G1 X410.4 Y332.6 E1.05339
G1 X410.4 Y335.4 E0.14747
G0 F6000 X408.952 Y334.4
G1 F1500 E-6.5
G0 F6000 X409.786 Y333.214
G0 X409.786 Y331.335
G0 X412.347 Y327.347
G0 X412.347 Y332.653
G0 X437.653 Y332.653
G0 X442.214 Y214.665
G0 X442.214 Y212.786
G0 X442.8 Y212.2
;TYPE:WALL-INNER
G1 F1500 E6.5
G1 F1200 X442.8 Y211.8 E0.02107
G1 X442.8 Y191.8 E1.05339
G1 X443.2 Y191.8 E0.02107
G1 X443.2 Y211.8 E0.35142
G1 X451.2 Y211.8 E0.42136
G1 X451.2 Y191.8 E1.05339
G1 X451.6 Y191.8 E0.02107
G1 X451.6 Y211.8 E0.35142
G1 X459.6 Y211.8 E0.42136
G1 X459.6 Y191.8 E1.05339
G1 X460 Y191.8 E0.02107
G1 X460 Y211.8 E0.35142
G1 X468 Y211.8 E0.42136
G1 X468 Y191.8 E1.05339
G1 X468.4 Y191.8 E0.02107
G1 X468.4 Y211.8 E0.35142
G1 X476.4 Y211.8 E0.42136
G1 X476.4 Y191.8 E1.05339
G1 X476.8 Y191.8 E0.02107
G1 X476.8 Y211.8 E0.35142
G1 X484.8 Y211.8 E0.42136
G1 X484.8 Y191.8 E1.05339
G1 X485.2 Y191.8 E0.02107
G1 X485.2 Y211.8 E0.35142
G1 X493.2 Y211.8 E0.42136
G1 X493.2 Y191.8 E1.05339
G1 X493.6 Y191.8 E0.02107
G1 X493.6 Y211.8 E0.35142
G1 X501.6 Y211.8 E0.42136
G1 X501.6 Y191.8 E1.05339
G1 X502 Y191.8 E0.02107
G1 X502 Y211.8 E0.35142
G1 X510 Y211.8 E0.42136
G1 X510 Y191.8 E1.05339
G1 X510.4 Y191.8 E0.02107
G1 X510.4 Y211.8 E0.35142
G1 X518.4 Y211.8 E0.42136
G1 X518.4 Y191.8 E1.05339
G1 X518.8 Y191.8 E0.02107
G1 X518.8 Y211.8 E0.35142
G1 X526.8 Y211.8 E0.42136
G1 X526.8 Y191.8 E1.05339
G1 X527.2 Y191.8 E0.02107
G1 X527.2 Y211.8 E0.35142
G1 X535.2 Y211.8 E0.42136
G1 X535.2 Y191.8 E1.05339
G1 X535.6 Y191.8 E0.02107
G1 X535.6 Y211.8 E0.35142
G1 X543.6 Y211.8 E0.42136
G1 X543.6 Y191.8 E1.05339
G1 X544 Y191.8 E0.02107
G1 X544 Y211.8 E0.35142
G1 X552 Y211.8 E0.42136
G1 X552 Y191.8 E1.05339
G1 X552.4 Y191.8 E0.02107
G1 X552.4 Y211.8 E0.35142
G1 X560.4 Y211.8 E0.42136
G1 X560.4 Y191.8 E1.05339
G1 X560.8 Y191.8 E0.02107
G1 X560.8 Y211.8 E0.35142
G1 X568.8 Y211.8 E0.42136
G1 X568.8 Y191.8 E1.05339
G1 X569.2 Y191.8 E0.02107
G1 X569.2 Y211.8 E0.35142
G1 X577.2 Y211.8 E0.42136
G1 X577.2 Y191.8 E1.05339
G1 X577.6 Y191.8 E0.02107
G1 X577.6 Y211.8 E0.35142
G1 X585.6 Y211.8 E0.42136
G1 X585.6 Y191.8 E1.05339
G1 X586 Y191.8 E0.02107
G1 X586 Y211.8 E0.35142
G1 X594 Y211.8 E0.42136
G1 X594 Y191.8 E1.05339
G1 X594.4 Y191.8 E0.02107
G1 X594.4 Y211.8 E0.35142
G1 X602.4 Y211.8 E0.42136
G1 X602.4 Y191.8 E1.05339
G1 X602.8 Y191.8 E0.02107
G1 X602.8 Y211.8 E0.35142
G1 X610.8 Y211.8 E0.42136
G1 X610.8 Y191.8 E1.05339
G1 X611.2 Y191.8 E0.02107
G1 X611.2 Y211.8 E0.35142
G1 X611.2 Y212.2 E0.01477
G1 X610.8 Y212.2 E0.01477
G1 X602.8 Y212.2 E0.14057
G1 X602.4 Y212.2 E0.01477
G1 X594.4 Y212.2 E0.14057
G1 X594 Y212.2 E0.01477
G1 X586 Y212.2 E0.14057
G1 X585.6 Y212.2 E0.01477
G1 X577.6 Y212.2 E0.14057
G1 X577.2 Y212.2 E0.01477
G1 X569.2 Y212.2 E0.14057
G1 X568.8 Y212.2 E0.01477
G1 X560.8 Y212.2 E0.14057
G1 X560.4 Y212.2 E0.01477
G1 X552.4 Y212.2 E0.14057
G1 X552 Y212.2 E0.01477
G1 X544 Y212.2 E0.14057
G1 X543.6 Y212.2 E0.01477
G1 X535.6 Y212.2 E0.14057
G1 X535.2 Y212.2 E0.01477
G1 X527.2 Y212.2 E0.14057
G1 X526.8 Y212.2 E0.01477
G1 X518.8 Y212.2 E0.14057
G1 X518.4 Y212.2 E0.01477
G1 X510.4 Y212.2 E0.14057
G1 X510 Y212.2 E0.01477
G1 X502 Y212.2 E0.14057
G1 X501.6 Y212.2 E0.01477
G1 X493.6 Y212.2 E0.14057
G1 X493.2 Y212.2 E0.01477
G1 X485.2 Y212.2 E0.14057
G1 X484.8 Y212.2 E0.01477
G1 X476.8 Y212.2 E0.14057
G1 X476.4 Y212.2 E0.01477
G1 X468.4 Y212.2 E0.14057
G1 X468 Y212.2 E0.01477
G1 X460 Y212.2 E0.14057
G1 X459.6 Y212.2 E0.01477
G1 X451.6 Y212.2 E0.14057
G1 X451.2 Y212.2 E0.01477
G1 X443.2 Y212.2 E0.14057
G1 X442.8 Y212.2 E0.01477
G1 F1500 E-6.5
G0 F6000 X441.6 Y213.4
M104 T1 S200
;TYPE:WALL-OUTER
G1 F1500 E6.5
G1 F1200 X441.6 Y190.6 E1.20087
G1 X444.4 Y190.6 E0.14747
G1 X444.4 Y210.6 E1.05339
G1 X450 Y210.6 E0.29495
G1 X450 Y190.6 E1.05339
G1 X452.8 Y190.6 E0.14747
G1 X452.8 Y210.6 E1.05339
G1 X458.4 Y210.6 E0.29495
G1 X458.4 Y190.6 E1.05339
G1 X461.2 Y190.6 E0.14747
G1 X461.2 Y210.6 E1.05339
G1 X466.8 Y210.6 E0.29495
G1 X466.8 Y190.6 E1.05339
G1 X469.6 Y190.6 E0.14747
G1 X469.6 Y210.6 E1.05339
G1 X475.2 Y210.6 E0.29495
G1 X475.2 Y190.6 E1.05339
G1 X478 Y190.6 E0.14747
G1 X478 Y210.6 E1.05339
G1 X483.6 Y210.6 E0.29495
G1 X483.6 Y190.6 E1.05339
G1 X486.4 Y190.6 E0.14747
G1 X486.4 Y210.6 E1.05339
G1 X492 Y210.6 E0.29495
G1 X492 Y190.6 E1.05339
G1 X494.8 Y190.6 E0.14747
G1 X494.8 Y210.6 E1.05339
G1 X500.4 Y210.6 E0.29495
G1 X500.4 Y190.6 E1.05339
G1 X503.2 Y190.6 E0.14747
G1 X503.2 Y210.6 E1.05339
G1 X508.8 Y210.6 E0.29495
G1 X508.8 Y190.6 E1.05339
G1 X511.6 Y190.6 E0.14747
G1 X511.6 Y210.6 E1.05339
G1 X517.2 Y210.6 E0.29495
G1 X517.2 Y190.6 E1.05339
G1 X520 Y190.6 E0.14747
G1 X520 Y210.6 E1.05339
G1 X525.6 Y210.6 E0.29495
G1 X525.6 Y190.6 E1.05339
G1 X528.4 Y190.6 E0.14747
G1 X528.4 Y210.6 E1.05339
G1 X534 Y210.6 E0.29495
G1 X534 Y190.6 E1.05339
G1 X536.8 Y190.6 E0.14747
G1 X536.8 Y210.6 E1.05339
G1 X542.4 Y210.6 E0.29495
G1 X542.4 Y190.6 E1.05339
G1 X545.2 Y190.6 E0.14747
G1 X545.2 Y210.6 E1.05339
G1 X550.8 Y210.6 E0.29495
G1 X550.8 Y190.6 E1.05339
G1 X553.6 Y190.6 E0.14747
G1 X553.6 Y210.6 E1.05339
G1 X559.2 Y210.6 E0.29495
G1 X559.2 Y190.6 E1.05339
G1 X562 Y190.6 E0.14747
G1 X562 Y210.6 E1.05339
G1 X567.6 Y210.6 E0.29495
G1 X567.6 Y190.6 E1.05339
G1 X570.4 Y190.6 E0.14747
G1 X570.4 Y210.6 E1.05339
G1 X576 Y210.6 E0.29495
G1 X576 Y190.6 E1.05339
G1 X578.8 Y190.6 E0.14747
G1 X578.8 Y210.6 E1.05339
G1 X584.4 Y210.6 E0.29495
G1 X584.4 Y190.6 E1.05339
G1 X587.2 Y190.6 E0.14747
G1 X587.2 Y210.6 E1.05339
G1 X592.8 Y210.6 E0.29495
G1 X592.8 Y190.6 E1.05339
G1 X595.6 Y190.6 E0.14747
G1 X595.6 Y210.6 E1.05339
G1 X601.2 Y210.6 E0.29495
G1 X601.2 Y190.6 E1.05339
G1 X604 Y190.6 E0.14747
G1 X604 Y210.6 E1.05339
G1 X609.6 Y210.6 E0.29495
G1 X609.6 Y190.6 E1.05339
G1 X612.4 Y190.6 E0.14747
G1 X612.4 Y213.4 E1.20087
G1 X441.6 Y213.4 E8.99596
G0 F6000 X443.048 Y211.6
G1 F1200 E-16
G1 F300 Z0.48
T1
M109 S200
M104 T0 S0
M107 P2
G1 F2100 E-0.5
;MESH:CalibrationMultiExtruder1(1)
G0 F6000 X443.048 Y211.6 Z0.48
G1 F300 Z0.28
G0 F6000 X443.048 Y214.665
G0 X479.266 Y250.208
;TYPE:SKIRT
G1 F2100 E0.5
G1 F1200 X477.505 Y251.846 E0.076
G1 X475.758 Y253.567 E0.0775
G1 X474.074 Y255.322 E0.07686
G1 X472.446 Y257.119 E0.07663
G1 X470.868 Y258.96 E0.07663
G1 X469.338 Y260.855 E0.07697
G1 X467.833 Y262.83 E0.07847
G1 X466.43 Y264.78 E0.07592
G1 X465.082 Y266.771 E0.07598
G1 X463.766 Y268.839 E0.07746
G1 X462.513 Y270.939 E0.07728
G1 X461.337 Y273.04 E0.07609
G1 X460.197 Y275.219 E0.07771
G1 X459.138 Y277.392 E0.07639
G1 X458.129 Y279.621 E0.07732
G1 X457.188 Y281.866 E0.07693
G1 X456.301 Y284.158 E0.07767
G1 X455.499 Y286.427 E0.07605
G1 X454.758 Y288.725 E0.0763
G1 X454.073 Y291.072 E0.07726
G1 X453.454 Y293.439 E0.07732
G1 X452.905 Y295.813 E0.077
G1 X452.422 Y298.207 E0.07718
G1 X452.016 Y300.566 E0.07564
G1 X451.668 Y302.997 E0.07761
G1 X451.39 Y305.42 E0.07707
G1 X451.184 Y307.816 E0.076
G1 X451.042 Y310.27 E0.07768
G1 X450.97 Y312.725 E0.07762
G1 X450.96 Y314.101 E0.04349
G1 X450.96 Y331.264 E0.54238
G1 X450.949 Y332.183 E0.02904
G1 X450.894 Y333.238 E0.03339
G1 X450.76 Y334.286 E0.03339
G1 X450.547 Y335.321 E0.03339
G1 X450.256 Y336.337 E0.0334
G1 X449.89 Y337.328 E0.03338
G1 X449.449 Y338.288 E0.03339
G1 X448.937 Y339.213 E0.03341
G1 X448.357 Y340.095 E0.03336
G1 X447.711 Y340.932 E0.03341
G1 X447.004 Y341.717 E0.03339
G1 X446.24 Y342.447 E0.03339
G1 X445.423 Y343.116 E0.03337
G1 X444.557 Y343.722 E0.0334
G1 X443.648 Y344.261 E0.0334
G1 X442.701 Y344.729 E0.03338
G1 X441.721 Y345.125 E0.0334
G1 X440.714 Y345.445 E0.03339
G1 X439.686 Y345.688 E0.03338
G1 X438.642 Y345.853 E0.0334
G1 X437.394 Y345.945 E0.03955
G1 X434.098 Y346.078 E0.10424
G1 X431.661 Y346.253 E0.07721
G1 X429.261 Y346.494 E0.07623
G1 X426.845 Y346.805 E0.07698
G1 X424.441 Y347.185 E0.07691
G1 X422.048 Y347.632 E0.07693
G1 X419.676 Y348.146 E0.0767
G1 X417.338 Y348.721 E0.07609
G1 X414.766 Y349.432 E0.08433
G1 X413.738 Y349.674 E0.03337
G1 X412.694 Y349.839 E0.0334
G1 X411.557 Y349.932 E0.03605
G1 X410.67 Y349.96 E0.02804
G1 X387.707 Y349.96 E0.72567
G1 X386.829 Y349.95 E0.02775
G1 X385.774 Y349.896 E0.03338
G1 X384.726 Y349.763 E0.03338
G1 X383.691 Y349.551 E0.03339
G1 X382.674 Y349.261 E0.03342
G1 X381.683 Y348.895 E0.03338
G1 X380.722 Y348.455 E0.0334
G1 X379.798 Y347.944 E0.03337
G1 X378.914 Y347.365 E0.03339
G1 X378.077 Y346.72 E0.03339
G1 X377.291 Y346.014 E0.03339
G1 X376.561 Y345.25 E0.03339
G1 X375.891 Y344.433 E0.03339
G1 X375.284 Y343.568 E0.03339
G1 X374.745 Y342.66 E0.03337
G1 X374.276 Y341.713 E0.0334
G1 X373.879 Y340.733 E0.03341
G1 X373.558 Y339.727 E0.03337
G1 X373.314 Y338.699 E0.03339
G1 X373.149 Y337.655 E0.0334
G1 X373.054 Y336.368 E0.04078
G1 X373.04 Y335.658 E0.02244
G1 X373.04 Y164.674 E5.40339
G1 X373.052 Y163.799 E0.02765
G1 X373.107 Y162.744 E0.03339
G1 X373.243 Y161.696 E0.0334
G1 X373.457 Y160.661 E0.0334
G1 X373.749 Y159.646 E0.03338
G1 X374.117 Y158.656 E0.03338
G1 X374.559 Y157.696 E0.0334
G1 X375.072 Y156.772 E0.0334
G1 X375.654 Y155.89 E0.03339
G1 X376.3 Y155.054 E0.03339
G1 X377.008 Y154.27 E0.03338
G1 X377.774 Y153.541 E0.03342
G1 X378.592 Y152.873 E0.03337
G1 X379.458 Y152.268 E0.03338
G1 X380.368 Y151.73 E0.03341
G1 X381.315 Y151.263 E0.03337
G1 X382.296 Y150.869 E0.03341
G1 X383.303 Y150.55 E0.03338
G1 X384.332 Y150.308 E0.03341
G1 X385.376 Y150.145 E0.03339
G1 X386.618 Y150.055 E0.03935
G1 X387.33 Y150.04 E0.02251
G1 X410.293 Y150.04 E0.72567
G1 X411.191 Y150.051 E0.02838
G1 X412.246 Y150.107 E0.03339
G1 X413.182 Y150.223 E0.02981
G1 X414.536 Y150.438 E0.04332
G1 X417.053 Y150.798 E0.08035
G1 X419.468 Y151.073 E0.07681
G1 X421.915 Y151.284 E0.07762
G1 X424.313 Y151.42 E0.0759
G1 X426.752 Y151.491 E0.07711
G1 X429.178 Y151.493 E0.07667
G1 X431.628 Y151.425 E0.07745
G1 X434.035 Y151.29 E0.07618
G1 X436.493 Y151.082 E0.07795
G1 X438.894 Y150.811 E0.07636
G1 X441.364 Y150.461 E0.07884
G1 X442.698 Y150.241 E0.04273
G1 X443.746 Y150.108 E0.03338
G1 X444.784 Y150.051 E0.03285
G1 X608.293 Y150.04 E5.16717
G1 X609.171 Y150.05 E0.02775
G1 X610.226 Y150.104 E0.03338
G1 X611.274 Y150.237 E0.03338
G1 X612.309 Y150.449 E0.03339
G1 X613.326 Y150.739 E0.03342
G1 X614.317 Y151.105 E0.03338
G1 X615.278 Y151.545 E0.0334
G1 X616.202 Y152.056 E0.03337
G1 X617.086 Y152.635 E0.03339
G1 X617.923 Y153.28 E0.03339
G1 X618.709 Y153.986 E0.03339
G1 X619.439 Y154.75 E0.03339
G1 X620.109 Y155.567 E0.03339
G1 X620.716 Y156.432 E0.03339
G1 X621.255 Y157.34 E0.03337
G1 X621.724 Y158.287 E0.0334
G1 X622.121 Y159.267 E0.03341
G1 X622.442 Y160.273 E0.03337
G1 X622.686 Y161.301 E0.03339
G1 X622.851 Y162.345 E0.0334
G1 X622.945 Y163.606 E0.03996
G1 X623.078 Y166.903 E0.10428
G1 X623.253 Y169.339 E0.07718
G1 X623.494 Y171.739 E0.07623
G1 X623.805 Y174.155 E0.07698
G1 X624.185 Y176.559 E0.07691
G1 X624.632 Y178.952 E0.07693
G1 X625.146 Y181.324 E0.0767
G1 X625.721 Y183.662 E0.07609
G1 X626.432 Y186.234 E0.08433
G1 X626.674 Y187.262 E0.03337
G1 X626.839 Y188.306 E0.0334
G1 X626.932 Y189.443 E0.03605
G1 X626.96 Y190.33 E0.02804
G1 X626.96 Y213.264 E0.72475
G1 X626.95 Y214.164 E0.02844
G1 X626.897 Y215.219 E0.03338
G1 X626.764 Y216.267 E0.03338
G1 X626.553 Y217.302 E0.03338
G1 X626.263 Y218.319 E0.03342
G1 X625.898 Y219.31 E0.03337
G1 X625.459 Y220.271 E0.03339
G1 X624.948 Y221.196 E0.0334
G1 X624.369 Y222.08 E0.03339
G1 X623.724 Y222.917 E0.03339
G1 X623.019 Y223.703 E0.03337
G1 X622.255 Y224.434 E0.03342
G1 X621.439 Y225.105 E0.03339
G1 X620.574 Y225.712 E0.03339
G1 X619.666 Y226.252 E0.03339
G1 X618.719 Y226.722 E0.03341
G1 X617.74 Y227.118 E0.03337
G1 X616.734 Y227.44 E0.03338
G1 X615.706 Y227.684 E0.03339
G1 X614.662 Y227.851 E0.03341
G1 X613.382 Y227.946 E0.04056
G1 X612.67 Y227.96 E0.0225
G1 X537.126 Y227.96 E2.38732
G1 X534.538 Y227.997 E0.08179
G1 X532.152 Y228.098 E0.07547
G1 X529.707 Y228.271 E0.07746
G1 X527.283 Y228.512 E0.07698
G1 X524.885 Y228.818 E0.0764
G1 X522.472 Y229.198 E0.07719
G1 X520.082 Y229.642 E0.07682
G1 X517.682 Y230.158 E0.07758
G1 X515.355 Y230.729 E0.07572
G1 X512.975 Y231.383 E0.078
G1 X510.683 Y232.085 E0.07575
G1 X508.331 Y232.878 E0.07844
G1 X506.097 Y233.702 E0.07525
G1 X503.796 Y234.626 E0.07836
G1 X501.582 Y235.59 E0.07631
G1 X499.376 Y236.624 E0.07699
G1 X497.206 Y237.716 E0.07677
G1 X495.056 Y238.878 E0.07723
G1 X492.979 Y240.076 E0.07577
G1 X490.883 Y241.365 E0.07776
G1 X488.838 Y242.704 E0.07725
G1 X486.863 Y244.08 E0.07607
G1 X484.891 Y245.537 E0.07748
G1 X482.963 Y247.048 E0.07741
G1 X481.114 Y248.583 E0.07594
G1 X479.266 Y250.208 E0.07777
G1 F2100 E-0.5
G0 F6000 X437.665 Y250.208
G0 X436.22 Y250.208
G0 X435.2 Y330.2
;TYPE:WALL-INNER
G1 F2100 E0.5
G1 F1200 X434.8 Y330.2 E0.01264
G1 X414.8 Y330.2 E0.63203
G1 X414.8 Y329.8 E0.01264
G1 X434.8 Y329.8 E0.35162
G1 X434.8 Y322.2 E0.24017
G1 X414.8 Y322.2 E0.63203
G1 X414.8 Y321.8 E0.01264
G1 X434.8 Y321.8 E0.35162
G1 X434.8 Y314.2 E0.24017
G1 X414.8 Y314.2 E0.63203
G1 X414.8 Y313.8 E0.01264
G1 X434.8 Y313.8 E0.35162
G1 X434.8 Y306.2 E0.24017
G1 X414.8 Y306.2 E0.63203
G1 X414.8 Y305.8 E0.01264
G1 X434.8 Y305.8 E0.35162
G1 X434.8 Y298.2 E0.24017
G1 X414.8 Y298.2 E0.63203
G1 X414.8 Y297.8 E0.01264
G1 X434.8 Y297.8 E0.35162
G1 X434.8 Y290.2 E0.24017
G1 X414.8 Y290.2 E0.63203
G1 X414.8 Y289.8 E0.01264
G1 X434.8 Y289.8 E0.35162
G1 X434.8 Y282.2 E0.24017
G1 X414.8 Y282.2 E0.63203
G1 X414.8 Y281.8 E0.01264
G1 X434.8 Y281.8 E0.35162
G1 X434.8 Y274.2 E0.24017
G1 X414.8 Y274.2 E0.63203
G1 X414.8 Y273.8 E0.01264
G1 X434.8 Y273.8 E0.35162
G1 X434.8 Y266.2 E0.24017
G1 X414.8 Y266.2 E0.63203
G1 X414.8 Y265.8 E0.01264
G1 X434.8 Y265.8 E0.35162
G1 X434.8 Y258.2 E0.24017
G1 X414.8 Y258.2 E0.63203
G1 X414.8 Y257.8 E0.01264
G1 X434.8 Y257.8 E0.35162
G1 X434.8 Y250.2 E0.24017
G1 X414.8 Y250.2 E0.63203
G1 X414.8 Y249.8 E0.01264
G1 X434.8 Y249.8 E0.35162
G1 X434.8 Y242.2 E0.24017
G1 X414.8 Y242.2 E0.63203
G1 X414.8 Y241.8 E0.01264
G1 X434.8 Y241.8 E0.35162
G1 X434.8 Y234.2 E0.24017
G1 X414.8 Y234.2 E0.63203
G1 X414.8 Y233.8 E0.01264
G1 X434.8 Y233.8 E0.35162
G1 X434.8 Y226.2 E0.24017
G1 X414.8 Y226.2 E0.63203
G1 X414.8 Y225.8 E0.01264
G1 X434.8 Y225.8 E0.35162
G1 X434.8 Y218.2 E0.24017
G1 X414.8 Y218.2 E0.63203
G1 X414.8 Y217.8 E0.01264
G1 X434.8 Y217.8 E0.35162
G1 X434.8 Y210.2 E0.24017
G1 X414.8 Y210.2 E0.63203
G1 X414.8 Y209.8 E0.01264
G1 X434.8 Y209.8 E0.35162
G1 X434.8 Y202.2 E0.24017
G1 X414.8 Y202.2 E0.63203
G1 X414.8 Y201.8 E0.01264
G1 X434.8 Y201.8 E0.35162
G1 X434.8 Y194.2 E0.24017
G1 X414.8 Y194.2 E0.63203
G1 X414.8 Y193.8 E0.01264
G1 X434.8 Y193.8 E0.35162
G1 X434.8 Y186.2 E0.24017
G1 X414.8 Y186.2 E0.63203
G1 X414.8 Y185.8 E0.01264
G1 X434.8 Y185.8 E0.35162
G1 X434.8 Y178.2 E0.24017
G1 X414.8 Y178.2 E0.63203
G1 X414.8 Y177.8 E0.01264
G1 X434.8 Y177.8 E0.35162
G1 X434.8 Y170.2 E0.24017
G1 X414.8 Y170.2 E0.63203
G1 X414.8 Y169.8 E0.01264
G1 X434.8 Y169.8 E0.35162
G1 X435.2 Y169.8 E0.01056
G1 X435.2 Y170.2 E0.01056
G1 X435.2 Y177.8 E0.13362
G1 X435.2 Y178.2 E0.01056
G1 X435.2 Y185.8 E0.13362
G1 X435.2 Y186.2 E0.01056
G1 X435.2 Y193.8 E0.13362
G1 X435.2 Y194.2 E0.01056
G1 X435.2 Y201.8 E0.13362
G1 X435.2 Y202.2 E0.01056
G1 X435.2 Y209.8 E0.13362
G1 X435.2 Y210.2 E0.01056
G1 X435.2 Y217.8 E0.13362
G1 X435.2 Y218.2 E0.01056
G1 X435.2 Y225.8 E0.13362
G1 X435.2 Y226.2 E0.01056
G1 X435.2 Y233.8 E0.13362
G1 X435.2 Y234.2 E0.01056
G1 X435.2 Y241.8 E0.13362
G1 X435.2 Y242.2 E0.01056
G1 X435.2 Y249.8 E0.13362
G1 X435.2 Y250.2 E0.01056
G1 X435.2 Y257.8 E0.13362
G1 X435.2 Y258.2 E0.01056
G1 X435.2 Y265.8 E0.13362
G1 X435.2 Y266.2 E0.01056
G1 X435.2 Y273.8 E0.13362
G1 X435.2 Y274.2 E0.01056
G1 X435.2 Y281.8 E0.13362
G1 X435.2 Y282.2 E0.01056
G1 X435.2 Y289.8 E0.13362
G1 X435.2 Y290.2 E0.01056
G1 X435.2 Y297.8 E0.13362
G1 X435.2 Y298.2 E0.01056
G1 X435.2 Y305.8 E0.13362
G1 X435.2 Y306.2 E0.01056
G1 X435.2 Y313.8 E0.13362
G1 X435.2 Y314.2 E0.01056
G1 X435.2 Y321.8 E0.13362
G1 X435.2 Y322.2 E0.01056
G1 X435.2 Y329.8 E0.13362
G1 X435.2 Y330.2 E0.01056
G0 F6000 X435.92 Y330.92
G1 F1200 X414.08 Y330.92 E0.69018
G1 X414.08 Y329.08 E0.05815
G1 X434.08 Y329.08 E0.63203
G1 X434.08 Y322.92 E0.19467
G1 X414.08 Y322.92 E0.63203
G1 X414.08 Y321.08 E0.05815
G1 X434.08 Y321.08 E0.63203
G1 X434.08 Y314.92 E0.19467
G1 X414.08 Y314.92 E0.63203
G1 X414.08 Y313.08 E0.05815
G1 X434.08 Y313.08 E0.63203
G1 X434.08 Y306.92 E0.19467
G1 X414.08 Y306.92 E0.63203
G1 X414.08 Y305.08 E0.05815
G1 X434.08 Y305.08 E0.63203
G1 X434.08 Y298.92 E0.19467
G1 X414.08 Y298.92 E0.63203
G1 X414.08 Y297.08 E0.05815
G1 X434.08 Y297.08 E0.63203
G1 X434.08 Y290.92 E0.19467
G1 X414.08 Y290.92 E0.63203
G1 X414.08 Y289.08 E0.05815
G1 X434.08 Y289.08 E0.63203
G1 X434.08 Y282.92 E0.19467
G1 X414.08 Y282.92 E0.63203
G1 X414.08 Y281.08 E0.05815
G1 X434.08 Y281.08 E0.63203
G1 X434.08 Y274.92 E0.19467
G1 X414.08 Y274.92 E0.63203
G1 X414.08 Y273.08 E0.05815
G1 X434.08 Y273.08 E0.63203
G1 X434.08 Y266.92 E0.19467
G1 X414.08 Y266.92 E0.63203
G1 X414.08 Y265.08 E0.05815
G1 X434.08 Y265.08 E0.63203
G1 X434.08 Y258.92 E0.19467
G1 X414.08 Y258.92 E0.63203
G1 X414.08 Y257.08 E0.05815
G1 X434.08 Y257.08 E0.63203
G1 X434.08 Y250.92 E0.19467
G1 X414.08 Y250.92 E0.63203
G1 X414.08 Y249.08 E0.05815
G1 X434.08 Y249.08 E0.63203
G1 X434.08 Y242.92 E0.19467
G1 X414.08 Y242.92 E0.63203
G1 X414.08 Y241.08 E0.05815
G1 X434.08 Y241.08 E0.63203
G1 X434.08 Y234.92 E0.19467
G1 X414.08 Y234.92 E0.63203
G1 X414.08 Y233.08 E0.05815
G1 X434.08 Y233.08 E0.63203
G1 X434.08 Y226.92 E0.19467
G1 X414.08 Y226.92 E0.63203
G1 X414.08 Y225.08 E0.05815
G1 X434.08 Y225.08 E0.63203
G1 X434.08 Y218.92 E0.19467
G1 X414.08 Y218.92 E0.63203
G1 X414.08 Y217.08 E0.05815
G1 X434.08 Y217.08 E0.63203
G1 X434.08 Y210.92 E0.19467
G1 X414.08 Y210.92 E0.63203
G1 X414.08 Y209.08 E0.05815
G1 X434.08 Y209.08 E0.63203
G1 X434.08 Y202.92 E0.19467
G1 X414.08 Y202.92 E0.63203
G1 X414.08 Y201.08 E0.05815
G1 X434.08 Y201.08 E0.63203
G1 X434.08 Y194.92 E0.19467
G1 X414.08 Y194.92 E0.63203
G1 X414.08 Y193.08 E0.05815
G1 X434.08 Y193.08 E0.63203
G1 X434.08 Y186.92 E0.19467
G1 X414.08 Y186.92 E0.63203
G1 X414.08 Y185.08 E0.05815
G1 X434.08 Y185.08 E0.63203
G1 X434.08 Y178.92 E0.19467
G1 X414.08 Y178.92 E0.63203
G1 X414.08 Y177.08 E0.05815
G1 X434.08 Y177.08 E0.63203
G1 X434.08 Y170.92 E0.19467
G1 X414.08 Y170.92 E0.63203
G1 X414.08 Y169.08 E0.05815
G1 X435.92 Y169.08 E0.69018
G1 X435.92 Y330.92 E5.11442
G0 F6000 X436.6 Y331.6
;TYPE:WALL-OUTER
G1 F1200 X413.4 Y331.6 E0.73316
G1 X413.4 Y328.4 E0.10113
G1 X433.4 Y328.4 E0.63203
G1 X433.4 Y323.6 E0.15169
G1 X413.4 Y323.6 E0.63203
G1 X413.4 Y320.4 E0.10113
G1 X433.4 Y320.4 E0.63203
G1 X433.4 Y315.6 E0.15169
G1 X413.4 Y315.6 E0.63203
G1 X413.4 Y312.4 E0.10113
G1 X433.4 Y312.4 E0.63203
G1 X433.4 Y307.6 E0.15169
G1 X413.4 Y307.6 E0.63203
G1 X413.4 Y304.4 E0.10113
G1 X433.4 Y304.4 E0.63203
G1 X433.4 Y299.6 E0.15169
G1 X413.4 Y299.6 E0.63203
G1 X413.4 Y296.4 E0.10113
G1 X433.4 Y296.4 E0.63203
G1 X433.4 Y291.6 E0.15169
G1 X413.4 Y291.6 E0.63203
G1 X413.4 Y288.4 E0.10113
G1 X433.4 Y288.4 E0.63203
G1 X433.4 Y283.6 E0.15169
G1 X413.4 Y283.6 E0.63203
G1 X413.4 Y280.4 E0.10113
G1 X433.4 Y280.4 E0.63203
G1 X433.4 Y275.6 E0.15169
G1 X413.4 Y275.6 E0.63203
G1 X413.4 Y272.4 E0.10113
G1 X433.4 Y272.4 E0.63203
G1 X433.4 Y267.6 E0.15169
G1 X413.4 Y267.6 E0.63203
G1 X413.4 Y264.4 E0.10113
G1 X433.4 Y264.4 E0.63203
G1 X433.4 Y259.6 E0.15169
G1 X413.4 Y259.6 E0.63203
G1 X413.4 Y256.4 E0.10113
G1 X433.4 Y256.4 E0.63203
G1 X433.4 Y251.6 E0.15169
G1 X413.4 Y251.6 E0.63203
G1 X413.4 Y248.4 E0.10113
G1 X433.4 Y248.4 E0.63203
G1 X433.4 Y243.6 E0.15169
G1 X413.4 Y243.6 E0.63203
G1 X413.4 Y240.4 E0.10113
G1 X433.4 Y240.4 E0.63203
G1 X433.4 Y235.6 E0.15169
G1 X413.4 Y235.6 E0.63203
G1 X413.4 Y232.4 E0.10113
G1 X433.4 Y232.4 E0.63203
G1 X433.4 Y227.6 E0.15169
G1 X413.4 Y227.6 E0.63203
G1 X413.4 Y224.4 E0.10113
G1 X433.4 Y224.4 E0.63203
G1 X433.4 Y219.6 E0.15169
G1 X413.4 Y219.6 E0.63203
G1 X413.4 Y216.4 E0.10113
G1 X433.4 Y216.4 E0.63203
G1 X433.4 Y211.6 E0.15169
G1 X413.4 Y211.6 E0.63203
G1 X413.4 Y208.4 E0.10113
G1 X433.4 Y208.4 E0.63203
G1 X433.4 Y203.6 E0.15169
G1 X413.4 Y203.6 E0.63203
G1 X413.4 Y200.4 E0.10113
G1 X433.4 Y200.4 E0.63203
G1 X433.4 Y195.6 E0.15169
G1 X413.4 Y195.6 E0.63203
G1 X413.4 Y192.4 E0.10113
G1 X433.4 Y192.4 E0.63203
G1 X433.4 Y187.6 E0.15169
G1 X413.4 Y187.6 E0.63203
G1 X413.4 Y184.4 E0.10113
G1 X433.4 Y184.4 E0.63203
G1 X433.4 Y179.6 E0.15169
G1 X413.4 Y179.6 E0.63203
G1 X413.4 Y176.4 E0.10113
G1 X433.4 Y176.4 E0.63203
G1 X433.4 Y171.6 E0.15169
G1 X413.4 Y171.6 E0.63203
G1 X413.4 Y168.4 E0.10113
G1 X436.6 Y168.4 E0.73316
G1 X436.6 Y331.6 E5.1574
G0 F6000 X435.52 Y330.731
G1 F2100 E-0.5
G0 F6000 X436.22 Y186.2
G0 X437.665 Y186.2
G0 X444.335 Y186.2
G0 X445.78 Y186.2
G0 X448.212 Y167.212
G0 X501.788 Y167.212
G0 X502.8 Y186.2
;TYPE:WALL-INNER
G1 F2100 E0.5
G1 F1200 X502.8 Y166.2 E0.63203
G1 X495.2 Y166.2 E0.24017
G1 X495.2 Y186.2 E0.63203
G1 X494.8 Y186.2 E0.01264
G1 X494.8 Y166.2 E0.35162
G1 X487.2 Y166.2 E0.24017
G1 X487.2 Y186.2 E0.63203
G1 X486.8 Y186.2 E0.01264
G1 X486.8 Y166.2 E0.35162
G1 X479.2 Y166.2 E0.24017
G1 X479.2 Y186.2 E0.63203
G1 X478.8 Y186.2 E0.01264
G1 X478.8 Y166.2 E0.35162
G1 X471.2 Y166.2 E0.24017
G1 X471.2 Y186.2 E0.63203
G1 X470.8 Y186.2 E0.01264
G1 X470.8 Y166.2 E0.35162
G1 X463.2 Y166.2 E0.24017
G1 X463.2 Y186.2 E0.63203
G1 X462.8 Y186.2 E0.01264
G1 X462.8 Y166.2 E0.35162
G1 X455.2 Y166.2 E0.24017
G1 X455.2 Y186.2 E0.63203
G1 X454.8 Y186.2 E0.01264
G1 X454.8 Y166.2 E0.35162
G1 X447.2 Y166.2 E0.24017
G1 X447.2 Y186.2 E0.63203
G1 X446.8 Y186.2 E0.01264
G1 X446.8 Y166.2 E0.35162
G1 X446.8 Y165.8 E0.01056
G1 X447.2 Y165.8 E0.01056
G1 X454.8 Y165.8 E0.13362
G1 X455.2 Y165.8 E0.01056
G1 X462.8 Y165.8 E0.13362
G1 X463.2 Y165.8 E0.01056
G1 X470.8 Y165.8 E0.13362
G1 X471.2 Y165.8 E0.01056
G1 X478.8 Y165.8 E0.13362
G1 X479.2 Y165.8 E0.01056
G1 X486.8 Y165.8 E0.13362
G1 X487.2 Y165.8 E0.01056
G1 X494.8 Y165.8 E0.13362
G1 X495.2 Y165.8 E0.01056
G1 X502.8 Y165.8 E0.13362
G1 X503.2 Y165.8 E0.01056
G1 X510.8 Y165.8 E0.24017
G1 X511.2 Y165.8 E0.01264
G1 X518.8 Y165.8 E0.24017
G1 X519.2 Y165.8 E0.01264
G1 X526.8 Y165.8 E0.24017
G1 X527.2 Y165.8 E0.01264
G1 X534.8 Y165.8 E0.24017
G1 X535.2 Y165.8 E0.01264
G1 X542.8 Y165.8 E0.24017
G1 X543.2 Y165.8 E0.01264
G1 X550.8 Y165.8 E0.24017
G1 X551.2 Y165.8 E0.01264
G1 X558.8 Y165.8 E0.24017
G1 X559.2 Y165.8 E0.01264
G1 X566.8 Y165.8 E0.24017
G1 X567.2 Y165.8 E0.01264
G1 X574.8 Y165.8 E0.24017
G1 X575.2 Y165.8 E0.01264
G1 X582.8 Y165.8 E0.24017
G1 X583.2 Y165.8 E0.01264
G1 X590.8 Y165.8 E0.24017
G1 X591.2 Y165.8 E0.01264
G1 X598.8 Y165.8 E0.24017
G1 X599.2 Y165.8 E0.01264
G1 X606.8 Y165.8 E0.24017
G1 X607.2 Y165.8 E0.01264
G1 X607.2 Y166.2 E0.01056
G1 X607.2 Y186.2 E0.63203
G1 X606.8 Y186.2 E0.01264
G1 X606.8 Y166.2 E0.35162
G1 X599.2 Y166.2 E0.13362
G1 X599.2 Y186.2 E0.63203
G1 X598.8 Y186.2 E0.01264
G1 X598.8 Y166.2 E0.35162
G1 X591.2 Y166.2 E0.13362
G1 X591.2 Y186.2 E0.63203
G1 X590.8 Y186.2 E0.01264
G1 X590.8 Y166.2 E0.35162
G1 X583.2 Y166.2 E0.13362
G1 X583.2 Y186.2 E0.63203
G1 X582.8 Y186.2 E0.01264
G1 X582.8 Y166.2 E0.35162
G1 X575.2 Y166.2 E0.13362
G1 X575.2 Y186.2 E0.63203
G1 X574.8 Y186.2 E0.01264
G1 X574.8 Y166.2 E0.35162
G1 X567.2 Y166.2 E0.13362
G1 X567.2 Y186.2 E0.63203
G1 X566.8 Y186.2 E0.01264
G1 X566.8 Y166.2 E0.35162
G1 X559.2 Y166.2 E0.13362
G1 X559.2 Y186.2 E0.63203
G1 X558.8 Y186.2 E0.01264
G1 X558.8 Y166.2 E0.35162
G1 X551.2 Y166.2 E0.13362
G1 X551.2 Y186.2 E0.63203
G1 X550.8 Y186.2 E0.01264
G1 X550.8 Y166.2 E0.35162
G1 X543.2 Y166.2 E0.13362
G1 X543.2 Y186.2 E0.63203
G1 X542.8 Y186.2 E0.01264
G1 X542.8 Y166.2 E0.35162
G1 X535.2 Y166.2 E0.13362
G1 X535.2 Y186.2 E0.63203
G1 X534.8 Y186.2 E0.01264
G1 X534.8 Y166.2 E0.35162
G1 X527.2 Y166.2 E0.13362
G1 X527.2 Y186.2 E0.63203
G1 X526.8 Y186.2 E0.01264
G1 X526.8 Y166.2 E0.35162
G1 X519.2 Y166.2 E0.13362
G1 X519.2 Y186.2 E0.63203
G1 X518.8 Y186.2 E0.01264
G1 X518.8 Y166.2 E0.35162
G1 X511.2 Y166.2 E0.13362
G1 X511.2 Y186.2 E0.63203
G1 X510.8 Y186.2 E0.01264
G1 X510.8 Y166.2 E0.35162
G1 X503.2 Y166.2 E0.13362
G1 X503.2 Y186.2 E0.35162
G1 X502.8 Y186.2 E0.01264
G0 F6000 X502.08 Y186.92
G1 F1200 X502.08 Y166.92 E0.63203
G1 X495.92 Y166.92 E0.19467
G1 X495.92 Y186.92 E0.63203
G1 X494.08 Y186.92 E0.05815
G1 X494.08 Y166.92 E0.63203
G1 X487.92 Y166.92 E0.19467
G1 X487.92 Y186.92 E0.63203
G1 X486.08 Y186.92 E0.05815
G1 X486.08 Y166.92 E0.63203
G1 X479.92 Y166.92 E0.19467
G1 X479.92 Y186.92 E0.63203
G1 X478.08 Y186.92 E0.05815
G1 X478.08 Y166.92 E0.63203
G1 X471.92 Y166.92 E0.19467
G1 X471.92 Y186.92 E0.63203
G1 X470.08 Y186.92 E0.05815
G1 X470.08 Y166.92 E0.63203
G1 X463.92 Y166.92 E0.19467
G1 X463.92 Y186.92 E0.63203
G1 X462.08 Y186.92 E0.05815
G1 X462.08 Y166.92 E0.63203
G1 X455.92 Y166.92 E0.19467
G1 X455.92 Y186.92 E0.63203
G1 X454.08 Y186.92 E0.05815
G1 X454.08 Y166.92 E0.63203
G1 X447.92 Y166.92 E0.19467
G1 X447.92 Y186.92 E0.63203
G1 X446.08 Y186.92 E0.05815
G1 X446.08 Y165.08 E0.69018
G1 X607.92 Y165.08 E5.11442
G1 X607.92 Y186.92 E0.69018
G1 X606.08 Y186.92 E0.05815
G1 X606.08 Y166.92 E0.63203
G1 X599.92 Y166.92 E0.19467
G1 X599.92 Y186.92 E0.63203
G1 X598.08 Y186.92 E0.05815
G1 X598.08 Y166.92 E0.63203
G1 X591.92 Y166.92 E0.19467
G1 X591.92 Y186.92 E0.63203
G1 X590.08 Y186.92 E0.05815
G1 X590.08 Y166.92 E0.63203
G1 X583.92 Y166.92 E0.19467
G1 X583.92 Y186.92 E0.63203
G1 X582.08 Y186.92 E0.05815
G1 X582.08 Y166.92 E0.63203
G1 X575.92 Y166.92 E0.19467
G1 X575.92 Y186.92 E0.63203
G1 X574.08 Y186.92 E0.05815
G1 X574.08 Y166.92 E0.63203
G1 X567.92 Y166.92 E0.19467
G1 X567.92 Y186.92 E0.63203
G1 X566.08 Y186.92 E0.05815
G1 X566.08 Y166.92 E0.63203
G1 X559.92 Y166.92 E0.19467
G1 X559.92 Y186.92 E0.63203
G1 X558.08 Y186.92 E0.05815
G1 X558.08 Y166.92 E0.63203
G1 X551.92 Y166.92 E0.19467
G1 X551.92 Y186.92 E0.63203
G1 X550.08 Y186.92 E0.05815
G1 X550.08 Y166.92 E0.63203
G1 X543.92 Y166.92 E0.19467
G1 X543.92 Y186.92 E0.63203
G1 X542.08 Y186.92 E0.05815
G1 X542.08 Y166.92 E0.63203
G1 X535.92 Y166.92 E0.19467
G1 X535.92 Y186.92 E0.63203
G1 X534.08 Y186.92 E0.05815
G1 X534.08 Y166.92 E0.63203
G1 X527.92 Y166.92 E0.19467
G1 X527.92 Y186.92 E0.63203
G1 X526.08 Y186.92 E0.05815
G1 X526.08 Y166.92 E0.63203
G1 X519.92 Y166.92 E0.19467
G1 X519.92 Y186.92 E0.63203
G1 X518.08 Y186.92 E0.05815
G1 X518.08 Y166.92 E0.63203
G1 X511.92 Y166.92 E0.19467
G1 X511.92 Y186.92 E0.63203
G1 X510.08 Y186.92 E0.05815
G1 X510.08 Y166.92 E0.63203
G1 X503.92 Y166.92 E0.19467
G1 X503.92 Y186.92 E0.63203
G1 X502.08 Y186.92 E0.05815
G0 F6000 X501.4 Y187.6
;TYPE:WALL-OUTER
G1 F1200 X501.4 Y167.6 E0.63203
G1 X496.6 Y167.6 E0.15169
G1 X496.6 Y187.6 E0.63203
G1 X493.4 Y187.6 E0.10113
G1 X493.4 Y167.6 E0.63203
G1 X488.6 Y167.6 E0.15169
G1 X488.6 Y187.6 E0.63203
G1 X485.4 Y187.6 E0.10113
G1 X485.4 Y167.6 E0.63203
G1 X480.6 Y167.6 E0.15169
G1 X480.6 Y187.6 E0.63203
G1 X477.4 Y187.6 E0.10113
G1 X477.4 Y167.6 E0.63203
G1 X472.6 Y167.6 E0.15169
G1 X472.6 Y187.6 E0.63203
G1 X469.4 Y187.6 E0.10113
G1 X469.4 Y167.6 E0.63203
G1 X464.6 Y167.6 E0.15169
G1 X464.6 Y187.6 E0.63203
G1 X461.4 Y187.6 E0.10113
G1 X461.4 Y167.6 E0.63203
G1 X456.6 Y167.6 E0.15169
G1 X456.6 Y187.6 E0.63203
G1 X453.4 Y187.6 E0.10113
G1 X453.4 Y167.6 E0.63203
G1 X448.6 Y167.6 E0.15169
G1 X448.6 Y187.6 E0.63203
G1 X445.4 Y187.6 E0.10113
G1 X445.4 Y164.4 E0.73316
G1 X608.6 Y164.4 E5.1574
G1 X608.6 Y187.6 E0.73316
G1 X605.4 Y187.6 E0.10113
G1 X605.4 Y167.6 E0.63203
G1 X600.6 Y167.6 E0.15169
G1 X600.6 Y187.6 E0.63203
G1 X597.4 Y187.6 E0.10113
G1 X597.4 Y167.6 E0.63203
G1 X592.6 Y167.6 E0.15169
G1 X592.6 Y187.6 E0.63203
G1 X589.4 Y187.6 E0.10113
G1 X589.4 Y167.6 E0.63203
G1 X584.6 Y167.6 E0.15169
G1 X584.6 Y187.6 E0.63203
G1 X581.4 Y187.6 E0.10113
G1 X581.4 Y167.6 E0.63203
G1 X576.6 Y167.6 E0.15169
G1 X576.6 Y187.6 E0.63203
G1 X573.4 Y187.6 E0.10113
G1 X573.4 Y167.6 E0.63203
G1 X568.6 Y167.6 E0.15169
G1 X568.6 Y187.6 E0.63203
G1 X565.4 Y187.6 E0.10113
G1 X565.4 Y167.6 E0.63203
G1 X560.6 Y167.6 E0.15169
G1 X560.6 Y187.6 E0.63203
G1 X557.4 Y187.6 E0.10113
G1 X557.4 Y167.6 E0.63203
G1 X552.6 Y167.6 E0.15169
G1 X552.6 Y187.6 E0.63203
G1 X549.4 Y187.6 E0.10113
G1 X549.4 Y167.6 E0.63203
G1 X544.6 Y167.6 E0.15169
G1 X544.6 Y187.6 E0.63203
G1 X541.4 Y187.6 E0.10113
G1 X541.4 Y167.6 E0.63203
G1 X536.6 Y167.6 E0.15169
G1 X536.6 Y187.6 E0.63203
G1 X533.4 Y187.6 E0.10113
G1 X533.4 Y167.6 E0.63203
G1 X528.6 Y167.6 E0.15169
G1 X528.6 Y187.6 E0.63203
G1 X525.4 Y187.6 E0.10113
G1 X525.4 Y167.6 E0.63203
G1 X520.6 Y167.6 E0.15169
G1 X520.6 Y187.6 E0.63203
G1 X517.4 Y187.6 E0.10113
G1 X517.4 Y167.6 E0.63203
G1 X512.6 Y167.6 E0.15169
G1 X512.6 Y187.6 E0.63203
G1 X509.4 Y187.6 E0.10113
G1 X509.4 Y167.6 E0.63203
G1 X504.6 Y167.6 E0.15169
G1 X504.6 Y187.6 E0.63203
G1 X501.4 Y187.6 E0.10113
G0 F6000 X502.269 Y186.52
;TIME_ELAPSED:859.768914
G1 F2100 E-0.5
M140 S0
M141 S0
M82 ;absolute extrusion mode
G1 X5 Y5 F3000 ;Wipe out
G90 ;Absolute positionning
G1 Z10
T0
G1 X0 Y0 ;Present print
M106 S0 ;Turn-off fan
M104 T0 S0 ;Turn-off hotend
M104 T1 S0 ;Turn-off hotend
M140 S0 ;Turn-off bed
M84 X Y E ;Disable all steppers but Z
M98 P"endPrint.g"
M83 ;relative extrusion mode
M104 S0
;End of Gcode
