;FLAVOR:RepRap
;TIME:1416
;Filament used: 0.210498m, 0.263803m
;Layer height: 0.3
;MINX:374.3
;MINY:151.3
;MINZ:0.3
;MAXX:625.7
;MAXY:348.7
;MAXZ:1.6
;LINEARADVANCEPROCESSED
;Generated with Cura_SteamEngine 4.6.2
T0
M190 S50
M104 S210
M104 T1 S175
M109 S210
M109 T1 S175
M82 ;absolute extrusion mode
T0
M104 S200
M109 S200
M98 P"startPrint.g"
M82 ;absolute extrusion mode
G21 ;metric values
G90 ;absolute positioning
M83 ;set extruder to relative mode
M107 ;start with the fan off
M109 S200 B210 F1;activate auto temp min 180 max 210 scaling factor 1 (for PLA)
G28; Home Axis
G29 S1; Z-Probe the bed (requires Z-Probe!)
G1 Z5.0 F9000 ;move the head 5mm up for CYA clearance
G92 E0 ;zero the extruded length
M117 Cleaning...;Put Cleaning message on screen
G1 X-20 Y0 F4000 ; move half way along the front edge
G1 Z1 ; move nozzle close to bed
M109 S200 ; heat nozzle to 200 degC and wait until reached
G4 P1000 ; wait 10 seconds for nozzle length to stabilize
G1 E15 ; extrude 10 mm of filament
G1 Z15 F12000 E5 ; move 15 mm up, fast, while extruding 5mm
G92 E0 ; reset extruder
M117 Printing...;Put printing message on LCD screen
M141 S28
M83 ;relative extrusion mode
G1 F1500 E-0.7
;LAYER_COUNT:2
M572 S0.000000 D1 ;added by LinearAdvanceSettingPlugin
M572 S0.000000 D0 ;added by LinearAdvanceSettingPlugin
;LAYER:0
M107
G1 F300 Z1.2
G0 F4800 X411.138 Y153.736 Z1.2
;TYPE:SKIRT
G1 F300 Z0.3
G1 F1500 E0.7
G1 F600 X412.043 Y153.789 E0.02345
G1 X414.002 Y154.084 E0.05124
G1 X416.576 Y154.452 E0.06725
G1 X419.129 Y154.743 E0.06646
G1 X421.63 Y154.958 E0.06493
G1 X424.141 Y155.101 E0.06505
G1 X426.713 Y155.176 E0.06655
G1 X429.242 Y155.178 E0.06541
G1 X431.761 Y155.108 E0.06518
G1 X434.302 Y154.965 E0.06583
G1 X436.86 Y154.749 E0.0664
G1 X439.367 Y154.466 E0.06525
G1 X441.869 Y154.112 E0.06536
G1 X443.298 Y153.876 E0.03746
G1 X444.57 Y153.747 E0.03307
G1 X445.33 Y153.725 E0.01967
G1 X608.293 Y153.725 E4.21496
G1 X609.123 Y153.735 E0.02147
G1 X610.028 Y153.787 E0.02345
G1 X610.925 Y153.918 E0.02345
G1 X611.807 Y154.127 E0.02344
G1 X612.667 Y154.414 E0.02345
G1 X613.498 Y154.775 E0.02343
G1 X614.295 Y155.209 E0.02347
G1 X615.05 Y155.71 E0.02344
G1 X615.757 Y156.276 E0.02342
G1 X616.412 Y156.903 E0.02345
G1 X617.01 Y157.585 E0.02346
G1 X617.545 Y158.316 E0.02343
G1 X618.013 Y159.092 E0.02344
G1 X618.411 Y159.907 E0.02346
G1 X618.736 Y160.753 E0.02344
G1 X618.985 Y161.624 E0.02343
G1 X619.157 Y162.514 E0.02345
G1 X619.262 Y163.712 E0.0311
G1 X619.398 Y167.115 E0.08809
G1 X619.578 Y169.614 E0.0648
G1 X619.833 Y172.156 E0.06608
G1 X620.161 Y174.705 E0.06647
G1 X620.552 Y177.176 E0.06471
G1 X621.019 Y179.673 E0.0657
G1 X621.556 Y182.158 E0.06576
G1 X622.161 Y184.615 E0.06545
G1 X622.88 Y187.216 E0.0698
G1 X623.082 Y188.099 E0.02343
G1 X623.23 Y189.3 E0.0313
G1 X623.275 Y190.33 E0.02667
G1 X623.275 Y213.264 E0.59318
G1 X623.265 Y214.118 E0.02209
G1 X623.214 Y215.023 E0.02344
G1 X623.083 Y215.92 E0.02345
G1 X622.874 Y216.802 E0.02344
G1 X622.588 Y217.662 E0.02344
G1 X622.227 Y218.494 E0.02346
G1 X621.794 Y219.29 E0.02344
G1 X621.293 Y220.045 E0.02344
G1 X620.727 Y220.753 E0.02344
G1 X620.101 Y221.409 E0.02345
G1 X619.42 Y222.007 E0.02344
G1 X618.688 Y222.542 E0.02345
G1 X617.912 Y223.011 E0.02345
G1 X617.098 Y223.409 E0.02344
G1 X616.252 Y223.735 E0.02345
G1 X615.381 Y223.984 E0.02343
G1 X614.491 Y224.156 E0.02345
G1 X613.279 Y224.262 E0.03147
G1 X612.67 Y224.275 E0.01576
G1 X537.074 Y224.275 E1.95525
G1 X534.471 Y224.312 E0.06733
G1 X531.91 Y224.421 E0.0663
G1 X529.407 Y224.598 E0.0649
G1 X526.87 Y224.849 E0.06594
G1 X524.337 Y225.174 E0.06605
G1 X521.866 Y225.562 E0.06469
G1 X519.348 Y226.03 E0.06624
G1 X516.865 Y226.564 E0.06569
G1 X514.445 Y227.158 E0.06445
G1 X511.95 Y227.844 E0.06693
G1 X509.527 Y228.586 E0.06554
G1 X507.128 Y229.395 E0.06548
G1 X504.75 Y230.272 E0.06556
G1 X502.374 Y231.226 E0.06622
G1 X500.093 Y232.219 E0.06435
G1 X497.76 Y233.312 E0.06664
G1 X495.486 Y234.457 E0.06585
G1 X493.268 Y235.656 E0.06521
G1 X491.076 Y236.919 E0.06543
G1 X488.911 Y238.251 E0.06575
G1 X486.781 Y239.646 E0.06586
G1 X484.708 Y241.09 E0.06534
G1 X482.656 Y242.606 E0.06599
G1 X480.663 Y244.168 E0.06549
G1 X478.712 Y245.788 E0.06559
G1 X476.799 Y247.47 E0.06588
G1 X474.961 Y249.18 E0.06493
G1 X473.136 Y250.978 E0.06626
G1 X471.393 Y252.794 E0.0651
G1 X469.663 Y254.703 E0.06663
G1 X468.036 Y256.602 E0.06468
G1 X466.431 Y258.59 E0.06608
G1 X464.884 Y260.62 E0.06601
G1 X463.42 Y262.655 E0.06484
G1 X461.977 Y264.787 E0.06659
G1 X460.647 Y266.877 E0.06407
G1 X459.321 Y269.098 E0.0669
G1 X458.078 Y271.318 E0.06581
G1 X456.914 Y273.544 E0.06497
G1 X455.805 Y275.819 E0.06546
G1 X454.748 Y278.153 E0.06627
G1 X453.776 Y280.473 E0.06506
G1 X452.85 Y282.864 E0.06632
G1 X451.998 Y285.277 E0.06619
G1 X451.239 Y287.629 E0.06392
G1 X450.513 Y290.116 E0.06701
G1 X449.883 Y292.529 E0.0645
G1 X449.301 Y295.045 E0.06679
G1 X448.804 Y297.503 E0.06486
G1 X448.371 Y300.026 E0.06621
G1 X448.014 Y302.521 E0.06519
G1 X447.725 Y305.036 E0.06548
G1 X447.507 Y307.57 E0.06578
G1 X447.361 Y310.092 E0.06534
G1 X447.285 Y312.681 E0.06699
G1 X447.275 Y314.075 E0.03606
G1 X447.275 Y331.264 E0.44459
G1 X447.264 Y332.132 E0.02245
G1 X447.212 Y333.037 E0.02345
G1 X447.08 Y333.934 E0.02345
G1 X446.869 Y334.816 E0.02346
G1 X446.582 Y335.675 E0.02342
G1 X446.22 Y336.506 E0.02344
G1 X445.786 Y337.302 E0.02345
G1 X445.284 Y338.057 E0.02345
G1 X444.717 Y338.764 E0.02344
G1 X444.09 Y339.419 E0.02345
G1 X443.408 Y340.015 E0.02343
G1 X442.675 Y340.55 E0.02347
G1 X441.899 Y341.017 E0.02343
G1 X441.084 Y341.415 E0.02346
G1 X440.238 Y341.739 E0.02343
G1 X439.366 Y341.987 E0.02345
G1 X438.476 Y342.158 E0.02344
G1 X437.287 Y342.262 E0.03087
G1 X433.883 Y342.398 E0.08811
G1 X431.388 Y342.578 E0.0647
G1 X428.844 Y342.833 E0.06613
G1 X426.295 Y343.161 E0.06647
G1 X423.824 Y343.552 E0.06471
G1 X421.327 Y344.019 E0.0657
G1 X418.842 Y344.556 E0.06576
G1 X416.385 Y345.161 E0.06545
G1 X413.784 Y345.88 E0.0698
G1 X412.901 Y346.082 E0.02343
G1 X411.7 Y346.23 E0.0313
G1 X410.67 Y346.275 E0.02667
G1 X387.707 Y346.275 E0.59393
G1 X386.877 Y346.265 E0.02147
G1 X385.972 Y346.213 E0.02345
G1 X385.075 Y346.082 E0.02345
G1 X384.193 Y345.873 E0.02344
G1 X383.333 Y345.586 E0.02345
G1 X382.502 Y345.225 E0.02343
G1 X381.705 Y344.791 E0.02347
G1 X380.95 Y344.29 E0.02344
G1 X380.243 Y343.724 E0.02342
G1 X379.588 Y343.097 E0.02345
G1 X378.99 Y342.415 E0.02346
G1 X378.455 Y341.684 E0.02343
G1 X377.987 Y340.908 E0.02344
G1 X377.589 Y340.093 E0.02346
G1 X377.264 Y339.247 E0.02344
G1 X377.015 Y338.376 E0.02343
G1 X376.843 Y337.486 E0.02345
G1 X376.738 Y336.269 E0.03159
G1 X376.725 Y335.658 E0.01581
G1 X376.725 Y164.674 E4.42242
G1 X376.736 Y163.855 E0.02118
G1 X376.79 Y162.95 E0.02345
G1 X376.923 Y162.053 E0.02345
G1 X377.135 Y161.172 E0.02344
G1 X377.423 Y160.312 E0.02346
G1 X377.786 Y159.482 E0.02343
G1 X378.221 Y158.687 E0.02344
G1 X378.724 Y157.933 E0.02344
G1 X379.292 Y157.226 E0.02346
G1 X379.92 Y156.572 E0.02345
G1 X380.603 Y155.976 E0.02345
G1 X381.336 Y155.443 E0.02344
G1 X382.113 Y154.976 E0.02345
G1 X382.928 Y154.58 E0.02344
G1 X383.775 Y154.257 E0.02345
G1 X384.647 Y154.009 E0.02345
G1 X385.537 Y153.84 E0.02343
G1 X386.721 Y153.738 E0.03074
G1 X387.33 Y153.725 E0.01576
G1 X410.293 Y153.725 E0.59393
G1 X411.138 Y153.736 E0.02186
G0 F4800 X411.146 Y153.186
G1 F600 X412.075 Y153.239 E0.02407
G1 X414.107 Y153.544 E0.05315
G1 X416.648 Y153.907 E0.06639
G1 X419.163 Y154.194 E0.06547
G1 X421.677 Y154.41 E0.06526
G1 X424.188 Y154.553 E0.06505
G1 X426.694 Y154.626 E0.06484
G1 X429.227 Y154.628 E0.06551
G1 X431.75 Y154.558 E0.06528
G1 X434.259 Y154.417 E0.065
G1 X436.788 Y154.203 E0.06565
G1 X439.296 Y153.92 E0.06528
G1 X441.834 Y153.561 E0.0663
G1 X443.208 Y153.334 E0.03602
G1 X444.549 Y153.197 E0.03486
G1 X445.33 Y153.175 E0.02021
G1 X608.293 Y153.175 E4.21496
G1 X609.131 Y153.185 E0.02168
G1 X610.059 Y153.237 E0.02404
G1 X610.981 Y153.368 E0.02409
G1 X611.887 Y153.579 E0.02406
G1 X612.772 Y153.866 E0.02406
G1 X613.629 Y154.228 E0.02406
G1 X614.452 Y154.662 E0.02406
G1 X615.234 Y155.166 E0.02406
G1 X615.97 Y155.734 E0.02405
G1 X616.655 Y156.364 E0.02407
G1 X617.283 Y157.051 E0.02407
G1 X617.85 Y157.788 E0.02405
G1 X618.351 Y158.572 E0.02406
G1 X618.784 Y159.396 E0.02408
G1 X619.144 Y160.254 E0.02407
G1 X619.429 Y161.139 E0.02405
G1 X619.637 Y162.046 E0.02407
G1 X619.766 Y162.968 E0.02408
G1 X619.948 Y167.089 E0.10669
G1 X620.128 Y169.589 E0.06483
G1 X620.38 Y172.103 E0.06535
G1 X620.7 Y174.587 E0.06478
G1 X621.096 Y177.091 E0.06557
G1 X621.563 Y179.591 E0.06578
G1 X622.09 Y182.026 E0.06444
G1 X622.692 Y184.47 E0.0651
G1 X623.41 Y187.069 E0.06974
G1 X623.619 Y187.976 E0.02407
G1 X623.779 Y189.265 E0.0336
G1 X623.825 Y190.33 E0.02757
G1 X623.825 Y213.264 E0.59318
G1 X623.815 Y214.125 E0.02227
G1 X623.764 Y215.054 E0.02406
G1 X623.633 Y215.975 E0.02406
G1 X623.423 Y216.881 E0.02405
G1 X623.136 Y217.767 E0.02409
G1 X622.775 Y218.624 E0.02405
G1 X622.341 Y219.447 E0.02406
G1 X621.838 Y220.229 E0.02405
G1 X621.269 Y220.966 E0.02408
G1 X620.64 Y221.651 E0.02405
G1 X619.954 Y222.28 E0.02407
G1 X619.216 Y222.847 E0.02407
G1 X618.433 Y223.349 E0.02406
G1 X617.609 Y223.781 E0.02406
G1 X616.752 Y224.142 E0.02405
G1 X615.866 Y224.427 E0.02407
G1 X614.959 Y224.636 E0.02407
G1 X614.038 Y224.765 E0.02405
G1 X612.973 Y224.821 E0.02758
G1 X537.082 Y224.825 E1.96288
G1 X534.466 Y224.862 E0.06767
G1 X531.973 Y224.968 E0.06454
G1 X529.428 Y225.148 E0.06599
G1 X526.925 Y225.396 E0.06506
G1 X524.453 Y225.713 E0.06446
G1 X521.95 Y226.106 E0.06553
G1 X519.45 Y226.571 E0.06577
G1 X516.978 Y227.103 E0.0654
G1 X514.571 Y227.693 E0.0641
G1 X512.124 Y228.366 E0.06564
G1 X509.69 Y229.111 E0.06584
G1 X507.31 Y229.914 E0.06497
G1 X504.929 Y230.792 E0.06564
G1 X502.636 Y231.713 E0.06391
G1 X500.286 Y232.735 E0.06628
G1 X497.995 Y233.81 E0.06545
G1 X495.748 Y234.94 E0.06505
G1 X493.542 Y236.132 E0.06485
G1 X491.356 Y237.393 E0.06527
G1 X489.197 Y238.721 E0.06556
G1 X487.107 Y240.09 E0.06462
G1 X485.013 Y241.549 E0.06601
G1 X482.992 Y243.042 E0.06499
G1 X481.022 Y244.585 E0.06472
G1 X479.072 Y246.205 E0.06557
G1 X477.168 Y247.879 E0.06557
G1 X475.333 Y249.586 E0.06482
G1 X473.53 Y251.362 E0.06546
G1 X471.774 Y253.192 E0.0656
G1 X470.099 Y255.04 E0.06451
G1 X468.428 Y256.99 E0.06642
G1 X466.873 Y258.916 E0.06402
G1 X465.34 Y260.927 E0.0654
G1 X463.858 Y262.988 E0.06566
G1 X462.454 Y265.061 E0.06476
G1 X461.105 Y267.182 E0.06501
G1 X459.805 Y269.36 E0.0656
G1 X458.568 Y271.569 E0.06548
G1 X457.405 Y273.794 E0.06494
G1 X456.295 Y276.07 E0.0655
G1 X455.259 Y278.359 E0.06499
G1 X454.283 Y280.686 E0.06527
G1 X453.356 Y283.082 E0.06645
G1 X452.533 Y285.411 E0.06389
G1 X451.759 Y287.81 E0.0652
G1 X451.052 Y290.234 E0.06531
G1 X450.412 Y292.684 E0.06549
G1 X449.845 Y295.135 E0.06507
G1 X449.339 Y297.636 E0.066
G1 X448.918 Y300.089 E0.06437
G1 X448.56 Y302.589 E0.06532
G1 X448.271 Y305.113 E0.06571
G1 X448.055 Y307.612 E0.06488
G1 X447.909 Y310.14 E0.06549
G1 X447.835 Y312.655 E0.06508
G1 X447.825 Y314.079 E0.03683
G1 X447.825 Y331.264 E0.44448
G1 X447.814 Y332.14 E0.02266
G1 X447.761 Y333.069 E0.02407
G1 X447.629 Y333.99 E0.02406
G1 X447.418 Y334.896 E0.02406
G1 X447.13 Y335.781 E0.02407
G1 X446.767 Y336.637 E0.02405
G1 X446.332 Y337.46 E0.02408
G1 X445.828 Y338.242 E0.02406
G1 X445.259 Y338.977 E0.02404
G1 X444.628 Y339.662 E0.02409
G1 X443.941 Y340.289 E0.02406
G1 X443.203 Y340.855 E0.02406
G1 X442.419 Y341.356 E0.02406
G1 X441.595 Y341.788 E0.02406
G1 X440.737 Y342.147 E0.02406
G1 X439.851 Y342.431 E0.02406
G1 X438.944 Y342.638 E0.02406
G1 X438.022 Y342.767 E0.02408
G1 X433.912 Y342.948 E0.10641
G1 X431.411 Y343.128 E0.06485
G1 X428.897 Y343.38 E0.06535
G1 X426.413 Y343.7 E0.06478
G1 X423.909 Y344.096 E0.06557
G1 X421.409 Y344.563 E0.06578
G1 X418.974 Y345.09 E0.06444
G1 X416.53 Y345.692 E0.0651
G1 X413.931 Y346.41 E0.06974
G1 X413.024 Y346.619 E0.02407
G1 X411.735 Y346.779 E0.0336
G1 X410.67 Y346.825 E0.02757
G1 X387.707 Y346.825 E0.59393
G1 X386.869 Y346.815 E0.02168
G1 X385.941 Y346.763 E0.02404
G1 X385.019 Y346.632 E0.02409
G1 X384.113 Y346.421 E0.02406
G1 X383.228 Y346.134 E0.02406
G1 X382.371 Y345.772 E0.02406
G1 X381.548 Y345.338 E0.02406
G1 X380.766 Y344.834 E0.02406
G1 X380.03 Y344.266 E0.02405
G1 X379.345 Y343.636 E0.02407
G1 X378.717 Y342.949 E0.02407
G1 X378.15 Y342.212 E0.02405
G1 X377.649 Y341.428 E0.02406
G1 X377.216 Y340.604 E0.02408
G1 X376.856 Y339.746 E0.02407
G1 X376.571 Y338.861 E0.02405
G1 X376.363 Y337.954 E0.02407
G1 X376.234 Y337.032 E0.02408
G1 X376.179 Y335.95 E0.02802
G1 X376.175 Y164.674 E4.42997
G1 X376.186 Y163.846 E0.02142
G1 X376.24 Y162.917 E0.02407
G1 X376.374 Y161.997 E0.02405
G1 X376.586 Y161.091 E0.02407
G1 X376.875 Y160.206 E0.02408
G1 X377.239 Y159.35 E0.02406
G1 X377.675 Y158.528 E0.02407
G1 X378.18 Y157.747 E0.02406
G1 X378.75 Y157.012 E0.02406
G1 X379.382 Y156.329 E0.02407
G1 X380.069 Y155.702 E0.02406
G1 X380.808 Y155.137 E0.02406
G1 X381.593 Y154.637 E0.02407
G1 X382.418 Y154.206 E0.02407
G1 X383.276 Y153.848 E0.02405
G1 X384.163 Y153.565 E0.02408
G1 X385.07 Y153.359 E0.02406
G1 X385.992 Y153.232 E0.02407
G1 X387.026 Y153.179 E0.02678
G1 X410.293 Y153.175 E0.60179
G1 X411.146 Y153.186 E0.02206
G0 F4800 X411.154 Y152.636
G1 F600 X412.106 Y152.69 E0.02466
G1 X412.776 Y152.776 E0.01747
G1 X414.139 Y152.993 E0.0357
G1 X416.716 Y153.361 E0.06733
G1 X419.239 Y153.649 E0.06568
G1 X421.686 Y153.859 E0.06352
G1 X424.234 Y154.004 E0.06601
G1 X426.71 Y154.076 E0.06407
G1 X429.212 Y154.078 E0.06471
G1 X431.739 Y154.008 E0.06538
G1 X434.219 Y153.869 E0.06424
G1 X436.749 Y153.655 E0.06567
G1 X439.195 Y153.379 E0.06367
G1 X441.758 Y153.016 E0.06695
G1 X443.119 Y152.791 E0.03568
G1 X444.528 Y152.648 E0.03663
G1 X445.33 Y152.625 E0.02075
G1 X608.293 Y152.625 E4.21496
G1 X609.138 Y152.635 E0.02186
G1 X610.09 Y152.687 E0.02466
G1 X611.035 Y152.819 E0.02468
G1 X611.965 Y153.03 E0.02467
G1 X612.874 Y153.317 E0.02465
G1 X613.756 Y153.68 E0.02467
G1 X614.605 Y154.116 E0.02469
G1 X615.414 Y154.621 E0.02467
G1 X616.177 Y155.192 E0.02465
G1 X616.891 Y155.825 E0.02468
G1 X617.549 Y156.515 E0.02466
G1 X618.146 Y157.258 E0.02465
G1 X618.68 Y158.049 E0.02468
G1 X619.145 Y158.882 E0.02467
G1 X619.539 Y159.75 E0.02466
G1 X619.858 Y160.649 E0.02467
G1 X620.102 Y161.571 E0.02467
G1 X620.267 Y162.51 E0.02466
G1 X620.361 Y163.68 E0.03036
G1 X620.495 Y167.023 E0.08653
G1 X620.678 Y169.567 E0.06597
G1 X620.924 Y172.015 E0.06364
G1 X621.248 Y174.534 E0.06569
G1 X621.64 Y177.012 E0.06489
G1 X622.095 Y179.447 E0.06407
G1 X622.63 Y181.92 E0.06544
G1 X623.224 Y184.334 E0.0643
G1 X623.94 Y186.923 E0.06948
G1 X624.155 Y187.852 E0.02466
G1 X624.328 Y189.23 E0.03592
G1 X624.375 Y190.33 E0.02848
G1 X624.375 Y213.264 E0.59318
G1 X624.365 Y214.132 E0.02245
G1 X624.313 Y215.084 E0.02466
G1 X624.182 Y216.029 E0.02468
G1 X623.972 Y216.959 E0.02466
G1 X623.685 Y217.869 E0.02468
G1 X623.322 Y218.751 E0.02467
G1 X622.887 Y219.599 E0.02465
G1 X622.383 Y220.409 E0.02467
G1 X621.812 Y221.173 E0.02467
G1 X621.179 Y221.887 E0.02468
G1 X620.489 Y222.545 E0.02466
G1 X619.746 Y223.143 E0.02467
G1 X618.956 Y223.677 E0.02466
G1 X618.124 Y224.142 E0.02465
G1 X617.255 Y224.537 E0.02469
G1 X616.357 Y224.857 E0.02466
G1 X615.435 Y225.1 E0.02466
G1 X614.495 Y225.266 E0.02469
G1 X613.31 Y225.362 E0.03075
G1 X612.67 Y225.375 E0.01656
G1 X537.09 Y225.375 E1.95484
G1 X534.498 Y225.412 E0.06705
G1 X531.964 Y225.519 E0.0656
G1 X529.523 Y225.692 E0.06329
G1 X526.978 Y225.945 E0.06615
G1 X524.507 Y226.261 E0.06443
G1 X522.023 Y226.651 E0.06503
G1 X519.565 Y227.108 E0.06466
G1 X517.116 Y227.635 E0.06479
G1 X514.706 Y228.226 E0.06418
G1 X512.266 Y228.897 E0.06545
G1 X509.875 Y229.629 E0.06468
G1 X507.502 Y230.429 E0.06477
G1 X505.139 Y231.301 E0.06515
G1 X502.814 Y232.234 E0.0648
G1 X500.536 Y233.226 E0.06426
G1 X498.23 Y234.307 E0.06587
G1 X496.011 Y235.423 E0.06424
G1 X493.791 Y236.624 E0.06528
G1 X491.657 Y237.854 E0.06371
G1 X489.489 Y239.188 E0.06584
G1 X487.41 Y240.549 E0.06427
G1 X485.348 Y241.985 E0.06499
G1 X483.305 Y243.495 E0.06571
G1 X481.361 Y245.018 E0.06387
G1 X479.434 Y246.618 E0.06478
G1 X477.554 Y248.272 E0.06477
G1 X475.687 Y250.008 E0.06594
G1 X473.941 Y251.728 E0.06339
G1 X472.174 Y253.57 E0.06602
G1 X470.499 Y255.418 E0.06451
G1 X468.868 Y257.322 E0.06484
G1 X467.316 Y259.243 E0.06388
G1 X465.772 Y261.269 E0.06588
G1 X464.308 Y263.304 E0.06484
G1 X462.906 Y265.376 E0.06471
G1 X461.563 Y267.487 E0.06471
G1 X460.288 Y269.622 E0.06432
G1 X459.051 Y271.831 E0.06548
G1 X457.898 Y274.036 E0.06436
G1 X456.792 Y276.305 E0.06529
G1 X455.767 Y278.569 E0.06428
G1 X454.785 Y280.913 E0.06573
G1 X453.883 Y283.241 E0.06457
G1 X453.046 Y285.611 E0.06501
G1 X452.292 Y287.949 E0.06354
G1 X451.578 Y290.395 E0.0659
G1 X450.946 Y292.813 E0.06464
G1 X450.382 Y295.253 E0.06477
G1 X449.881 Y297.731 E0.06539
G1 X449.458 Y300.193 E0.06461
G1 X449.105 Y302.661 E0.06448
G1 X448.819 Y305.15 E0.0648
G1 X448.603 Y307.656 E0.06506
G1 X448.459 Y310.152 E0.06467
G1 X448.385 Y312.675 E0.06528
G1 X448.375 Y314.083 E0.03642
G1 X448.375 Y331.264 E0.44438
G1 X448.364 Y332.147 E0.02284
G1 X448.311 Y333.1 E0.02469
G1 X448.178 Y334.044 E0.02466
G1 X447.967 Y334.974 E0.02467
G1 X447.678 Y335.883 E0.02467
G1 X447.315 Y336.765 E0.02467
G1 X446.879 Y337.613 E0.02466
G1 X446.373 Y338.422 E0.02468
G1 X445.801 Y339.185 E0.02466
G1 X445.168 Y339.898 E0.02466
G1 X444.476 Y340.555 E0.02468
G1 X443.733 Y341.152 E0.02465
G1 X442.942 Y341.685 E0.02467
G1 X442.109 Y342.149 E0.02466
G1 X441.24 Y342.542 E0.02467
G1 X440.341 Y342.861 E0.02467
G1 X439.418 Y343.104 E0.02469
G1 X438.479 Y343.268 E0.02465
G1 X437.319 Y343.361 E0.0301
G1 X433.974 Y343.495 E0.08659
G1 X431.436 Y343.678 E0.06581
G1 X428.985 Y343.924 E0.06371
G1 X426.466 Y344.248 E0.06569
G1 X423.988 Y344.64 E0.06489
G1 X421.553 Y345.095 E0.06407
G1 X419.08 Y345.63 E0.06544
G1 X416.666 Y346.224 E0.0643
G1 X414.077 Y346.94 E0.06948
G1 X413.148 Y347.155 E0.02466
G1 X411.77 Y347.328 E0.03592
G1 X410.67 Y347.375 E0.02848
G1 X387.707 Y347.375 E0.59393
G1 X386.862 Y347.365 E0.02186
G1 X385.91 Y347.313 E0.02466
G1 X384.965 Y347.181 E0.02468
G1 X384.035 Y346.97 E0.02467
G1 X383.126 Y346.683 E0.02465
G1 X382.244 Y346.32 E0.02467
G1 X381.395 Y345.884 E0.02469
G1 X380.586 Y345.379 E0.02467
G1 X379.823 Y344.808 E0.02465
G1 X379.109 Y344.175 E0.02468
G1 X378.451 Y343.485 E0.02466
G1 X377.854 Y342.742 E0.02465
G1 X377.32 Y341.951 E0.02468
G1 X376.855 Y341.118 E0.02467
G1 X376.461 Y340.25 E0.02466
G1 X376.142 Y339.351 E0.02467
G1 X375.898 Y338.429 E0.02467
G1 X375.733 Y337.49 E0.02466
G1 X375.638 Y336.298 E0.03093
G1 X375.625 Y335.658 E0.01656
G1 X375.625 Y164.674 E4.42242
G1 X375.636 Y163.838 E0.02162
G1 X375.691 Y162.886 E0.02466
G1 X375.824 Y161.941 E0.02468
G1 X376.037 Y161.012 E0.02465
G1 X376.327 Y160.103 E0.02468
G1 X376.691 Y159.222 E0.02465
G1 X377.129 Y158.374 E0.02469
G1 X377.635 Y157.566 E0.02466
G1 X378.208 Y156.804 E0.02466
G1 X378.843 Y156.092 E0.02468
G1 X379.535 Y155.435 E0.02468
G1 X380.279 Y154.839 E0.02466
G1 X381.071 Y154.308 E0.02466
G1 X381.904 Y153.844 E0.02466
G1 X382.774 Y153.452 E0.02468
G1 X383.673 Y153.134 E0.02466
G1 X384.596 Y152.893 E0.02467
G1 X385.536 Y152.73 E0.02468
G1 X386.69 Y152.638 E0.02994
G1 X387.33 Y152.625 E0.01656
G1 X410.293 Y152.625 E0.59393
G1 X411.154 Y152.636 E0.02227
G0 F4800 X411.162 Y152.086
G1 F600 X412.137 Y152.14 E0.02526
G1 X412.862 Y152.233 E0.01891
G1 X414.243 Y152.452 E0.03617
G1 X416.782 Y152.815 E0.06634
G1 X419.276 Y153.1 E0.06493
G1 X421.728 Y153.311 E0.06365
G1 X424.247 Y153.454 E0.06526
G1 X426.727 Y153.526 E0.06417
G1 X429.232 Y153.528 E0.06479
G1 X431.693 Y153.46 E0.06368
G1 X434.178 Y153.32 E0.06438
G1 X436.679 Y153.109 E0.06492
G1 X439.159 Y152.829 E0.06455
G1 X441.632 Y152.479 E0.0646
G1 X443.029 Y152.248 E0.03662
G1 X443.998 Y152.129 E0.02525
G1 X444.864 Y152.084 E0.02243
G1 X608.293 Y152.075 E4.22701
G1 X609.145 Y152.085 E0.02204
G1 X610.12 Y152.138 E0.02526
G1 X611.087 Y152.27 E0.02524
G1 X612.041 Y152.481 E0.02527
G1 X612.974 Y152.769 E0.02526
G1 X613.88 Y153.132 E0.02524
G1 X614.754 Y153.569 E0.02527
G1 X615.589 Y154.075 E0.02525
G1 X616.379 Y154.649 E0.02526
G1 X617.12 Y155.284 E0.02524
G1 X617.807 Y155.979 E0.02528
G1 X618.434 Y156.727 E0.02524
G1 X618.999 Y157.524 E0.02527
G1 X619.496 Y158.365 E0.02527
G1 X619.922 Y159.243 E0.02524
G1 X620.276 Y160.154 E0.02528
G1 X620.553 Y161.09 E0.02525
G1 X620.753 Y162.046 E0.02526
G1 X620.874 Y163.015 E0.02526
G1 X621.046 Y167.031 E0.10397
G1 X621.222 Y169.471 E0.06327
G1 X621.475 Y171.993 E0.06556
G1 X621.792 Y174.45 E0.06408
G1 X622.178 Y176.898 E0.0641
G1 X622.641 Y179.372 E0.0651
G1 X623.161 Y181.773 E0.06354
G1 X623.757 Y184.197 E0.06456
G1 X624.47 Y186.776 E0.06921
G1 X624.691 Y187.727 E0.02525
G1 X624.834 Y188.693 E0.02526
G1 X624.901 Y189.572 E0.0228
G1 X624.925 Y190.33 E0.01962
G1 X624.925 Y213.264 E0.59318
G1 X624.915 Y214.139 E0.02263
G1 X624.863 Y215.114 E0.02525
G1 X624.731 Y216.081 E0.02524
G1 X624.521 Y217.035 E0.02527
G1 X624.233 Y217.968 E0.02526
G1 X623.87 Y218.875 E0.02527
G1 X623.434 Y219.748 E0.02524
G1 X622.928 Y220.584 E0.02527
G1 X622.355 Y221.374 E0.02524
G1 X621.72 Y222.116 E0.02526
G1 X621.026 Y222.803 E0.02526
G1 X620.278 Y223.431 E0.02526
G1 X619.481 Y223.995 E0.02525
G1 X618.641 Y224.493 E0.02526
G1 X617.762 Y224.92 E0.02528
G1 X616.852 Y225.274 E0.02525
G1 X615.916 Y225.552 E0.02525
G1 X614.961 Y225.752 E0.02524
G1 X613.992 Y225.874 E0.02526
G1 X613.004 Y225.92 E0.02558
G1 X537.098 Y225.925 E1.96327
G1 X534.493 Y225.962 E0.06738
G1 X532.027 Y226.067 E0.06384
G1 X529.544 Y226.243 E0.06438
G1 X527.068 Y226.488 E0.06435
G1 X524.555 Y226.81 E0.06553
G1 X522.141 Y227.189 E0.0632
G1 X519.674 Y227.648 E0.0649
G1 X517.255 Y228.168 E0.064
G1 X514.841 Y228.76 E0.06429
G1 X512.399 Y229.431 E0.0655
G1 X510.027 Y230.158 E0.06417
G1 X507.694 Y230.945 E0.06368
G1 X505.33 Y231.817 E0.06517
G1 X503.035 Y232.738 E0.06396
G1 X500.759 Y233.729 E0.06421
G1 X498.493 Y234.791 E0.06473
G1 X496.261 Y235.914 E0.06462
G1 X494.066 Y237.1 E0.06453
G1 X491.906 Y238.346 E0.0645
G1 X489.79 Y239.648 E0.06426
G1 X487.713 Y241.008 E0.06421
G1 X485.676 Y242.426 E0.06419
G1 X483.641 Y243.93 E0.06545
G1 X481.717 Y245.438 E0.06323
G1 X479.779 Y247.047 E0.06515
G1 X477.901 Y248.698 E0.06468
G1 X476.094 Y250.38 E0.06385
G1 X474.3 Y252.147 E0.06513
G1 X472.605 Y253.914 E0.06333
G1 X470.92 Y255.773 E0.06489
G1 X469.277 Y257.689 E0.06528
G1 X467.742 Y259.592 E0.06324
G1 X466.215 Y261.594 E0.06512
G1 X464.769 Y263.604 E0.06404
G1 X463.362 Y265.682 E0.06491
G1 X462.031 Y267.775 E0.06415
G1 X460.772 Y269.884 E0.06353
G1 X459.527 Y272.109 E0.06595
G1 X458.384 Y274.294 E0.06378
G1 X457.296 Y276.527 E0.06425
G1 X456.264 Y278.804 E0.06466
G1 X455.299 Y281.107 E0.06458
G1 X454.393 Y283.448 E0.06493
G1 X453.581 Y285.745 E0.06301
G1 X452.812 Y288.13 E0.06481
G1 X452.107 Y290.546 E0.06509
G1 X451.474 Y292.967 E0.06472
G1 X450.925 Y295.343 E0.06307
G1 X450.422 Y297.832 E0.06568
G1 X450.005 Y300.257 E0.06364
G1 X449.646 Y302.764 E0.0655
G1 X449.368 Y305.188 E0.06311
G1 X449.152 Y307.701 E0.06524
G1 X449.009 Y310.165 E0.06384
G1 X448.935 Y312.695 E0.06547
G1 X448.925 Y314.087 E0.036
G1 X448.925 Y331.264 E0.44427
G1 X448.914 Y332.155 E0.02305
G1 X448.86 Y333.13 E0.02526
G1 X448.727 Y334.098 E0.02527
G1 X448.516 Y335.051 E0.02525
G1 X448.227 Y335.984 E0.02526
G1 X447.862 Y336.89 E0.02526
G1 X447.425 Y337.763 E0.02525
G1 X446.918 Y338.597 E0.02524
G1 X446.344 Y339.387 E0.02526
G1 X445.708 Y340.128 E0.02526
G1 X445.013 Y340.814 E0.02526
G1 X444.264 Y341.441 E0.02526
G1 X443.466 Y342.004 E0.02526
G1 X442.625 Y342.501 E0.02527
G1 X441.746 Y342.926 E0.02525
G1 X440.836 Y343.279 E0.02525
G1 X439.899 Y343.556 E0.02527
G1 X438.943 Y343.755 E0.02526
G1 X437.974 Y343.875 E0.02525
G1 X433.968 Y344.046 E0.10371
G1 X431.529 Y344.222 E0.06325
G1 X429.007 Y344.475 E0.06556
G1 X426.55 Y344.792 E0.06408
G1 X424.102 Y345.178 E0.0641
G1 X421.628 Y345.641 E0.0651
G1 X419.227 Y346.161 E0.06354
G1 X416.803 Y346.757 E0.06456
G1 X414.224 Y347.47 E0.06921
G1 X413.273 Y347.691 E0.02525
G1 X412.307 Y347.834 E0.02526
G1 X411.428 Y347.901 E0.0228
G1 X410.67 Y347.925 E0.01962
G1 X387.707 Y347.925 E0.59393
G1 X386.855 Y347.915 E0.02204
G1 X385.88 Y347.862 E0.02526
G1 X384.913 Y347.73 E0.02524
G1 X383.959 Y347.519 E0.02527
G1 X383.026 Y347.231 E0.02526
G1 X382.12 Y346.868 E0.02524
G1 X381.246 Y346.431 E0.02527
G1 X380.411 Y345.925 E0.02525
G1 X379.621 Y345.351 E0.02526
G1 X378.88 Y344.716 E0.02524
G1 X378.193 Y344.021 E0.02528
G1 X377.566 Y343.273 E0.02524
G1 X377.001 Y342.476 E0.02527
G1 X376.504 Y341.635 E0.02527
G1 X376.078 Y340.757 E0.02524
G1 X375.724 Y339.846 E0.02528
G1 X375.447 Y338.91 E0.02525
G1 X375.247 Y337.954 E0.02526
G1 X375.126 Y336.985 E0.02526
G1 X375.079 Y335.98 E0.02602
G1 X375.075 Y164.674 E4.43075
G1 X375.086 Y163.83 E0.02183
G1 X375.141 Y162.855 E0.02526
G1 X375.275 Y161.887 E0.02528
G1 X375.488 Y160.934 E0.02526
G1 X375.778 Y160.002 E0.02525
G1 X376.144 Y159.096 E0.02527
G1 X376.582 Y158.224 E0.02524
G1 X377.091 Y157.39 E0.02527
G1 X377.665 Y156.601 E0.02524
G1 X378.303 Y155.861 E0.02527
G1 X378.999 Y155.176 E0.02526
G1 X379.748 Y154.55 E0.02525
G1 X380.547 Y153.988 E0.02527
G1 X381.388 Y153.492 E0.02525
G1 X382.268 Y153.068 E0.02526
G1 X383.179 Y152.716 E0.02526
G1 X384.116 Y152.441 E0.02526
G1 X385.072 Y152.243 E0.02525
G1 X386.041 Y152.123 E0.02525
G1 X386.995 Y152.08 E0.0247
G1 X410.293 Y152.075 E0.60259
G1 X411.162 Y152.086 E0.02248
G1 F1500 E-0.7
G1 F300 Z1.2
;MESH:CalibrationMultiExtruder1
G0 F4800 X387.825 Y164.825 Z1.2
;TYPE:WALL-INNER
G1 F300 Z0.3
G1 F1500 E0.7
G1 F600 X410.175 Y164.825 E0.57807
G1 X410.175 Y167.175 E0.06078
G1 X390.175 Y167.175 E0.51729
G1 X390.175 Y173.225 E0.15648
G1 X410.175 Y173.225 E0.51729
G1 X410.175 Y175.575 E0.06078
G1 X390.175 Y175.575 E0.51729
G1 X390.175 Y181.625 E0.15648
G1 X410.175 Y181.625 E0.51729
G1 X410.175 Y183.975 E0.06078
G1 X390.175 Y183.975 E0.51729
G1 X390.175 Y190.025 E0.15648
G1 X410.175 Y190.025 E0.51729
G1 X410.175 Y192.375 E0.06078
G1 X390.175 Y192.375 E0.51729
G1 X390.175 Y198.425 E0.15648
G1 X410.175 Y198.425 E0.51729
G1 X410.175 Y200.775 E0.06078
G1 X390.175 Y200.775 E0.51729
G1 X390.175 Y206.825 E0.15648
G1 X410.175 Y206.825 E0.51729
G1 X410.175 Y209.175 E0.06078
G1 X390.175 Y209.175 E0.51729
G1 X390.175 Y215.225 E0.15648
G1 X410.175 Y215.225 E0.51729
G1 X410.175 Y217.575 E0.06078
G1 X390.175 Y217.575 E0.51729
G1 X390.175 Y223.625 E0.15648
G1 X410.175 Y223.625 E0.51729
G1 X410.175 Y225.975 E0.06078
G1 X390.175 Y225.975 E0.51729
G1 X390.175 Y232.025 E0.15648
G1 X410.175 Y232.025 E0.51729
G1 X410.175 Y234.375 E0.06078
G1 X390.175 Y234.375 E0.51729
G1 X390.175 Y240.425 E0.15648
G1 X410.175 Y240.425 E0.51729
G1 X410.175 Y242.775 E0.06078
G1 X390.175 Y242.775 E0.51729
G1 X390.175 Y248.825 E0.15648
G1 X410.175 Y248.825 E0.51729
G1 X410.175 Y251.175 E0.06078
G1 X390.175 Y251.175 E0.51729
G1 X390.175 Y257.225 E0.15648
G1 X410.175 Y257.225 E0.51729
G1 X410.175 Y259.575 E0.06078
G1 X390.175 Y259.575 E0.51729
G1 X390.175 Y265.625 E0.15648
G1 X410.175 Y265.625 E0.51729
G1 X410.175 Y267.975 E0.06078
G1 X390.175 Y267.975 E0.51729
G1 X390.175 Y274.025 E0.15648
G1 X410.175 Y274.025 E0.51729
G1 X410.175 Y276.375 E0.06078
G1 X390.175 Y276.375 E0.51729
G1 X390.175 Y282.425 E0.15648
G1 X410.175 Y282.425 E0.51729
G1 X410.175 Y284.775 E0.06078
G1 X390.175 Y284.775 E0.51729
G1 X390.175 Y290.825 E0.15648
G1 X410.175 Y290.825 E0.51729
G1 X410.175 Y293.175 E0.06078
G1 X390.175 Y293.175 E0.51729
G1 X390.175 Y299.225 E0.15648
G1 X410.175 Y299.225 E0.51729
G1 X410.175 Y301.575 E0.06078
G1 X390.175 Y301.575 E0.51729
G1 X390.175 Y307.625 E0.15648
G1 X410.175 Y307.625 E0.51729
G1 X410.175 Y309.975 E0.06078
G1 X390.175 Y309.975 E0.51729
G1 X390.175 Y316.025 E0.15648
G1 X410.175 Y316.025 E0.51729
G1 X410.175 Y318.375 E0.06078
G1 X390.175 Y318.375 E0.51729
G1 X390.175 Y324.425 E0.15648
G1 X410.175 Y324.425 E0.51729
G1 X410.175 Y326.775 E0.06078
G1 X390.175 Y326.775 E0.51729
G1 X390.175 Y332.825 E0.15648
G1 X410.175 Y332.825 E0.51729
G1 X410.175 Y335.175 E0.06078
G1 X387.825 Y335.175 E0.57807
G1 X387.825 Y164.825 E4.40602
G0 F4800 X387.3 Y164.3
;TYPE:WALL-OUTER
G1 F600 X410.7 Y164.3 E0.60523
G1 X410.7 Y167.7 E0.08794
G1 X390.7 Y167.7 E0.51729
G1 X390.7 Y172.7 E0.12932
G1 X410.7 Y172.7 E0.51729
G1 X410.7 Y176.1 E0.08794
G1 X390.7 Y176.1 E0.51729
G1 X390.7 Y181.1 E0.12932
G1 X410.7 Y181.1 E0.51729
G1 X410.7 Y184.5 E0.08794
G1 X390.7 Y184.5 E0.51729
G1 X390.7 Y189.5 E0.12932
G1 X410.7 Y189.5 E0.51729
G1 X410.7 Y192.9 E0.08794
G1 X390.7 Y192.9 E0.51729
G1 X390.7 Y197.9 E0.12932
G1 X410.7 Y197.9 E0.51729
G1 X410.7 Y201.3 E0.08794
G1 X390.7 Y201.3 E0.51729
G1 X390.7 Y206.3 E0.12932
G1 X410.7 Y206.3 E0.51729
G1 X410.7 Y209.7 E0.08794
G1 X390.7 Y209.7 E0.51729
G1 X390.7 Y214.7 E0.12932
G1 X410.7 Y214.7 E0.51729
G1 X410.7 Y218.1 E0.08794
G1 X390.7 Y218.1 E0.51729
G1 X390.7 Y223.1 E0.12932
G1 X410.7 Y223.1 E0.51729
G1 X410.7 Y226.5 E0.08794
G1 X390.7 Y226.5 E0.51729
G1 X390.7 Y231.5 E0.12932
G1 X410.7 Y231.5 E0.51729
G1 X410.7 Y234.9 E0.08794
G1 X390.7 Y234.9 E0.51729
G1 X390.7 Y239.9 E0.12932
G1 X410.7 Y239.9 E0.51729
G1 X410.7 Y243.3 E0.08794
G1 X390.7 Y243.3 E0.51729
G1 X390.7 Y248.3 E0.12932
G1 X410.7 Y248.3 E0.51729
G1 X410.7 Y251.7 E0.08794
G1 X390.7 Y251.7 E0.51729
G1 X390.7 Y256.7 E0.12932
G1 X410.7 Y256.7 E0.51729
G1 X410.7 Y260.1 E0.08794
G1 X390.7 Y260.1 E0.51729
G1 X390.7 Y265.1 E0.12932
G1 X410.7 Y265.1 E0.51729
G1 X410.7 Y268.5 E0.08794
G1 X390.7 Y268.5 E0.51729
G1 X390.7 Y273.5 E0.12932
G1 X410.7 Y273.5 E0.51729
G1 X410.7 Y276.9 E0.08794
G1 X390.7 Y276.9 E0.51729
G1 X390.7 Y281.9 E0.12932
G1 X410.7 Y281.9 E0.51729
G1 X410.7 Y285.3 E0.08794
G1 X390.7 Y285.3 E0.51729
G1 X390.7 Y290.3 E0.12932
G1 X410.7 Y290.3 E0.51729
G1 X410.7 Y293.7 E0.08794
G1 X390.7 Y293.7 E0.51729
G1 X390.7 Y298.7 E0.12932
G1 X410.7 Y298.7 E0.51729
G1 X410.7 Y302.1 E0.08794
G1 X390.7 Y302.1 E0.51729
G1 X390.7 Y307.1 E0.12932
G1 X410.7 Y307.1 E0.51729
G1 X410.7 Y310.5 E0.08794
G1 X390.7 Y310.5 E0.51729
G1 X390.7 Y315.5 E0.12932
G1 X410.7 Y315.5 E0.51729
G1 X410.7 Y318.9 E0.08794
G1 X390.7 Y318.9 E0.51729
G1 X390.7 Y323.9 E0.12932
G1 X410.7 Y323.9 E0.51729
G1 X410.7 Y327.3 E0.08794
G1 X390.7 Y327.3 E0.51729
G1 X390.7 Y332.3 E0.12932
G1 X410.7 Y332.3 E0.51729
G1 X410.7 Y335.7 E0.08794
G1 X387.3 Y335.7 E0.60523
G1 X387.3 Y164.3 E4.43318
G1 F1500 E-0.7
G1 F300 Z1.2
G0 F4800 X441.825 Y190.825 Z1.2
;TYPE:WALL-INNER
G1 F300 Z0.3
G1 F1500 E0.7
G1 F600 X444.175 Y190.825 E0.06078
G1 X444.175 Y210.825 E0.51729
G1 X450.225 Y210.825 E0.15648
G1 X450.225 Y190.825 E0.51729
G1 X452.575 Y190.825 E0.06078
G1 X452.575 Y210.825 E0.51729
G1 X458.625 Y210.825 E0.15648
G1 X458.625 Y190.825 E0.51729
G1 X460.975 Y190.825 E0.06078
G1 X460.975 Y210.825 E0.51729
G1 X467.025 Y210.825 E0.15648
G1 X467.025 Y190.825 E0.51729
G1 X469.375 Y190.825 E0.06078
G1 X469.375 Y210.825 E0.51729
G1 X475.425 Y210.825 E0.15648
G1 X475.425 Y190.825 E0.51729
G1 X477.775 Y190.825 E0.06078
G1 X477.775 Y210.825 E0.51729
G1 X483.825 Y210.825 E0.15648
G1 X483.825 Y190.825 E0.51729
G1 X486.175 Y190.825 E0.06078
G1 X486.175 Y210.825 E0.51729
G1 X492.225 Y210.825 E0.15648
G1 X492.225 Y190.825 E0.51729
G1 X494.575 Y190.825 E0.06078
G1 X494.575 Y210.825 E0.51729
G1 X500.625 Y210.825 E0.15648
G1 X500.625 Y190.825 E0.51729
G1 X502.975 Y190.825 E0.06078
G1 X502.975 Y210.825 E0.51729
G1 X509.025 Y210.825 E0.15648
G1 X509.025 Y190.825 E0.51729
G1 X511.375 Y190.825 E0.06078
G1 X511.375 Y210.825 E0.51729
G1 X517.425 Y210.825 E0.15648
G1 X517.425 Y190.825 E0.51729
G1 X519.775 Y190.825 E0.06078
G1 X519.775 Y210.825 E0.51729
G1 X525.825 Y210.825 E0.15648
G1 X525.825 Y190.825 E0.51729
G1 X528.175 Y190.825 E0.06078
G1 X528.175 Y210.825 E0.51729
G1 X534.225 Y210.825 E0.15648
G1 X534.225 Y190.825 E0.51729
G1 X536.575 Y190.825 E0.06078
G1 X536.575 Y210.825 E0.51729
G1 X542.625 Y210.825 E0.15648
G1 X542.625 Y190.825 E0.51729
G1 X544.975 Y190.825 E0.06078
G1 X544.975 Y210.825 E0.51729
G1 X551.025 Y210.825 E0.15648
G1 X551.025 Y190.825 E0.51729
G1 X553.375 Y190.825 E0.06078
G1 X553.375 Y210.825 E0.51729
G1 X559.425 Y210.825 E0.15648
G1 X559.425 Y190.825 E0.51729
G1 X561.775 Y190.825 E0.06078
G1 X561.775 Y210.825 E0.51729
G1 X567.825 Y210.825 E0.15648
G1 X567.825 Y190.825 E0.51729
G1 X570.175 Y190.825 E0.06078
G1 X570.175 Y210.825 E0.51729
G1 X576.225 Y210.825 E0.15648
G1 X576.225 Y190.825 E0.51729
G1 X578.575 Y190.825 E0.06078
G1 X578.575 Y210.825 E0.51729
G1 X584.625 Y210.825 E0.15648
G1 X584.625 Y190.825 E0.51729
G1 X586.975 Y190.825 E0.06078
G1 X586.975 Y210.825 E0.51729
G1 X593.025 Y210.825 E0.15648
G1 X593.025 Y190.825 E0.51729
G1 X595.375 Y190.825 E0.06078
G1 X595.375 Y210.825 E0.51729
G1 X601.425 Y210.825 E0.15648
G1 X601.425 Y190.825 E0.51729
G1 X603.775 Y190.825 E0.06078
G1 X603.775 Y210.825 E0.51729
G1 X609.825 Y210.825 E0.15648
G1 X609.825 Y190.825 E0.51729
G1 X612.175 Y190.825 E0.06078
G1 X612.175 Y213.175 E0.57807
G1 X441.825 Y213.175 E4.40602
G1 X441.825 Y190.825 E0.57807
G0 F4800 X441.3 Y190.3
M104 T1 S200
;TYPE:WALL-OUTER
G1 F600 X444.7 Y190.3 E0.08794
G1 X444.7 Y210.3 E0.51729
G1 X449.7 Y210.3 E0.12932
G1 X449.7 Y190.3 E0.51729
G1 X453.1 Y190.3 E0.08794
G1 X453.1 Y210.3 E0.51729
G1 X458.1 Y210.3 E0.12932
G1 X458.1 Y190.3 E0.51729
G1 X461.5 Y190.3 E0.08794
G1 X461.5 Y210.3 E0.51729
G1 X466.5 Y210.3 E0.12932
G1 X466.5 Y190.3 E0.51729
G1 X469.9 Y190.3 E0.08794
G1 X469.9 Y210.3 E0.51729
G1 X474.9 Y210.3 E0.12932
G1 X474.9 Y190.3 E0.51729
G1 X478.3 Y190.3 E0.08794
G1 X478.3 Y210.3 E0.51729
G1 X483.3 Y210.3 E0.12932
G1 X483.3 Y190.3 E0.51729
G1 X486.7 Y190.3 E0.08794
G1 X486.7 Y210.3 E0.51729
G1 X491.7 Y210.3 E0.12932
G1 X491.7 Y190.3 E0.51729
G1 X495.1 Y190.3 E0.08794
G1 X495.1 Y210.3 E0.51729
G1 X500.1 Y210.3 E0.12932
G1 X500.1 Y190.3 E0.51729
G1 X503.5 Y190.3 E0.08794
G1 X503.5 Y210.3 E0.51729
G1 X508.5 Y210.3 E0.12932
G1 X508.5 Y190.3 E0.51729
G1 X511.9 Y190.3 E0.08794
G1 X511.9 Y210.3 E0.51729
G1 X516.9 Y210.3 E0.12932
G1 X516.9 Y190.3 E0.51729
G1 X520.3 Y190.3 E0.08794
G1 X520.3 Y210.3 E0.51729
G1 X525.3 Y210.3 E0.12932
G1 X525.3 Y190.3 E0.51729
G1 X528.7 Y190.3 E0.08794
G1 X528.7 Y210.3 E0.51729
G1 X533.7 Y210.3 E0.12932
G1 X533.7 Y190.3 E0.51729
G1 X537.1 Y190.3 E0.08794
G1 X537.1 Y210.3 E0.51729
G1 X542.1 Y210.3 E0.12932
G1 X542.1 Y190.3 E0.51729
G1 X545.5 Y190.3 E0.08794
G1 X545.5 Y210.3 E0.51729
G1 X550.5 Y210.3 E0.12932
G1 X550.5 Y190.3 E0.51729
G1 X553.9 Y190.3 E0.08794
G1 X553.9 Y210.3 E0.51729
G1 X558.9 Y210.3 E0.12932
G1 X558.9 Y190.3 E0.51729
G1 X562.3 Y190.3 E0.08794
G1 X562.3 Y210.3 E0.51729
G1 X567.3 Y210.3 E0.12932
G1 X567.3 Y190.3 E0.51729
G1 X570.7 Y190.3 E0.08794
G1 X570.7 Y210.3 E0.51729
G1 X575.7 Y210.3 E0.12932
G1 X575.7 Y190.3 E0.51729
G1 X579.1 Y190.3 E0.08794
G1 X579.1 Y210.3 E0.51729
G1 X584.1 Y210.3 E0.12932
G1 X584.1 Y190.3 E0.51729
G1 X587.5 Y190.3 E0.08794
G1 X587.5 Y210.3 E0.51729
G1 X592.5 Y210.3 E0.12932
G1 X592.5 Y190.3 E0.51729
G1 X595.9 Y190.3 E0.08794
G1 X595.9 Y210.3 E0.51729
G1 X600.9 Y210.3 E0.12932
G1 X600.9 Y190.3 E0.51729
G1 X604.3 Y190.3 E0.08794
G1 X604.3 Y210.3 E0.51729
G1 X609.3 Y210.3 E0.12932
G1 X609.3 Y190.3 E0.51729
G1 X612.7 Y190.3 E0.08794
G1 X612.7 Y213.7 E0.60523
G1 X441.3 Y213.7 E4.43318
G1 X441.3 Y190.3 E0.60523
G1 F1200 E-4
G1 F300 Z1.2
T1
M109 S200
M104 T0 S175
M107 P2
G1 F2100 E-0.5
;MESH:CalibrationMultiExtruder1(1)
G0 F4800 X441.3 Y190.3 Z1.2
G1 F300 Z1.2
G0 F4800 X436.597 Y152.338
;TYPE:SKIRT
G1 F300 Z0.3
G1 F2100 E0.5
G1 F600 X439.068 Y152.059 E0.11694
G1 X441.531 Y151.71 E0.11698
G1 X442.903 Y151.484 E0.06539
G1 X443.903 Y151.359 E0.04739
G1 X444.834 Y151.31 E0.04384
G1 X608.293 Y151.3 E7.68689
G1 X609.155 Y151.31 E0.04054
G1 X610.161 Y151.363 E0.04737
G1 X611.16 Y151.496 E0.04739
G1 X612.145 Y151.707 E0.04737
G1 X613.111 Y151.996 E0.04742
G1 X614.051 Y152.36 E0.0474
G1 X614.958 Y152.798 E0.04737
G1 X615.828 Y153.307 E0.0474
G1 X616.655 Y153.882 E0.04737
G1 X617.434 Y154.522 E0.04741
G1 X618.16 Y155.221 E0.04739
G1 X618.828 Y155.976 E0.04741
G1 X619.434 Y156.781 E0.04738
G1 X619.974 Y157.632 E0.0474
G1 X620.445 Y158.523 E0.04739
G1 X620.844 Y159.448 E0.04737
G1 X621.168 Y160.403 E0.04742
G1 X621.416 Y161.379 E0.04736
G1 X621.585 Y162.373 E0.04742
G1 X621.686 Y163.642 E0.05987
G1 X621.819 Y166.976 E0.15691
G1 X621.995 Y169.411 E0.11481
G1 X622.243 Y171.887 E0.11702
G1 X622.559 Y174.335 E0.11608
G1 X622.945 Y176.78 E0.1164
G1 X623.398 Y179.204 E0.11597
G1 X623.917 Y181.603 E0.11543
G1 X624.512 Y184.019 E0.11701
G1 X625.217 Y186.57 E0.12446
G1 X625.447 Y187.551 E0.04738
G1 X625.598 Y188.547 E0.04737
G1 X625.674 Y189.523 E0.04604
G1 X625.7 Y190.33 E0.03797
G1 X625.7 Y213.264 E1.0785
G1 X625.69 Y214.148 E0.04157
G1 X625.638 Y215.155 E0.04742
G1 X625.506 Y216.154 E0.04739
G1 X625.295 Y217.139 E0.04737
G1 X625.006 Y218.105 E0.04742
G1 X624.642 Y219.045 E0.0474
G1 X624.205 Y219.952 E0.04735
G1 X623.697 Y220.823 E0.04742
G1 X623.122 Y221.65 E0.04737
G1 X622.482 Y222.429 E0.04741
G1 X621.783 Y223.155 E0.04739
G1 X621.029 Y223.824 E0.0474
G1 X620.224 Y224.43 E0.04738
G1 X619.374 Y224.971 E0.04738
G1 X618.483 Y225.442 E0.04739
G1 X617.558 Y225.842 E0.04739
G1 X616.604 Y226.166 E0.04738
G1 X615.627 Y226.414 E0.0474
G1 X614.634 Y226.584 E0.04738
G1 X613.347 Y226.686 E0.06071
G1 X612.67 Y226.7 E0.03184
G1 X537.109 Y226.7 E3.55336
G1 X534.537 Y226.736 E0.12096
G1 X532.042 Y226.842 E0.11744
G1 X529.604 Y227.015 E0.11494
G1 X527.138 Y227.26 E0.11654
G1 X524.703 Y227.571 E0.11544
G1 X522.258 Y227.955 E0.11639
G1 X519.84 Y228.405 E0.11566
G1 X517.398 Y228.93 E0.11746
G1 X515.043 Y229.508 E0.11403
G1 X512.618 Y230.174 E0.11826
G1 X510.299 Y230.885 E0.11406
G1 X507.923 Y231.686 E0.11791
G1 X505.611 Y232.539 E0.11589
G1 X503.345 Y233.449 E0.11483
G1 X501.049 Y234.448 E0.11775
G1 X498.838 Y235.484 E0.11482
G1 X496.604 Y236.608 E0.1176
G1 X494.461 Y237.767 E0.11457
G1 X492.311 Y239.007 E0.11672
G1 X490.216 Y240.296 E0.11567
G1 X488.142 Y241.653 E0.11655
G1 X486.109 Y243.07 E0.11654
G1 X484.126 Y244.535 E0.11594
G1 X482.197 Y246.046 E0.11523
G1 X480.294 Y247.627 E0.11635
G1 X478.431 Y249.265 E0.11666
G1 X476.617 Y250.952 E0.11649
G1 X474.873 Y252.67 E0.11512
G1 X473.157 Y254.458 E0.11654
G1 X471.481 Y256.308 E0.11739
G1 X469.887 Y258.168 E0.11519
G1 X468.345 Y260.078 E0.11544
G1 X466.845 Y262.046 E0.11637
G1 X465.4 Y264.054 E0.11634
G1 X464.014 Y266.103 E0.11633
G1 X462.705 Y268.159 E0.11462
G1 X461.419 Y270.315 E0.11806
G1 X460.219 Y272.458 E0.1155
G1 X459.075 Y274.646 E0.11611
G1 X457.998 Y276.855 E0.11557
G1 X456.978 Y279.106 E0.11622
G1 X456.018 Y281.399 E0.1169
G1 X455.118 Y283.721 E0.11711
G1 X454.307 Y286.018 E0.11455
G1 X453.547 Y288.373 E0.11637
G1 X452.864 Y290.714 E0.11468
G1 X452.234 Y293.125 E0.11719
G1 X451.669 Y295.568 E0.11792
G1 X451.189 Y297.945 E0.11404
G1 X450.768 Y300.393 E0.11681
G1 X450.416 Y302.852 E0.11682
G1 X450.139 Y305.272 E0.11455
G1 X449.926 Y307.74 E0.11649
G1 X449.784 Y310.197 E0.11574
G1 X449.71 Y312.724 E0.11889
G1 X449.7 Y314.092 E0.06433
G1 X449.7 Y331.264 E0.80754
G1 X449.689 Y332.166 E0.04242
G1 X449.635 Y333.172 E0.04738
G1 X449.502 Y334.171 E0.04739
G1 X449.289 Y335.156 E0.04739
G1 X449 Y336.121 E0.04737
G1 X448.634 Y337.061 E0.04744
G1 X448.196 Y337.968 E0.04737
G1 X447.687 Y338.838 E0.0474
G1 X447.11 Y339.664 E0.04738
G1 X446.47 Y340.442 E0.04738
G1 X445.77 Y341.167 E0.04739
G1 X445.015 Y341.835 E0.04741
G1 X444.209 Y342.44 E0.04739
G1 X443.358 Y342.979 E0.04737
G1 X442.466 Y343.45 E0.04744
G1 X441.54 Y343.848 E0.0474
G1 X440.586 Y344.171 E0.04736
G1 X439.609 Y344.418 E0.04739
G1 X438.615 Y344.587 E0.04742
G1 X437.357 Y344.686 E0.05934
G1 X434.025 Y344.819 E0.15682
G1 X431.589 Y344.995 E0.11485
G1 X429.113 Y345.243 E0.11702
G1 X426.665 Y345.559 E0.11608
G1 X424.22 Y345.945 E0.1164
G1 X421.796 Y346.398 E0.11597
G1 X419.397 Y346.917 E0.11543
G1 X416.981 Y347.512 E0.11701
G1 X414.43 Y348.217 E0.12446
G1 X413.449 Y348.447 E0.04738
G1 X412.453 Y348.598 E0.04737
G1 X411.477 Y348.674 E0.04604
G1 X410.67 Y348.7 E0.03797
G1 X387.707 Y348.7 E1.07987
G1 X386.845 Y348.69 E0.04054
G1 X385.839 Y348.637 E0.04737
G1 X384.84 Y348.504 E0.04739
G1 X383.855 Y348.293 E0.04737
G1 X382.889 Y348.004 E0.04742
G1 X381.949 Y347.64 E0.0474
G1 X381.042 Y347.202 E0.04737
G1 X380.172 Y346.693 E0.0474
G1 X379.345 Y346.118 E0.04737
G1 X378.566 Y345.478 E0.04741
G1 X377.84 Y344.779 E0.04739
G1 X377.172 Y344.024 E0.04741
G1 X376.566 Y343.219 E0.04738
G1 X376.026 Y342.368 E0.0474
G1 X375.555 Y341.477 E0.04739
G1 X375.156 Y340.552 E0.04737
G1 X374.832 Y339.597 E0.04742
G1 X374.584 Y338.621 E0.04736
G1 X374.415 Y337.627 E0.04742
G1 X374.314 Y336.334 E0.06099
G1 X374.3 Y335.658 E0.0318
G1 X374.3 Y164.674 E8.04076
G1 X374.311 Y163.818 E0.04026
G1 X374.367 Y162.812 E0.04738
G1 X374.501 Y161.813 E0.0474
G1 X374.715 Y160.828 E0.0474
G1 X375.006 Y159.863 E0.0474
G1 X375.372 Y158.925 E0.04735
G1 X375.812 Y158.018 E0.04741
G1 X376.322 Y157.149 E0.04738
G1 X376.9 Y156.323 E0.04741
G1 X377.541 Y155.546 E0.04737
G1 X378.242 Y154.821 E0.04743
G1 X378.998 Y154.155 E0.04738
G1 X379.805 Y153.551 E0.0474
G1 X380.657 Y153.012 E0.04741
G1 X381.548 Y152.543 E0.04735
G1 X382.475 Y152.146 E0.04742
G1 X383.43 Y151.824 E0.04739
G1 X384.407 Y151.579 E0.04737
G1 X385.401 Y151.411 E0.04741
G1 X386.653 Y151.314 E0.05905
G1 X387.33 Y151.3 E0.03184
G1 X410.293 Y151.3 E1.07987
G1 X411.173 Y151.311 E0.04139
G1 X412.179 Y151.366 E0.04738
G1 X412.984 Y151.467 E0.03815
G1 X414.41 Y151.694 E0.0679
G1 X416.875 Y152.046 E0.1171
G1 X419.36 Y152.329 E0.11762
G1 X421.803 Y152.539 E0.11531
G1 X424.242 Y152.678 E0.11488
G1 X426.749 Y152.751 E0.11795
G1 X429.212 Y152.753 E0.11583
G1 X431.664 Y152.685 E0.11535
G1 X434.14 Y152.546 E0.11662
G1 X436.597 Y152.338 E0.11596
G1 F2100 E-0.5
G1 F300 Z1.3
G0 F4800 X435.5 Y330.5 Z1.3
;TYPE:WALL-INNER
G1 F300 Z0.3
G1 F2100 E0.5
G1 F600 X414.5 Y330.5 E0.98755
G1 X414.5 Y329.5 E0.04703
G1 X434.5 Y329.5 E0.94053
G1 X434.5 Y322.5 E0.32918
G1 X414.5 Y322.5 E0.94053
G1 X414.5 Y321.5 E0.04703
G1 X434.5 Y321.5 E0.94053
G1 X434.5 Y314.5 E0.32918
G1 X414.5 Y314.5 E0.94053
G1 X414.5 Y313.5 E0.04703
G1 X434.5 Y313.5 E0.94053
G1 X434.5 Y306.5 E0.32918
G1 X414.5 Y306.5 E0.94053
G1 X414.5 Y305.5 E0.04703
G1 X434.5 Y305.5 E0.94053
G1 X434.5 Y298.5 E0.32918
G1 X414.5 Y298.5 E0.94053
G1 X414.5 Y297.5 E0.04703
G1 X434.5 Y297.5 E0.94053
G1 X434.5 Y290.5 E0.32918
G1 X414.5 Y290.5 E0.94053
G1 X414.5 Y289.5 E0.04703
G1 X434.5 Y289.5 E0.94053
G1 X434.5 Y282.5 E0.32918
G1 X414.5 Y282.5 E0.94053
G1 X414.5 Y281.5 E0.04703
G1 X434.5 Y281.5 E0.94053
G1 X434.5 Y274.5 E0.32918
G1 X414.5 Y274.5 E0.94053
G1 X414.5 Y273.5 E0.04703
G1 X434.5 Y273.5 E0.94053
G1 X434.5 Y266.5 E0.32918
G1 X414.5 Y266.5 E0.94053
G1 X414.5 Y265.5 E0.04703
G1 X434.5 Y265.5 E0.94053
G1 X434.5 Y258.5 E0.32918
G1 X414.5 Y258.5 E0.94053
G1 X414.5 Y257.5 E0.04703
G1 X434.5 Y257.5 E0.94053
G1 X434.5 Y250.5 E0.32918
G1 X414.5 Y250.5 E0.94053
G1 X414.5 Y249.5 E0.04703
G1 X434.5 Y249.5 E0.94053
G1 X434.5 Y242.5 E0.32918
G1 X414.5 Y242.5 E0.94053
G1 X414.5 Y241.5 E0.04703
G1 X434.5 Y241.5 E0.94053
G1 X434.5 Y234.5 E0.32918
G1 X414.5 Y234.5 E0.94053
G1 X414.5 Y233.5 E0.04703
G1 X434.5 Y233.5 E0.94053
G1 X434.5 Y226.5 E0.32918
G1 X414.5 Y226.5 E0.94053
G1 X414.5 Y225.5 E0.04703
G1 X434.5 Y225.5 E0.94053
G1 X434.5 Y218.5 E0.32918
G1 X414.5 Y218.5 E0.94053
G1 X414.5 Y217.5 E0.04703
G1 X434.5 Y217.5 E0.94053
G1 X434.5 Y210.5 E0.32918
G1 X414.5 Y210.5 E0.94053
G1 X414.5 Y209.5 E0.04703
G1 X434.5 Y209.5 E0.94053
G1 X434.5 Y202.5 E0.32918
G1 X414.5 Y202.5 E0.94053
G1 X414.5 Y201.5 E0.04703
G1 X434.5 Y201.5 E0.94053
G1 X434.5 Y194.5 E0.32918
G1 X414.5 Y194.5 E0.94053
G1 X414.5 Y193.5 E0.04703
G1 X434.5 Y193.5 E0.94053
G1 X434.5 Y186.5 E0.32918
G1 X414.5 Y186.5 E0.94053
G1 X414.5 Y185.5 E0.04703
G1 X434.5 Y185.5 E0.94053
G1 X434.5 Y178.5 E0.32918
G1 X414.5 Y178.5 E0.94053
G1 X414.5 Y177.5 E0.04703
G1 X434.5 Y177.5 E0.94053
G1 X434.5 Y170.5 E0.32918
G1 X414.5 Y170.5 E0.94053
G1 X414.5 Y169.5 E0.04703
G1 X435.5 Y169.5 E0.98755
G1 X435.5 Y330.5 E7.57125
G0 F4800 X436.5 Y331.5
;TYPE:WALL-OUTER
G1 F600 X413.5 Y331.5 E1.08161
G1 X413.5 Y328.5 E0.14108
G1 X433.5 Y328.5 E0.94053
G1 X433.5 Y323.5 E0.23513
G1 X413.5 Y323.5 E0.94053
G1 X413.5 Y320.5 E0.14108
G1 X433.5 Y320.5 E0.94053
G1 X433.5 Y315.5 E0.23513
G1 X413.5 Y315.5 E0.94053
G1 X413.5 Y312.5 E0.14108
G1 X433.5 Y312.5 E0.94053
G1 X433.5 Y307.5 E0.23513
G1 X413.5 Y307.5 E0.94053
G1 X413.5 Y304.5 E0.14108
G1 X433.5 Y304.5 E0.94053
G1 X433.5 Y299.5 E0.23513
G1 X413.5 Y299.5 E0.94053
G1 X413.5 Y296.5 E0.14108
G1 X433.5 Y296.5 E0.94053
G1 X433.5 Y291.5 E0.23513
G1 X413.5 Y291.5 E0.94053
G1 X413.5 Y288.5 E0.14108
G1 X433.5 Y288.5 E0.94053
G1 X433.5 Y283.5 E0.23513
G1 X413.5 Y283.5 E0.94053
G1 X413.5 Y280.5 E0.14108
G1 X433.5 Y280.5 E0.94053
G1 X433.5 Y275.5 E0.23513
G1 X413.5 Y275.5 E0.94053
G1 X413.5 Y272.5 E0.14108
G1 X433.5 Y272.5 E0.94053
G1 X433.5 Y267.5 E0.23513
G1 X413.5 Y267.5 E0.94053
G1 X413.5 Y264.5 E0.14108
G1 X433.5 Y264.5 E0.94053
G1 X433.5 Y259.5 E0.23513
G1 X413.5 Y259.5 E0.94053
G1 X413.5 Y256.5 E0.14108
G1 X433.5 Y256.5 E0.94053
G1 X433.5 Y251.5 E0.23513
G1 X413.5 Y251.5 E0.94053
G1 X413.5 Y248.5 E0.14108
G1 X433.5 Y248.5 E0.94053
G1 X433.5 Y243.5 E0.23513
G1 X413.5 Y243.5 E0.94053
G1 X413.5 Y240.5 E0.14108
G1 X433.5 Y240.5 E0.94053
G1 X433.5 Y235.5 E0.23513
G1 X413.5 Y235.5 E0.94053
G1 X413.5 Y232.5 E0.14108
G1 X433.5 Y232.5 E0.94053
G1 X433.5 Y227.5 E0.23513
G1 X413.5 Y227.5 E0.94053
G1 X413.5 Y224.5 E0.14108
G1 X433.5 Y224.5 E0.94053
G1 X433.5 Y219.5 E0.23513
G1 X413.5 Y219.5 E0.94053
G1 X413.5 Y216.5 E0.14108
G1 X433.5 Y216.5 E0.94053
G1 X433.5 Y211.5 E0.23513
G1 X413.5 Y211.5 E0.94053
G1 X413.5 Y208.5 E0.14108
G1 X433.5 Y208.5 E0.94053
G1 X433.5 Y203.5 E0.23513
G1 X413.5 Y203.5 E0.94053
G1 X413.5 Y200.5 E0.14108
G1 X433.5 Y200.5 E0.94053
G1 X433.5 Y195.5 E0.23513
G1 X413.5 Y195.5 E0.94053
G1 X413.5 Y192.5 E0.14108
G1 X433.5 Y192.5 E0.94053
G1 X433.5 Y187.5 E0.23513
G1 X413.5 Y187.5 E0.94053
G1 X413.5 Y184.5 E0.14108
G1 X433.5 Y184.5 E0.94053
G1 X433.5 Y179.5 E0.23513
G1 X413.5 Y179.5 E0.94053
G1 X413.5 Y176.5 E0.14108
G1 X433.5 Y176.5 E0.94053
G1 X433.5 Y171.5 E0.23513
G1 X413.5 Y171.5 E0.94053
G1 X413.5 Y168.5 E0.14108
G1 X436.5 Y168.5 E1.08161
G1 X436.5 Y331.5 E7.6653
G1 F2100 E-0.5
G1 F300 Z1.3
G0 F4800 X502.5 Y186.5 Z1.3
;TYPE:WALL-INNER
G1 F300 Z0.3
G1 F2100 E0.5
G1 F600 X502.5 Y166.5 E0.94053
G1 X495.5 Y166.5 E0.32918
G1 X495.5 Y186.5 E0.94053
G1 X494.5 Y186.5 E0.04703
G1 X494.5 Y166.5 E0.94053
G1 X487.5 Y166.5 E0.32918
G1 X487.5 Y186.5 E0.94053
G1 X486.5 Y186.5 E0.04703
G1 X486.5 Y166.5 E0.94053
G1 X479.5 Y166.5 E0.32918
G1 X479.5 Y186.5 E0.94053
G1 X478.5 Y186.5 E0.04703
G1 X478.5 Y166.5 E0.94053
G1 X471.5 Y166.5 E0.32918
G1 X471.5 Y186.5 E0.94053
G1 X470.5 Y186.5 E0.04703
G1 X470.5 Y166.5 E0.94053
G1 X463.5 Y166.5 E0.32918
G1 X463.5 Y186.5 E0.94053
G1 X462.5 Y186.5 E0.04703
G1 X462.5 Y166.5 E0.94053
G1 X455.5 Y166.5 E0.32918
G1 X455.5 Y186.5 E0.94053
G1 X454.5 Y186.5 E0.04703
G1 X454.5 Y166.5 E0.94053
G1 X447.5 Y166.5 E0.32918
G1 X447.5 Y186.5 E0.94053
G1 X446.5 Y186.5 E0.04703
G1 X446.5 Y165.5 E0.98755
G1 X607.5 Y165.5 E7.57125
G1 X607.5 Y186.5 E0.98755
G1 X606.5 Y186.5 E0.04703
G1 X606.5 Y166.5 E0.94053
G1 X599.5 Y166.5 E0.32918
G1 X599.5 Y186.5 E0.94053
G1 X598.5 Y186.5 E0.04703
G1 X598.5 Y166.5 E0.94053
G1 X591.5 Y166.5 E0.32918
G1 X591.5 Y186.5 E0.94053
G1 X590.5 Y186.5 E0.04703
G1 X590.5 Y166.5 E0.94053
G1 X583.5 Y166.5 E0.32918
G1 X583.5 Y186.5 E0.94053
G1 X582.5 Y186.5 E0.04703
G1 X582.5 Y166.5 E0.94053
G1 X575.5 Y166.5 E0.32918
G1 X575.5 Y186.5 E0.94053
G1 X574.5 Y186.5 E0.04703
G1 X574.5 Y166.5 E0.94053
G1 X567.5 Y166.5 E0.32918
G1 X567.5 Y186.5 E0.94053
G1 X566.5 Y186.5 E0.04703
G1 X566.5 Y166.5 E0.94053
G1 X559.5 Y166.5 E0.32918
G1 X559.5 Y186.5 E0.94053
G1 X558.5 Y186.5 E0.04703
G1 X558.5 Y166.5 E0.94053
G1 X551.5 Y166.5 E0.32918
G1 X551.5 Y186.5 E0.94053
G1 X550.5 Y186.5 E0.04703
G1 X550.5 Y166.5 E0.94053
G1 X543.5 Y166.5 E0.32918
G1 X543.5 Y186.5 E0.94053
G1 X542.5 Y186.5 E0.04703
G1 X542.5 Y166.5 E0.94053
G1 X535.5 Y166.5 E0.32918
G1 X535.5 Y186.5 E0.94053
G1 X534.5 Y186.5 E0.04703
G1 X534.5 Y166.5 E0.94053
G1 X527.5 Y166.5 E0.32918
G1 X527.5 Y186.5 E0.94053
G1 X526.5 Y186.5 E0.04703
G1 X526.5 Y166.5 E0.94053
G1 X519.5 Y166.5 E0.32918
G1 X519.5 Y186.5 E0.94053
G1 X518.5 Y186.5 E0.04703
G1 X518.5 Y166.5 E0.94053
G1 X511.5 Y166.5 E0.32918
G1 X511.5 Y186.5 E0.94053
G1 X510.5 Y186.5 E0.04703
G1 X510.5 Y166.5 E0.94053
G1 X503.5 Y166.5 E0.32918
G1 X503.5 Y186.5 E0.94053
G1 X502.5 Y186.5 E0.04703
G0 F4800 X501.5 Y187.5
M104 T0 S210
;TYPE:WALL-OUTER
G1 F600 X501.5 Y167.5 E0.94053
G1 X496.5 Y167.5 E0.23513
G1 X496.5 Y187.5 E0.94053
G1 X493.5 Y187.5 E0.14108
G1 X493.5 Y167.5 E0.94053
G1 X488.5 Y167.5 E0.23513
G1 X488.5 Y187.5 E0.94053
G1 X485.5 Y187.5 E0.14108
G1 X485.5 Y167.5 E0.94053
G1 X480.5 Y167.5 E0.23513
G1 X480.5 Y187.5 E0.94053
G1 X477.5 Y187.5 E0.14108
G1 X477.5 Y167.5 E0.94053
G1 X472.5 Y167.5 E0.23513
G1 X472.5 Y187.5 E0.94053
G1 X469.5 Y187.5 E0.14108
G1 X469.5 Y167.5 E0.94053
G1 X464.5 Y167.5 E0.23513
G1 X464.5 Y187.5 E0.94053
G1 X461.5 Y187.5 E0.14108
G1 X461.5 Y167.5 E0.94053
G1 X456.5 Y167.5 E0.23513
G1 X456.5 Y187.5 E0.94053
G1 X453.5 Y187.5 E0.14108
G1 X453.5 Y167.5 E0.94053
G1 X448.5 Y167.5 E0.23513
G1 X448.5 Y187.5 E0.94053
G1 X445.5 Y187.5 E0.14108
G1 X445.5 Y164.5 E1.08161
G1 X608.5 Y164.5 E7.6653
G1 X608.5 Y187.5 E1.08161
G1 X605.5 Y187.5 E0.14108
G1 X605.5 Y167.5 E0.94053
G1 X600.5 Y167.5 E0.23513
G1 X600.5 Y187.5 E0.94053
G1 X597.5 Y187.5 E0.14108
G1 X597.5 Y167.5 E0.94053
G1 X592.5 Y167.5 E0.23513
G1 X592.5 Y187.5 E0.94053
G1 X589.5 Y187.5 E0.14108
G1 X589.5 Y167.5 E0.94053
G1 X584.5 Y167.5 E0.23513
G1 X584.5 Y187.5 E0.94053
G1 X581.5 Y187.5 E0.14108
G1 X581.5 Y167.5 E0.94053
G1 X576.5 Y167.5 E0.23513
G1 X576.5 Y187.5 E0.94053
G1 X573.5 Y187.5 E0.14108
G1 X573.5 Y167.5 E0.94053
G1 X568.5 Y167.5 E0.23513
G1 X568.5 Y187.5 E0.94053
G1 X565.5 Y187.5 E0.14108
G1 X565.5 Y167.5 E0.94053
G1 X560.5 Y167.5 E0.23513
G1 X560.5 Y187.5 E0.94053
G1 X557.5 Y187.5 E0.14108
G1 X557.5 Y167.5 E0.94053
G1 X552.5 Y167.5 E0.23513
G1 X552.5 Y187.5 E0.94053
G1 X549.5 Y187.5 E0.14108
G1 X549.5 Y167.5 E0.94053
G1 X544.5 Y167.5 E0.23513
G1 X544.5 Y187.5 E0.94053
G1 X541.5 Y187.5 E0.14108
G1 X541.5 Y167.5 E0.94053
G1 X536.5 Y167.5 E0.23513
G1 X536.5 Y187.5 E0.94053
G1 X533.5 Y187.5 E0.14108
G1 X533.5 Y167.5 E0.94053
G1 X528.5 Y167.5 E0.23513
G1 X528.5 Y187.5 E0.94053
G1 X525.5 Y187.5 E0.14108
G1 X525.5 Y167.5 E0.94053
G1 X520.5 Y167.5 E0.23513
G1 X520.5 Y187.5 E0.94053
G1 X517.5 Y187.5 E0.14108
G1 X517.5 Y167.5 E0.94053
G1 X512.5 Y167.5 E0.23513
G1 X512.5 Y187.5 E0.94053
G1 X509.5 Y187.5 E0.14108
G1 X509.5 Y167.5 E0.94053
G1 X504.5 Y167.5 E0.23513
G1 X504.5 Y187.5 E0.94053
G1 X501.5 Y187.5 E0.14108
G1 F2100 E-0.5
G1 F300 Z1.3
;MESH:NONMESH
G0 F4800 X435.5 Y250.5 Z1.3
;TIME_ELAPSED:1386.581316
;LAYER:1
M140 S50
M106 S127.5 P2
;MESH:CalibrationMultiExtruder1(1)
G0 F7800 X435.5 Y250.5 Z1.6
;TYPE:WALL-INNER
G1 F300 Z0.6
G1 F2100 E0.5
G1 F1050 X424.5 Y250.5 E0.51729
G1 X424.5 Y249.5 E0.04703
G1 X435.5 Y249.5 E0.51729
G1 X435.5 Y250.5 E0.04703
G0 F7800 X436.5 Y251.5
;TYPE:WALL-OUTER
G1 F1050 X423.5 Y251.5 E0.61134
G1 X423.5 Y248.5 E0.14108
G1 X436.5 Y248.5 E0.61134
G1 X436.5 Y251.5 E0.14108
G1 F2100 E-0.5
G1 F300 Z1.6
G0 F7800 X526.5 Y176.5 Z1.6
;TYPE:WALL-INNER
G1 F300 Z0.6
G1 F2100 E0.5
G1 F1050 X526.5 Y165.5 E0.51729
G1 X527.5 Y165.5 E0.04703
G1 X527.5 Y176.5 E0.51729
G1 X526.5 Y176.5 E0.04703
G0 F7800 X525.5 Y177.5
;TYPE:WALL-OUTER
G1 F1050 X525.5 Y164.5 E0.61134
G1 X528.5 Y164.5 E0.14108
G1 X528.5 Y177.5 E0.61134
G1 X525.5 Y177.5 E0.14108
G1 F1200 E-4
G1 F300 Z1.5
T0
M109 S210
M104 T1 S0
M106 S127.5
G1 F1200 E3.3
;MESH:CalibrationMultiExtruder1
G0 F7800 X525.5 Y177.5 Z1.5
G1 F300 Z1.5
G0 F7800 X387.825 Y248.825
;TYPE:WALL-INNER
G1 F300 Z0.6
G1 F1500 E0.7
G1 F993 X400.175 Y248.825 E0.31943
G1 X400.175 Y251.175 E0.06078
G1 X387.825 Y251.175 E0.31943
G1 X387.825 Y248.825 E0.06078
G0 F7800 X387.3 Y248.3
;TYPE:WALL-OUTER
G1 F993 X400.7 Y248.3 E0.34658
G1 X400.7 Y251.7 E0.08794
G1 X387.3 Y251.7 E0.34658
G1 X387.3 Y248.3 E0.08794
G1 F1500 E-0.7
G1 F300 Z1.5
G0 F7800 X525.825 Y200.825 Z1.5
;TYPE:WALL-INNER
G1 F300 Z0.6
G1 F1500 E0.7
G1 F993 X528.175 Y200.825 E0.06078
G1 X528.175 Y213.175 E0.31943
G1 X525.825 Y213.175 E0.06078
G1 X525.825 Y200.825 E0.31943
G0 F7800 X525.3 Y200.3
;TYPE:WALL-OUTER
G1 F993 X528.7 Y200.3 E0.08794
G1 X528.7 Y213.7 E0.34658
G1 X525.3 Y213.7 E0.08794
G1 X525.3 Y200.3 E0.34658
;TIME_ELAPSED:1416.113935
G1 F1500 E-0.7
M140 S0
M141 S0
M82 ;absolute extrusion mode
M107
G1 X5 Y5 F3000 ;Wipe out
G90 ;Absolute positionning
G1 Z10
T0
G1 X0 Y0 ;Present print
M106 S0 ;Turn-off fan
M104 T0 S0 ;Turn-off hotend
M104 T1 S0 ;Turn-off hotend
M140 S0 ;Turn-off bed
M84 X Y E ;Disable all steppers but Z
M98 P"endPrint.g"
M83 ;relative extrusion mode
M104 S0
;End of Gcode
;SETTING_3 {"global_quality": "[general]\\nversion = 4\\nname = Setting XY CAL\\
;SETTING_3 ndefinition = fabbrix_elemento_v2\\n\\n[metadata]\\nquality_type = st
;SETTING_3 andard\\nsetting_version = 14\\ntype = quality_changes\\n\\n[values]\
;SETTING_3 \nadhesion_type = skirt\\nlayer_height_0 = 0.3\\nmaterial_bed_tempera
;SETTING_3 ture = 50\\nmaterial_bed_temperature_layer_0 = 50\\nprime_tower_enabl
;SETTING_3 e = False\\nprime_tower_position_x = 60\\nprime_tower_position_y = 30
;SETTING_3 \\nretraction_combing = off\\n\\n", "extruder_quality": ["[general]\\
;SETTING_3 nversion = 4\\nname = Setting XY CAL\\ndefinition = fabbrix_elemento_
;SETTING_3 v2\\n\\n[metadata]\\nintent_category = default\\nquality_type = stand
;SETTING_3 ard\\nposition = 0\\nsetting_version = 14\\ntype = quality_changes\\n
;SETTING_3 \\n[values]\\nbottom_layers = 0\\ninfill_sparse_density = 0\\nmateria
;SETTING_3 l_print_temperature = 210\\nmultiple_mesh_overlap = 0.0\\nprime_tower
;SETTING_3 _flow = 120\\nprime_tower_min_volume = 12\\nretraction_amount = 0.7\\
;SETTING_3 nretraction_hop = 0.9\\nretraction_hop_after_extruder_switch_height =
;SETTING_3  0.9\\nretraction_hop_enabled = True\\nskirt_line_count = 4\\nspeed_l
;SETTING_3 ayer_0 = 10\\nspeed_travel = 180\\nswitch_extruder_retraction_amount 
;SETTING_3 = 4\\ntop_layers = 0\\nwall_line_count = 2\\nz_seam_corner = z_seam_c
;SETTING_3 orner_outer\\nz_seam_position = frontleft\\nz_seam_relative = True\\n
;SETTING_3 zig_zaggify_infill = True\\n\\n", "[general]\\nversion = 4\\nname = S
;SETTING_3 etting XY CAL\\ndefinition = fabbrix_elemento_v2\\n\\n[metadata]\\nin
;SETTING_3 tent_category = default\\nquality_type = standard\\nposition = 1\\nse
;SETTING_3 tting_version = 14\\ntype = quality_changes\\n\\n[values]\\nbottom_la
;SETTING_3 yers = 0\\ninfill_sparse_density = 0\\ninitial_bottom_layers = 0\\nre
;SETTING_3 traction_amount = 0.5\\nretraction_hop = 1\\nretraction_hop_after_ext
;SETTING_3 ruder_switch_height = 0.9\\nretraction_hop_enabled = True\\nretractio
;SETTING_3 n_speed = 35\\nspeed_layer_0 = 10\\nspeed_travel = 180\\nswitch_extru
;SETTING_3 der_retraction_amount = 4\\ntop_layers = 0\\nwall_line_count = 2\\n\\
;SETTING_3 n"]}
