;FLAVOR:RepRap
;TIME:1426
;Filament used: 0.414101m, 0.264571m
;Layer height: 0.3
;MINX:371.7
;MINY:148.7
;MINZ:0.3
;MAXX:628.3
;MAXY:351.3
;MAXZ:1.6
;LINEARADVANCEPROCESSED
;Generated with Cura_SteamEngine 4.6.2
T0
M190 S50
M104 S210
M104 T1 S175
M109 S210
M109 T1 S175
M82 ;absolute extrusion mode
T0
M104 S200
M109 S200
M98 P"startPrint.g"
M82 ;absolute extrusion mode
G21 ;metric values
G90 ;absolute positioning
M83 ;set extruder to relative mode
M107 ;start with the fan off
M109 S200 B210 F1;activate auto temp min 180 max 210 scaling factor 1 (for PLA)
G28; Home Axis
G29 S1; Z-Probe the bed (requires Z-Probe!)
G1 Z5.0 F9000 ;move the head 5mm up for CYA clearance
G92 E0 ;zero the extruded length
M117 Cleaning...;Put Cleaning message on screen
G1 X-20 Y0 F4000 ; move half way along the front edge
G1 Z1 ; move nozzle close to bed
M109 S200 ; heat nozzle to 200 degC and wait until reached
G4 P1000 ; wait 10 seconds for nozzle length to stabilize
G1 E15 ; extrude 10 mm of filament
G1 Z15 F12000 E5 ; move 15 mm up, fast, while extruding 5mm
G92 E0 ; reset extruder
M117 Printing...;Put printing message on LCD screen
M141 S28
M83 ;relative extrusion mode
G1 F1500 E-0.7
;LAYER_COUNT:2
M572 S0.000000 D1 ;added by LinearAdvanceSettingPlugin
M572 S0.000000 D0 ;added by LinearAdvanceSettingPlugin
;LAYER:0
M107
G1 F300 Z1.2
G0 F4800 X411.143 Y153.411 Z1.2
;TYPE:SKIRT
G1 F300 Z0.3
G1 F1500 E0.7
G1 F600 X412.062 Y153.464 E0.05195
G1 X412.654 Y153.541 E0.03369
G1 X414.097 Y153.77 E0.08245
G1 X416.588 Y154.126 E0.142
G1 X419.158 Y154.42 E0.14598
G1 X421.643 Y154.633 E0.14075
G1 X424.168 Y154.777 E0.14272
G1 X426.722 Y154.851 E0.14419
G1 X429.233 Y154.853 E0.1417
G1 X431.77 Y154.783 E0.14322
G1 X434.29 Y154.641 E0.14243
G1 X436.796 Y154.429 E0.14192
G1 X439.321 Y154.145 E0.14339
G1 X441.859 Y153.785 E0.14466
G1 X443.245 Y153.556 E0.07927
G1 X444.558 Y153.422 E0.07448
G1 X444.916 Y153.408 E0.02022
G1 X445.33 Y153.4 E0.02337
G1 X608.293 Y153.4 E9.19627
G1 X609.128 Y153.41 E0.04712
G1 X610.047 Y153.462 E0.05194
G1 X610.958 Y153.593 E0.05194
G1 X611.854 Y153.803 E0.05193
G1 X612.729 Y154.09 E0.05197
G1 X613.576 Y154.452 E0.05198
G1 X614.388 Y154.886 E0.05196
G1 X615.159 Y155.388 E0.05192
G1 X615.884 Y155.956 E0.05197
G1 X616.557 Y156.585 E0.05198
G1 X617.172 Y157.269 E0.05191
G1 X617.726 Y158.004 E0.05194
G1 X618.214 Y158.785 E0.05197
G1 X618.633 Y159.605 E0.05196
G1 X618.979 Y160.458 E0.05195
G1 X619.249 Y161.338 E0.05194
G1 X619.442 Y162.239 E0.052
G1 X619.556 Y163.152 E0.05192
G1 X619.587 Y163.703 E0.03114
G1 X619.61 Y164.515 E0.04584
G1 X619.722 Y167.079 E0.14483
G1 X619.906 Y169.63 E0.14433
G1 X620.155 Y172.118 E0.1411
G1 X620.482 Y174.649 E0.14402
G1 X620.874 Y177.137 E0.14213
G1 X621.337 Y179.609 E0.14192
G1 X621.866 Y182.056 E0.14128
G1 X622.479 Y184.546 E0.14471
G1 X623.193 Y187.129 E0.15123
G1 X623.399 Y188.026 E0.05194
G1 X623.555 Y189.28 E0.07131
G1 X623.579 Y189.657 E0.02132
G1 X623.6 Y190.33 E0.038
G1 X623.599 Y213.395 E1.3016
G1 X623.59 Y214.122 E0.04103
G1 X623.539 Y215.041 E0.05194
G1 X623.408 Y215.953 E0.05199
G1 X623.198 Y216.849 E0.05193
G1 X622.912 Y217.724 E0.05195
G1 X622.551 Y218.571 E0.05196
G1 X622.117 Y219.383 E0.05196
G1 X621.615 Y220.155 E0.05197
G1 X621.047 Y220.88 E0.05197
G1 X620.419 Y221.553 E0.05195
G1 X619.735 Y222.169 E0.05195
G1 X619 Y222.723 E0.05194
G1 X618.22 Y223.212 E0.05195
G1 X617.4 Y223.631 E0.05196
G1 X616.547 Y223.977 E0.05195
G1 X615.667 Y224.248 E0.05196
G1 X614.767 Y224.441 E0.05194
G1 X613.853 Y224.556 E0.05199
G1 X613.288 Y224.587 E0.03193
G1 X612.67 Y224.6 E0.03488
G1 X537.079 Y224.6 E4.26573
G1 X534.454 Y224.637 E0.14815
G1 X531.946 Y224.744 E0.14166
G1 X529.426 Y224.922 E0.14256
G1 X526.911 Y225.171 E0.14262
G1 X524.422 Y225.49 E0.14161
G1 X521.87 Y225.891 E0.14578
G1 X519.439 Y226.343 E0.13954
G1 X516.94 Y226.881 E0.14425
G1 X514.504 Y227.478 E0.14154
G1 X512.038 Y228.156 E0.14432
G1 X509.645 Y228.889 E0.14123
G1 X507.231 Y229.703 E0.14376
G1 X504.881 Y230.57 E0.14135
G1 X502.493 Y231.529 E0.14522
G1 X500.216 Y232.52 E0.14014
G1 X497.899 Y233.606 E0.1444
G1 X495.641 Y234.742 E0.14264
G1 X493.439 Y235.932 E0.14125
G1 X491.252 Y237.193 E0.14246
G1 X489.072 Y238.535 E0.14446
G1 X486.973 Y239.909 E0.14157
G1 X484.874 Y241.371 E0.14435
G1 X482.86 Y242.859 E0.14131
G1 X480.859 Y244.427 E0.14346
G1 X478.94 Y246.021 E0.14078
G1 X477.024 Y247.705 E0.14395
G1 X475.163 Y249.436 E0.14343
G1 X473.368 Y251.205 E0.14222
G1 X471.621 Y253.026 E0.14241
G1 X469.938 Y254.883 E0.14143
G1 X468.258 Y256.843 E0.14568
G1 X466.695 Y258.779 E0.14041
G1 X465.159 Y260.794 E0.14298
G1 X463.677 Y262.854 E0.14321
G1 X462.255 Y264.955 E0.14317
G1 X460.914 Y267.062 E0.14094
G1 X459.601 Y269.262 E0.14458
G1 X458.373 Y271.455 E0.14184
G1 X457.196 Y273.706 E0.14334
G1 X456.102 Y275.95 E0.14088
G1 X455.047 Y278.281 E0.14439
G1 X454.08 Y280.589 E0.14121
G1 X453.147 Y282.997 E0.14573
G1 X452.32 Y285.338 E0.14011
G1 X451.542 Y287.749 E0.14296
G1 X450.831 Y290.185 E0.1432
G1 X450.197 Y292.614 E0.14166
G1 X449.621 Y295.105 E0.14428
G1 X449.119 Y297.591 E0.14312
G1 X448.695 Y300.056 E0.14115
G1 X448.335 Y302.568 E0.1432
G1 X448.049 Y305.065 E0.14183
G1 X447.829 Y307.616 E0.14449
G1 X447.685 Y310.121 E0.14159
G1 X447.61 Y312.647 E0.14261
G1 X447.6 Y314.077 E0.0807
G1 X447.599 Y331.41 E0.97813
G1 X447.589 Y332.137 E0.04103
G1 X447.536 Y333.056 E0.05195
G1 X447.404 Y333.967 E0.05195
G1 X447.193 Y334.863 E0.05195
G1 X446.906 Y335.738 E0.05197
G1 X446.543 Y336.584 E0.05195
G1 X446.109 Y337.396 E0.05196
G1 X445.605 Y338.167 E0.05198
G1 X445.037 Y338.891 E0.05193
G1 X444.408 Y339.563 E0.05194
G1 X443.723 Y340.178 E0.05195
G1 X442.987 Y340.731 E0.05195
G1 X442.206 Y341.219 E0.05197
G1 X441.386 Y341.637 E0.05194
G1 X440.532 Y341.982 E0.05198
G1 X439.652 Y342.251 E0.05193
G1 X438.751 Y342.444 E0.052
G1 X437.838 Y342.557 E0.05192
G1 X437.297 Y342.587 E0.03058
G1 X436.481 Y342.611 E0.04607
G1 X433.922 Y342.722 E0.14454
G1 X431.37 Y342.906 E0.14439
G1 X428.882 Y343.155 E0.1411
G1 X426.351 Y343.482 E0.14402
G1 X423.863 Y343.874 E0.14213
G1 X421.391 Y344.337 E0.14192
G1 X418.944 Y344.866 E0.14128
G1 X416.454 Y345.479 E0.14471
G1 X413.871 Y346.193 E0.15123
G1 X412.974 Y346.399 E0.05194
G1 X411.72 Y346.555 E0.07131
G1 X411.343 Y346.579 E0.02132
G1 X410.67 Y346.6 E0.038
G1 X387.57 Y346.599 E1.30357
G1 X386.872 Y346.59 E0.03939
G1 X385.953 Y346.538 E0.05194
G1 X385.042 Y346.407 E0.05194
G1 X384.146 Y346.197 E0.05193
G1 X383.271 Y345.91 E0.05197
G1 X382.424 Y345.548 E0.05198
G1 X381.612 Y345.114 E0.05196
G1 X380.841 Y344.612 E0.05192
G1 X380.116 Y344.044 E0.05197
G1 X379.443 Y343.415 E0.05198
G1 X378.828 Y342.731 E0.05191
G1 X378.274 Y341.996 E0.05194
G1 X377.786 Y341.215 E0.05197
G1 X377.367 Y340.395 E0.05196
G1 X377.021 Y339.542 E0.05195
G1 X376.751 Y338.662 E0.05194
G1 X376.558 Y337.761 E0.052
G1 X376.444 Y336.848 E0.05192
G1 X376.413 Y336.277 E0.03227
G1 X376.4 Y335.658 E0.03494
G1 X376.4 Y164.674 E9.64891
G1 X376.401 Y164.515 E0.00897
G1 X376.411 Y163.85 E0.03753
G1 X376.465 Y162.931 E0.05195
G1 X376.598 Y162.02 E0.05195
G1 X376.81 Y161.124 E0.05196
G1 X377.099 Y160.249 E0.052
G1 X377.463 Y159.404 E0.05192
G1 X377.898 Y158.593 E0.05193
G1 X378.403 Y157.822 E0.05201
G1 X378.972 Y157.099 E0.05192
G1 X379.602 Y156.427 E0.05198
G1 X380.288 Y155.813 E0.05195
G1 X381.024 Y155.261 E0.05192
G1 X381.806 Y154.774 E0.05199
G1 X382.627 Y154.358 E0.05194
G1 X383.481 Y154.014 E0.05196
G1 X384.361 Y153.745 E0.05193
G1 X385.262 Y153.554 E0.05197
G1 X386.176 Y153.442 E0.05196
G1 X386.712 Y153.413 E0.03029
G1 X387.33 Y153.4 E0.03488
G1 X410.445 Y153.401 E1.30442
G1 X411.143 Y153.411 E0.03939
G0 F4800 X411.16 Y152.211
G1 F600 X412.13 Y152.265 E0.05482
G1 X412.843 Y152.356 E0.04056
G1 X414.269 Y152.583 E0.08148
G1 X416.754 Y152.938 E0.14166
G1 X419.253 Y153.223 E0.14194
G1 X421.746 Y153.437 E0.1412
G1 X424.235 Y153.579 E0.14069
G1 X426.723 Y153.651 E0.14046
G1 X429.201 Y153.653 E0.13984
G1 X431.738 Y153.583 E0.14322
G1 X434.194 Y153.445 E0.13881
G1 X436.67 Y153.236 E0.14022
G1 X439.193 Y152.951 E0.14328
G1 X441.671 Y152.6 E0.14123
G1 X443.05 Y152.372 E0.07888
G1 X444.014 Y152.253 E0.05481
G1 X444.511 Y152.223 E0.0281
G1 X444.869 Y152.209 E0.02022
G1 X445.33 Y152.2 E0.02602
G1 X608.293 Y152.2 E9.19627
G1 X609.143 Y152.21 E0.04797
G1 X610.113 Y152.262 E0.05482
G1 X611.075 Y152.395 E0.0548
G1 X612.024 Y152.605 E0.05485
G1 X612.951 Y152.893 E0.05478
G1 X613.852 Y153.257 E0.05484
G1 X614.72 Y153.693 E0.05481
G1 X615.549 Y154.199 E0.05481
G1 X616.334 Y154.772 E0.05484
G1 X617.069 Y155.407 E0.05481
G1 X617.749 Y156.101 E0.05483
G1 X618.37 Y156.848 E0.05482
G1 X618.927 Y157.644 E0.05482
G1 X619.417 Y158.482 E0.05478
G1 X619.836 Y159.359 E0.05485
G1 X620.182 Y160.266 E0.05478
G1 X620.452 Y161.2 E0.05487
G1 X620.644 Y162.152 E0.0548
G1 X620.757 Y163.117 E0.05483
G1 X620.786 Y163.668 E0.03114
G1 X620.808 Y164.431 E0.04308
G1 X620.92 Y167.011 E0.14573
G1 X621.102 Y169.53 E0.14252
G1 X621.348 Y171.985 E0.13923
G1 X621.666 Y174.453 E0.14042
G1 X622.058 Y176.938 E0.14197
G1 X622.516 Y179.383 E0.14038
G1 X623.038 Y181.798 E0.13943
G1 X623.635 Y184.222 E0.14088
G1 X624.35 Y186.809 E0.15146
G1 X624.57 Y187.756 E0.05486
G1 X624.711 Y188.717 E0.05481
G1 X624.752 Y189.203 E0.02752
G1 X624.776 Y189.58 E0.02132
G1 X624.8 Y190.33 E0.04235
G1 X624.799 Y213.41 E1.30244
G1 X624.79 Y214.137 E0.04103
G1 X624.738 Y215.107 E0.05482
G1 X624.606 Y216.07 E0.05485
G1 X624.396 Y217.018 E0.05479
G1 X624.109 Y217.946 E0.05482
G1 X623.746 Y218.847 E0.05482
G1 X623.31 Y219.715 E0.05481
G1 X622.804 Y220.544 E0.05481
G1 X622.232 Y221.329 E0.05481
G1 X621.597 Y222.064 E0.05481
G1 X620.904 Y222.745 E0.05483
G1 X620.157 Y223.366 E0.05482
G1 X619.361 Y223.924 E0.05486
G1 X618.523 Y224.414 E0.05478
G1 X617.647 Y224.834 E0.05482
G1 X616.739 Y225.18 E0.05483
G1 X615.806 Y225.45 E0.05481
G1 X614.854 Y225.643 E0.05482
G1 X613.889 Y225.757 E0.05484
G1 X613.322 Y225.786 E0.03204
G1 X612.67 Y225.8 E0.0368
G1 X537.096 Y225.8 E4.26477
G1 X534.487 Y225.837 E0.14725
G1 X532.012 Y225.942 E0.13979
G1 X529.556 Y226.116 E0.13894
G1 X527.042 Y226.365 E0.14256
G1 X524.557 Y226.683 E0.14138
G1 X522.097 Y227.07 E0.14053
G1 X519.656 Y227.524 E0.14011
G1 X517.203 Y228.051 E0.14159
G1 X514.817 Y228.637 E0.13865
G1 X512.391 Y229.303 E0.14197
G1 X510 Y230.035 E0.14111
G1 X507.64 Y230.832 E0.14057
G1 X505.28 Y231.702 E0.14194
G1 X502.997 Y232.619 E0.13884
G1 X500.667 Y233.633 E0.1434
G1 X498.454 Y234.67 E0.13791
G1 X496.201 Y235.804 E0.14234
G1 X494.002 Y236.993 E0.14107
G1 X491.858 Y238.229 E0.13965
G1 X489.725 Y239.541 E0.14132
G1 X487.642 Y240.905 E0.14051
G1 X485.576 Y242.344 E0.14208
G1 X483.599 Y243.805 E0.13872
G1 X481.629 Y245.348 E0.14121
G1 X479.686 Y246.962 E0.14254
G1 X477.841 Y248.585 E0.13867
G1 X475.991 Y250.305 E0.14255
G1 X474.228 Y252.042 E0.13967
G1 X472.511 Y253.831 E0.13993
G1 X470.82 Y255.698 E0.14215
G1 X469.19 Y257.6 E0.14136
G1 X467.636 Y259.524 E0.13957
G1 X466.119 Y261.514 E0.14121
G1 X464.669 Y263.531 E0.14018
G1 X463.258 Y265.615 E0.14202
G1 X461.922 Y267.714 E0.14041
G1 X460.644 Y269.856 E0.14076
G1 X459.44 Y272.005 E0.13901
G1 X458.266 Y274.251 E0.14302
G1 X457.181 Y276.477 E0.13974
G1 X456.154 Y278.746 E0.14055
G1 X455.187 Y281.053 E0.14116
G1 X454.277 Y283.401 E0.1421
G1 X453.456 Y285.727 E0.1392
G1 X452.691 Y288.097 E0.14054
G1 X451.985 Y290.518 E0.14231
G1 X451.361 Y292.905 E0.13923
G1 X450.793 Y295.363 E0.14236
G1 X450.304 Y297.784 E0.13938
G1 X449.879 Y300.255 E0.14149
G1 X449.524 Y302.73 E0.1411
G1 X449.241 Y305.2 E0.1403
G1 X449.027 Y307.682 E0.14058
G1 X448.885 Y310.155 E0.13979
G1 X448.81 Y312.69 E0.14312
G1 X448.8 Y314.086 E0.07878
G1 X448.799 Y331.426 E0.97853
G1 X448.789 Y332.153 E0.04103
G1 X448.736 Y333.123 E0.05482
G1 X448.603 Y334.085 E0.0548
G1 X448.391 Y335.034 E0.05487
G1 X448.102 Y335.961 E0.0548
G1 X447.738 Y336.862 E0.05484
G1 X447.301 Y337.729 E0.05479
G1 X446.794 Y338.558 E0.05484
G1 X446.221 Y339.342 E0.0548
G1 X445.585 Y340.076 E0.05481
G1 X444.891 Y340.756 E0.05483
G1 X444.143 Y341.376 E0.05483
G1 X443.347 Y341.932 E0.05479
G1 X442.508 Y342.422 E0.05483
G1 X441.631 Y342.84 E0.05482
G1 X440.723 Y343.185 E0.05481
G1 X439.79 Y343.454 E0.0548
G1 X438.837 Y343.646 E0.05486
G1 X437.872 Y343.758 E0.05482
G1 X437.331 Y343.786 E0.03057
G1 X436.569 Y343.808 E0.04302
G1 X433.99 Y343.92 E0.14567
G1 X431.47 Y344.102 E0.14258
G1 X429.015 Y344.348 E0.13923
G1 X426.547 Y344.666 E0.14042
G1 X424.062 Y345.058 E0.14197
G1 X421.617 Y345.516 E0.14038
G1 X419.202 Y346.038 E0.13943
G1 X416.778 Y346.635 E0.14088
G1 X414.191 Y347.35 E0.15146
G1 X413.244 Y347.57 E0.05486
G1 X412.283 Y347.711 E0.05481
G1 X411.797 Y347.752 E0.02752
G1 X411.42 Y347.776 E0.02132
G1 X410.67 Y347.8 E0.04235
G1 X387.555 Y347.799 E1.30442
G1 X386.857 Y347.79 E0.03939
G1 X385.887 Y347.738 E0.05482
G1 X384.925 Y347.605 E0.0548
G1 X383.976 Y347.395 E0.05485
G1 X383.049 Y347.107 E0.05478
G1 X382.148 Y346.743 E0.05484
G1 X381.28 Y346.307 E0.05481
G1 X380.451 Y345.801 E0.05481
G1 X379.666 Y345.228 E0.05484
G1 X378.931 Y344.593 E0.05481
G1 X378.251 Y343.899 E0.05483
G1 X377.63 Y343.152 E0.05482
G1 X377.073 Y342.356 E0.05482
G1 X376.583 Y341.518 E0.05478
G1 X376.164 Y340.641 E0.05485
G1 X375.818 Y339.734 E0.05478
G1 X375.548 Y338.8 E0.05487
G1 X375.356 Y337.848 E0.0548
G1 X375.243 Y336.883 E0.05483
G1 X375.213 Y336.31 E0.03238
G1 X375.2 Y335.658 E0.0368
G1 X375.2 Y164.674 E9.64891
G1 X375.201 Y164.497 E0.00999
G1 X375.211 Y163.832 E0.03753
G1 X375.266 Y162.862 E0.05483
G1 X375.4 Y161.9 E0.05481
G1 X375.613 Y160.952 E0.05483
G1 X375.903 Y160.025 E0.05481
G1 X376.268 Y159.125 E0.05481
G1 X376.706 Y158.258 E0.05482
G1 X377.214 Y157.43 E0.05482
G1 X377.789 Y156.646 E0.05487
G1 X378.426 Y155.913 E0.0548
G1 X379.121 Y155.234 E0.05483
G1 X379.869 Y154.615 E0.05479
G1 X380.666 Y154.059 E0.05484
G1 X381.506 Y153.571 E0.05482
G1 X382.383 Y153.154 E0.0548
G1 X383.291 Y152.81 E0.05479
G1 X384.225 Y152.542 E0.05483
G1 X385.178 Y152.352 E0.05484
G1 X386.143 Y152.241 E0.05482
G1 X386.678 Y152.214 E0.03023
G1 X387.33 Y152.2 E0.0368
G1 X410.462 Y152.201 E1.30538
G1 X411.16 Y152.211 E0.03939
G0 F4800 X411.177 Y151.011
G1 F600 X412.195 Y151.066 E0.05753
G1 X413.031 Y151.171 E0.04755
G1 X414.439 Y151.395 E0.08046
G1 X416.914 Y151.748 E0.14108
G1 X419.383 Y152.03 E0.14024
G1 X421.812 Y152.239 E0.13758
G1 X424.268 Y152.379 E0.13882
G1 X426.759 Y152.451 E0.14063
G1 X429.204 Y152.453 E0.13798
G1 X431.673 Y152.385 E0.13938
G1 X434.096 Y152.248 E0.13695
G1 X436.574 Y152.039 E0.14033
G1 X439.03 Y151.762 E0.13947
G1 X441.483 Y151.414 E0.13981
G1 X442.854 Y151.188 E0.07841
G1 X443.866 Y151.061 E0.05756
G1 X444.464 Y151.024 E0.03381
G1 X444.822 Y151.01 E0.02022
G1 X445.33 Y151 E0.02867
G1 X608.293 Y151 E9.19627
G1 X609.159 Y151.01 E0.04887
G1 X610.177 Y151.063 E0.05753
G1 X611.188 Y151.196 E0.05754
G1 X612.185 Y151.408 E0.05752
G1 X613.163 Y151.697 E0.05755
G1 X614.115 Y152.061 E0.05752
G1 X615.036 Y152.5 E0.05758
G1 X615.919 Y153.009 E0.05752
G1 X616.76 Y153.586 E0.05756
G1 X617.553 Y154.227 E0.05754
G1 X618.293 Y154.928 E0.05752
G1 X618.976 Y155.685 E0.05754
G1 X619.598 Y156.493 E0.05754
G1 X620.154 Y157.347 E0.05751
G1 X620.642 Y158.243 E0.05758
G1 X621.058 Y159.173 E0.05749
G1 X621.4 Y160.134 E0.05756
G1 X621.666 Y161.118 E0.05752
G1 X621.853 Y162.121 E0.05758
G1 X621.986 Y163.633 E0.08565
G1 X622.009 Y164.414 E0.04409
G1 X622.12 Y166.978 E0.14483
G1 X622.294 Y169.394 E0.13669
G1 X622.541 Y171.856 E0.13963
G1 X622.854 Y174.282 E0.13804
G1 X623.238 Y176.716 E0.13905
G1 X623.693 Y179.151 E0.13979
G1 X624.211 Y181.54 E0.13795
G1 X624.801 Y183.94 E0.13947
G1 X625.506 Y186.49 E0.1493
G1 X625.739 Y187.482 E0.0575
G1 X625.893 Y188.49 E0.05754
G1 X625.95 Y189.127 E0.03609
G1 X625.974 Y189.504 E0.02132
G1 X626 Y190.33 E0.04664
G1 X625.999 Y213.425 E1.30329
G1 X625.99 Y214.152 E0.04103
G1 X625.937 Y215.17 E0.05753
G1 X625.805 Y216.181 E0.05754
G1 X625.594 Y217.179 E0.05756
G1 X625.306 Y218.157 E0.05753
G1 X624.941 Y219.109 E0.05754
G1 X624.503 Y220.03 E0.05755
G1 X623.995 Y220.913 E0.05749
G1 X623.418 Y221.754 E0.05756
G1 X622.778 Y222.548 E0.05755
G1 X622.077 Y223.288 E0.05752
G1 X621.321 Y223.972 E0.05753
G1 X620.513 Y224.594 E0.05754
G1 X619.659 Y225.151 E0.05754
G1 X618.763 Y225.639 E0.05758
G1 X617.833 Y226.056 E0.05752
G1 X616.872 Y226.398 E0.05756
G1 X615.888 Y226.664 E0.05752
G1 X614.886 Y226.852 E0.05753
G1 X613.872 Y226.961 E0.05755
G1 X613.355 Y226.986 E0.02921
G1 X613.034 Y226.995 E0.01812
G1 X612.67 Y227 E0.02054
G1 X537.113 Y227 E4.26381
G1 X534.519 Y227.037 E0.1464
G1 X532.077 Y227.14 E0.13793
G1 X529.654 Y227.312 E0.13708
G1 X527.168 Y227.559 E0.14098
G1 X524.72 Y227.872 E0.13927
G1 X522.322 Y228.249 E0.13699
G1 X519.885 Y228.702 E0.13988
G1 X517.493 Y229.217 E0.13808
G1 X515.096 Y229.804 E0.13926
G1 X512.713 Y230.459 E0.13946
G1 X510.377 Y231.175 E0.13788
G1 X508.049 Y231.96 E0.13864
G1 X505.721 Y232.819 E0.14003
G1 X503.442 Y233.734 E0.13859
G1 X501.192 Y234.713 E0.13847
G1 X498.953 Y235.763 E0.13955
G1 X496.748 Y236.872 E0.13928
G1 X494.605 Y238.03 E0.13746
G1 X492.469 Y239.262 E0.13915
G1 X490.379 Y240.548 E0.13848
G1 X488.288 Y241.917 E0.14104
G1 X486.302 Y243.301 E0.1366
G1 X484.298 Y244.781 E0.14059
G1 X482.399 Y246.268 E0.13611
G1 X480.471 Y247.87 E0.14146
G1 X478.62 Y249.497 E0.13907
G1 X476.838 Y251.155 E0.13736
G1 X475.088 Y252.88 E0.13867
G1 X473.367 Y254.673 E0.14025
G1 X471.735 Y256.474 E0.13715
G1 X470.121 Y258.357 E0.13995
G1 X468.573 Y260.274 E0.13905
G1 X467.083 Y262.229 E0.13871
G1 X465.632 Y264.247 E0.14026
G1 X464.271 Y266.257 E0.13698
G1 X462.946 Y268.34 E0.13931
G1 X461.702 Y270.423 E0.13691
G1 X460.478 Y272.61 E0.14143
G1 X459.349 Y274.768 E0.13744
G1 X458.259 Y277.005 E0.14043
G1 X457.26 Y279.211 E0.13666
G1 X456.293 Y281.518 E0.14116
G1 X455.4 Y283.824 E0.13955
G1 X454.595 Y286.105 E0.1365
G1 X453.83 Y288.475 E0.14054
G1 X453.151 Y290.801 E0.13674
G1 X452.525 Y293.196 E0.13969
G1 X451.964 Y295.623 E0.14057
G1 X451.479 Y298.023 E0.13817
G1 X451.069 Y300.414 E0.1369
G1 X450.714 Y302.892 E0.14127
G1 X450.438 Y305.299 E0.13672
G1 X450.223 Y307.784 E0.14076
G1 X450.083 Y310.223 E0.13786
G1 X450.01 Y312.69 E0.13928
G1 X450 Y314.094 E0.07923
G1 X449.999 Y331.443 E0.97903
G1 X449.989 Y332.17 E0.04103
G1 X449.935 Y333.188 E0.05753
G1 X449.801 Y334.199 E0.05755
G1 X449.589 Y335.196 E0.05752
G1 X449.299 Y336.174 E0.05757
G1 X448.933 Y337.125 E0.0575
G1 X448.494 Y338.046 E0.05758
G1 X447.984 Y338.928 E0.05749
G1 X447.407 Y339.769 E0.05756
G1 X446.765 Y340.561 E0.05753
G1 X446.063 Y341.301 E0.05756
G1 X445.306 Y341.983 E0.0575
G1 X444.497 Y342.604 E0.05755
G1 X443.642 Y343.16 E0.05755
G1 X442.746 Y343.647 E0.05755
G1 X441.815 Y344.062 E0.05752
G1 X440.854 Y344.403 E0.05754
G1 X439.87 Y344.668 E0.05751
G1 X438.867 Y344.855 E0.05758
G1 X437.366 Y344.986 E0.08503
G1 X436.586 Y345.009 E0.04404
G1 X434.023 Y345.12 E0.14477
G1 X431.606 Y345.294 E0.13675
G1 X429.144 Y345.541 E0.13963
G1 X426.718 Y345.854 E0.13804
G1 X424.284 Y346.238 E0.13905
G1 X421.849 Y346.693 E0.13979
G1 X419.46 Y347.211 E0.13795
G1 X417.06 Y347.801 E0.13947
G1 X414.51 Y348.506 E0.1493
G1 X413.518 Y348.739 E0.0575
G1 X412.51 Y348.893 E0.05754
G1 X411.873 Y348.95 E0.03609
G1 X411.496 Y348.974 E0.02132
G1 X410.67 Y349 E0.04664
G1 X387.539 Y348.999 E1.30532
G1 X386.841 Y348.99 E0.03939
G1 X385.823 Y348.937 E0.05753
G1 X384.812 Y348.804 E0.05754
G1 X383.815 Y348.592 E0.05752
G1 X382.837 Y348.303 E0.05755
G1 X381.885 Y347.939 E0.05752
G1 X380.964 Y347.5 E0.05758
G1 X380.081 Y346.991 E0.05752
G1 X379.24 Y346.414 E0.05756
G1 X378.447 Y345.773 E0.05754
G1 X377.707 Y345.072 E0.05752
G1 X377.024 Y344.315 E0.05754
G1 X376.402 Y343.507 E0.05754
G1 X375.846 Y342.653 E0.05751
G1 X375.358 Y341.757 E0.05758
G1 X374.942 Y340.827 E0.05749
G1 X374.6 Y339.866 E0.05756
G1 X374.334 Y338.882 E0.05752
G1 X374.147 Y337.879 E0.05758
G1 X374.038 Y336.866 E0.0575
G1 X374.014 Y336.342 E0.0296
G1 X374 Y335.658 E0.03861
G1 X374 Y164.674 E9.64891
G1 X374.001 Y164.479 E0.011
G1 X374.011 Y163.814 E0.03753
G1 X374.067 Y162.795 E0.05759
G1 X374.202 Y161.785 E0.0575
G1 X374.415 Y160.788 E0.05753
G1 X374.707 Y159.811 E0.05754
G1 X375.073 Y158.859 E0.05756
G1 X375.514 Y157.94 E0.05752
G1 X376.025 Y157.057 E0.05757
G1 X376.603 Y156.218 E0.05749
G1 X377.246 Y155.426 E0.05757
G1 X377.949 Y154.687 E0.05756
G1 X378.707 Y154.006 E0.0575
G1 X379.517 Y153.386 E0.05756
G1 X380.372 Y152.831 E0.05752
G1 X381.269 Y152.346 E0.05754
G1 X382.2 Y151.931 E0.05752
G1 X383.162 Y151.592 E0.05756
G1 X384.147 Y151.328 E0.05755
G1 X385.149 Y151.143 E0.0575
G1 X386.645 Y151.014 E0.08474
G1 X386.965 Y151.005 E0.01807
G1 X387.33 Y151 E0.0206
G1 X410.479 Y151.001 E1.30634
G1 X411.177 Y151.011 E0.03939
G0 F4800 X411.194 Y149.811
G1 F600 X412.259 Y149.867 E0.06018
G1 X413.219 Y149.986 E0.05459
G1 X414.6 Y150.205 E0.07891
G1 X417.08 Y150.56 E0.14138
G1 X419.481 Y150.834 E0.13637
G1 X421.912 Y151.043 E0.13769
G1 X424.334 Y151.181 E0.1369
G1 X426.759 Y151.251 E0.1369
G1 X429.172 Y151.253 E0.13617
G1 X431.606 Y151.186 E0.13741
G1 X434.036 Y151.049 E0.13735
G1 X436.483 Y150.842 E0.13858
G1 X438.833 Y150.577 E0.13345
G1 X441.338 Y150.222 E0.14277
G1 X442.659 Y150.004 E0.07555
G1 X443.716 Y149.87 E0.06013
G1 X444.417 Y149.825 E0.03964
G1 X444.775 Y149.811 E0.02022
G1 X445.33 Y149.8 E0.03133
G1 X608.293 Y149.8 E9.19627
G1 X608.476 Y149.801 E0.01033
G1 X609.174 Y149.81 E0.03939
G1 X610.238 Y149.864 E0.06012
G1 X611.296 Y149.997 E0.06017
G1 X612.34 Y150.21 E0.06013
G1 X613.365 Y150.5 E0.06011
G1 X614.366 Y150.866 E0.06015
G1 X615.337 Y151.306 E0.06016
G1 X616.271 Y151.817 E0.06008
G1 X617.165 Y152.398 E0.06017
G1 X618.013 Y153.043 E0.06012
G1 X618.81 Y153.751 E0.06016
G1 X619.552 Y154.516 E0.06014
G1 X620.234 Y155.335 E0.06014
G1 X620.853 Y156.202 E0.06012
G1 X621.405 Y157.114 E0.06016
G1 X621.887 Y158.064 E0.06012
G1 X622.296 Y159.048 E0.06013
G1 X622.631 Y160.06 E0.06016
G1 X622.889 Y161.094 E0.06014
G1 X623.068 Y162.144 E0.06011
G1 X623.185 Y163.599 E0.08237
G1 X623.206 Y164.327 E0.0411
G1 X623.318 Y166.908 E0.14579
G1 X623.49 Y169.299 E0.13528
G1 X623.733 Y171.719 E0.13725
G1 X624.043 Y174.121 E0.13667
G1 X624.421 Y176.517 E0.13688
G1 X624.865 Y178.891 E0.13629
G1 X625.375 Y181.248 E0.13609
G1 X625.966 Y183.649 E0.13954
G1 X626.663 Y186.17 E0.1476
G1 X626.908 Y187.207 E0.06013
G1 X627.075 Y188.26 E0.06017
G1 X627.147 Y189.051 E0.04482
G1 X627.171 Y189.428 E0.02132
G1 X627.2 Y190.33 E0.05093
G1 X627.199 Y213.44 E1.30414
G1 X627.19 Y214.167 E0.04103
G1 X627.137 Y215.231 E0.06012
G1 X627.004 Y216.288 E0.06012
G1 X626.792 Y217.333 E0.06017
G1 X626.503 Y218.358 E0.0601
G1 X626.137 Y219.359 E0.06015
G1 X625.698 Y220.33 E0.06014
G1 X625.186 Y221.265 E0.06016
G1 X624.606 Y222.159 E0.06014
G1 X623.961 Y223.007 E0.06012
G1 X623.254 Y223.805 E0.06016
G1 X622.489 Y224.547 E0.06014
G1 X621.671 Y225.229 E0.0601
G1 X620.804 Y225.849 E0.06015
G1 X619.893 Y226.401 E0.06011
G1 X618.942 Y226.884 E0.06019
G1 X617.959 Y227.294 E0.0601
G1 X616.947 Y227.629 E0.06016
G1 X615.913 Y227.887 E0.06014
G1 X614.863 Y228.067 E0.06012
G1 X613.389 Y228.185 E0.08345
G1 X613.068 Y228.194 E0.01812
G1 X612.67 Y228.2 E0.02246
G1 X537.13 Y228.2 E4.26285
G1 X534.551 Y228.236 E0.14555
G1 X532.144 Y228.339 E0.13596
G1 X529.749 Y228.509 E0.13549
G1 X527.303 Y228.751 E0.13871
G1 X524.914 Y229.057 E0.13592
G1 X522.513 Y229.434 E0.13715
G1 X520.108 Y229.881 E0.13804
G1 X517.756 Y230.387 E0.13576
G1 X515.409 Y230.963 E0.13638
G1 X513.075 Y231.604 E0.13659
G1 X510.722 Y232.325 E0.13888
G1 X508.447 Y233.092 E0.13548
G1 X506.132 Y233.946 E0.13924
G1 X503.916 Y234.836 E0.13476
G1 X501.702 Y235.799 E0.13625
G1 X499.464 Y236.848 E0.13948
G1 X497.307 Y237.934 E0.13628
G1 X495.167 Y239.091 E0.13728
G1 X493.106 Y240.279 E0.13424
G1 X491.016 Y241.565 E0.13848
G1 X488.974 Y242.902 E0.13774
G1 X487.01 Y244.27 E0.13507
G1 X485.032 Y245.731 E0.13877
G1 X483.114 Y247.234 E0.13751
G1 X481.255 Y248.778 E0.13637
G1 X479.437 Y250.377 E0.13663
G1 X477.666 Y252.024 E0.13648
G1 X475.93 Y253.734 E0.13751
G1 X474.256 Y255.479 E0.13646
G1 X472.635 Y257.268 E0.13624
G1 X471.022 Y259.15 E0.13987
G1 X469.527 Y261.001 E0.13427
G1 X468.048 Y262.942 E0.13771
G1 X466.635 Y264.906 E0.13654
G1 X465.274 Y266.917 E0.13703
G1 X463.979 Y268.951 E0.13607
G1 X462.72 Y271.061 E0.13866
G1 X461.53 Y273.188 E0.13754
G1 X460.418 Y275.314 E0.13539
G1 X459.351 Y277.503 E0.13742
G1 X458.353 Y279.706 E0.13648
G1 X457.418 Y281.938 E0.13656
G1 X456.531 Y284.229 E0.13864
G1 X455.727 Y286.505 E0.13622
G1 X454.976 Y288.832 E0.13799
G1 X454.307 Y291.124 E0.13474
G1 X453.69 Y293.487 E0.13782
G1 X453.146 Y295.84 E0.13629
G1 X452.656 Y298.261 E0.13939
G1 X452.253 Y300.607 E0.13433
G1 X451.907 Y303.024 E0.13779
G1 X451.627 Y305.465 E0.13865
G1 X451.422 Y307.851 E0.13514
G1 X451.283 Y310.256 E0.13594
G1 X451.21 Y312.734 E0.1399
G1 X451.2 Y314.103 E0.07726
G1 X451.199 Y331.459 E0.97943
G1 X451.189 Y332.186 E0.04103
G1 X451.134 Y333.251 E0.06018
G1 X451 Y334.308 E0.06013
G1 X450.787 Y335.352 E0.06013
G1 X450.496 Y336.377 E0.06013
G1 X450.129 Y337.377 E0.06011
G1 X449.688 Y338.348 E0.06018
G1 X449.175 Y339.282 E0.06013
G1 X448.594 Y340.175 E0.06012
G1 X447.948 Y341.022 E0.06011
G1 X447.24 Y341.819 E0.06016
G1 X446.474 Y342.56 E0.06014
G1 X445.655 Y343.241 E0.06011
G1 X444.786 Y343.859 E0.06018
G1 X443.874 Y344.411 E0.06016
G1 X442.924 Y344.892 E0.06009
G1 X441.94 Y345.3 E0.06011
G1 X440.927 Y345.634 E0.06019
G1 X439.893 Y345.891 E0.06013
G1 X438.843 Y346.07 E0.06011
G1 X437.401 Y346.185 E0.08163
G1 X436.672 Y346.206 E0.04116
G1 X434.09 Y346.318 E0.14584
G1 X431.703 Y346.49 E0.13505
G1 X429.281 Y346.733 E0.13736
G1 X426.879 Y347.043 E0.13667
G1 X424.483 Y347.421 E0.13688
G1 X422.109 Y347.865 E0.13629
G1 X419.752 Y348.375 E0.13609
G1 X417.351 Y348.966 E0.13954
G1 X414.83 Y349.663 E0.1476
G1 X413.793 Y349.908 E0.06013
G1 X412.74 Y350.075 E0.06017
G1 X411.949 Y350.147 E0.04482
G1 X411.572 Y350.171 E0.02132
G1 X410.67 Y350.2 E0.05093
G1 X387.524 Y350.199 E1.30617
G1 X386.826 Y350.19 E0.03939
G1 X385.762 Y350.136 E0.06012
G1 X384.704 Y350.003 E0.06017
G1 X383.66 Y349.79 E0.06013
G1 X382.635 Y349.5 E0.06011
G1 X381.634 Y349.134 E0.06015
G1 X380.663 Y348.694 E0.06016
G1 X379.729 Y348.183 E0.06008
G1 X378.835 Y347.602 E0.06017
G1 X377.987 Y346.957 E0.06012
G1 X377.19 Y346.249 E0.06016
G1 X376.448 Y345.484 E0.06014
G1 X375.766 Y344.665 E0.06014
G1 X375.147 Y343.798 E0.06012
G1 X374.595 Y342.886 E0.06016
G1 X374.113 Y341.936 E0.06012
G1 X373.704 Y340.952 E0.06013
G1 X373.369 Y339.94 E0.06016
G1 X373.111 Y338.906 E0.06014
G1 X372.932 Y337.856 E0.06011
G1 X372.814 Y336.375 E0.08384
G1 X372.805 Y336.042 E0.0188
G1 X372.8 Y335.658 E0.02167
G1 X372.8 Y164.674 E9.64891
G1 X372.812 Y163.795 E0.04961
G1 X372.868 Y162.731 E0.06013
G1 X373.003 Y161.674 E0.06013
G1 X373.218 Y160.631 E0.0601
G1 X373.51 Y159.606 E0.06014
G1 X373.878 Y158.606 E0.06013
G1 X374.32 Y157.636 E0.06015
G1 X374.834 Y156.702 E0.06016
G1 X375.416 Y155.81 E0.0601
G1 X376.064 Y154.964 E0.06014
G1 X376.773 Y154.168 E0.06015
G1 X377.54 Y153.428 E0.06014
G1 X378.36 Y152.748 E0.06011
G1 X379.229 Y152.131 E0.06014
G1 X380.141 Y151.581 E0.0601
G1 X381.093 Y151.101 E0.06017
G1 X382.078 Y150.693 E0.06016
G1 X383.09 Y150.361 E0.0601
G1 X384.125 Y150.105 E0.06017
G1 X385.175 Y149.928 E0.06009
G1 X386.611 Y149.815 E0.08129
G1 X386.931 Y149.806 E0.01807
G1 X387.33 Y149.8 E0.02252
G1 X410.496 Y149.801 E1.3073
G1 X411.194 Y149.811 E0.03939
G1 F1500 E-0.7
G1 F300 Z1.2
;MESH:CalibrationMultiExtruder1
G0 F4800 X388.8 Y165.8 Z1.2
;TYPE:WALL-INNER
G1 F300 Z0.3
G1 F1500 E0.7
G1 F600 X389.2 Y165.8 E0.02257
G1 X409.2 Y165.8 E1.12863
G1 X409.2 Y166.2 E0.02257
G1 X389.2 Y166.2 E0.37652
G1 X389.2 Y174.2 E0.45145
G1 X409.2 Y174.2 E1.12863
G1 X409.2 Y174.6 E0.02257
G1 X389.2 Y174.6 E0.37652
G1 X389.2 Y182.6 E0.45145
G1 X409.2 Y182.6 E1.12863
G1 X409.2 Y183 E0.02257
G1 X389.2 Y183 E0.37652
G1 X389.2 Y191 E0.45145
G1 X409.2 Y191 E1.12863
G1 X409.2 Y191.4 E0.02257
G1 X389.2 Y191.4 E0.37652
G1 X389.2 Y199.4 E0.45145
G1 X409.2 Y199.4 E1.12863
G1 X409.2 Y199.8 E0.02257
G1 X389.2 Y199.8 E0.37652
G1 X389.2 Y207.8 E0.45145
G1 X409.2 Y207.8 E1.12863
G1 X409.2 Y208.2 E0.02257
G1 X389.2 Y208.2 E0.37652
G1 X389.2 Y216.2 E0.45145
G1 X409.2 Y216.2 E1.12863
G1 X409.2 Y216.6 E0.02257
G1 X389.2 Y216.6 E0.37652
G1 X389.2 Y224.6 E0.45145
G1 X409.2 Y224.6 E1.12863
G1 X409.2 Y225 E0.02257
G1 X389.2 Y225 E0.37652
G1 X389.2 Y233 E0.45145
G1 X409.2 Y233 E1.12863
G1 X409.2 Y233.4 E0.02257
G1 X389.2 Y233.4 E0.37652
G1 X389.2 Y241.4 E0.45145
G1 X409.2 Y241.4 E1.12863
G1 X409.2 Y241.8 E0.02257
G1 X389.2 Y241.8 E0.37652
G1 X389.2 Y249.8 E0.45145
G1 X409.2 Y249.8 E1.12863
G1 X409.2 Y250.2 E0.02257
G1 X389.2 Y250.2 E0.37652
G1 X389.2 Y258.2 E0.45145
G1 X409.2 Y258.2 E1.12863
G1 X409.2 Y258.6 E0.02257
G1 X389.2 Y258.6 E0.37652
G1 X389.2 Y266.6 E0.45145
G1 X409.2 Y266.6 E1.12863
G1 X409.2 Y267 E0.02257
G1 X389.2 Y267 E0.37652
G1 X389.2 Y275 E0.45145
G1 X409.2 Y275 E1.12863
G1 X409.2 Y275.4 E0.02257
G1 X389.2 Y275.4 E0.37652
G1 X389.2 Y283.4 E0.45145
G1 X409.2 Y283.4 E1.12863
G1 X409.2 Y283.8 E0.02257
G1 X389.2 Y283.8 E0.37652
G1 X389.2 Y291.8 E0.45145
G1 X409.2 Y291.8 E1.12863
G1 X409.2 Y292.2 E0.02257
G1 X389.2 Y292.2 E0.37652
G1 X389.2 Y300.2 E0.45145
G1 X409.2 Y300.2 E1.12863
G1 X409.2 Y300.6 E0.02257
G1 X389.2 Y300.6 E0.37652
G1 X389.2 Y308.6 E0.45145
G1 X409.2 Y308.6 E1.12863
G1 X409.2 Y309 E0.02257
G1 X389.2 Y309 E0.37652
G1 X389.2 Y317 E0.45145
G1 X409.2 Y317 E1.12863
G1 X409.2 Y317.4 E0.02257
G1 X389.2 Y317.4 E0.37652
G1 X389.2 Y325.4 E0.45145
G1 X409.2 Y325.4 E1.12863
G1 X409.2 Y325.8 E0.02257
G1 X389.2 Y325.8 E0.37652
G1 X389.2 Y333.8 E0.45145
G1 X409.2 Y333.8 E1.12863
G1 X409.2 Y334.2 E0.02257
G1 X389.2 Y334.2 E0.37652
G1 X388.8 Y334.2 E0.01583
G1 X388.8 Y333.8 E0.01583
G1 X388.8 Y325.8 E0.15061
G1 X388.8 Y325.4 E0.01583
G1 X388.8 Y317.4 E0.15061
G1 X388.8 Y317 E0.01583
G1 X388.8 Y309 E0.15061
G1 X388.8 Y308.6 E0.01583
G1 X388.8 Y300.6 E0.15061
G1 X388.8 Y300.2 E0.01583
G1 X388.8 Y292.2 E0.15061
G1 X388.8 Y291.8 E0.01583
G1 X388.8 Y283.8 E0.15061
G1 X388.8 Y283.4 E0.01583
G1 X388.8 Y275.4 E0.15061
G1 X388.8 Y275 E0.01583
G1 X388.8 Y267 E0.15061
G1 X388.8 Y266.6 E0.01583
G1 X388.8 Y258.6 E0.15061
G1 X388.8 Y258.2 E0.01583
G1 X388.8 Y250.2 E0.15061
G1 X388.8 Y249.8 E0.01583
G1 X388.8 Y241.8 E0.15061
G1 X388.8 Y241.4 E0.01583
G1 X388.8 Y233.4 E0.15061
G1 X388.8 Y233 E0.01583
G1 X388.8 Y225 E0.15061
G1 X388.8 Y224.6 E0.01583
G1 X388.8 Y216.6 E0.15061
G1 X388.8 Y216.2 E0.01583
G1 X388.8 Y208.2 E0.15061
G1 X388.8 Y207.8 E0.01583
G1 X388.8 Y199.8 E0.15061
G1 X388.8 Y199.4 E0.01583
G1 X388.8 Y191.4 E0.15061
G1 X388.8 Y191 E0.01583
G1 X388.8 Y183 E0.15061
G1 X388.8 Y182.6 E0.01583
G1 X388.8 Y174.6 E0.15061
G1 X388.8 Y174.2 E0.01583
G1 X388.8 Y166.2 E0.15061
G1 X388.8 Y165.8 E0.01583
G1 F1500 E-0.7
G1 F300 Z1.2
G0 F4800 X387.6 Y164.6 Z1.2
;TYPE:WALL-OUTER
G1 F300 Z0.3
G1 F1500 E0.7
G1 F600 X410.4 Y164.6 E1.28664
G1 X410.4 Y167.4 E0.15801
G1 X390.4 Y167.4 E1.12863
G1 X390.4 Y173 E0.31602
G1 X410.4 Y173 E1.12863
G1 X410.4 Y175.8 E0.15801
G1 X390.4 Y175.8 E1.12863
G1 X390.4 Y181.4 E0.31602
G1 X410.4 Y181.4 E1.12863
G1 X410.4 Y184.2 E0.15801
G1 X390.4 Y184.2 E1.12863
G1 X390.4 Y189.8 E0.31602
G1 X410.4 Y189.8 E1.12863
G1 X410.4 Y192.6 E0.15801
G1 X390.4 Y192.6 E1.12863
G1 X390.4 Y198.2 E0.31602
G1 X410.4 Y198.2 E1.12863
G1 X410.4 Y201 E0.15801
G1 X390.4 Y201 E1.12863
G1 X390.4 Y206.6 E0.31602
G1 X410.4 Y206.6 E1.12863
G1 X410.4 Y209.4 E0.15801
G1 X390.4 Y209.4 E1.12863
G1 X390.4 Y215 E0.31602
G1 X410.4 Y215 E1.12863
G1 X410.4 Y217.8 E0.15801
G1 X390.4 Y217.8 E1.12863
G1 X390.4 Y223.4 E0.31602
G1 X410.4 Y223.4 E1.12863
G1 X410.4 Y226.2 E0.15801
G1 X390.4 Y226.2 E1.12863
G1 X390.4 Y231.8 E0.31602
G1 X410.4 Y231.8 E1.12863
G1 X410.4 Y234.6 E0.15801
G1 X390.4 Y234.6 E1.12863
G1 X390.4 Y240.2 E0.31602
G1 X410.4 Y240.2 E1.12863
G1 X410.4 Y243 E0.15801
G1 X390.4 Y243 E1.12863
G1 X390.4 Y248.6 E0.31602
G1 X410.4 Y248.6 E1.12863
G1 X410.4 Y251.4 E0.15801
G1 X390.4 Y251.4 E1.12863
G1 X390.4 Y257 E0.31602
G1 X410.4 Y257 E1.12863
G1 X410.4 Y259.8 E0.15801
G1 X390.4 Y259.8 E1.12863
G1 X390.4 Y265.4 E0.31602
G1 X410.4 Y265.4 E1.12863
G1 X410.4 Y268.2 E0.15801
G1 X390.4 Y268.2 E1.12863
G1 X390.4 Y273.8 E0.31602
G1 X410.4 Y273.8 E1.12863
G1 X410.4 Y276.6 E0.15801
G1 X390.4 Y276.6 E1.12863
G1 X390.4 Y282.2 E0.31602
G1 X410.4 Y282.2 E1.12863
G1 X410.4 Y285 E0.15801
G1 X390.4 Y285 E1.12863
G1 X390.4 Y290.6 E0.31602
G1 X410.4 Y290.6 E1.12863
G1 X410.4 Y293.4 E0.15801
G1 X390.4 Y293.4 E1.12863
G1 X390.4 Y299 E0.31602
G1 X410.4 Y299 E1.12863
G1 X410.4 Y301.8 E0.15801
G1 X390.4 Y301.8 E1.12863
G1 X390.4 Y307.4 E0.31602
G1 X410.4 Y307.4 E1.12863
G1 X410.4 Y310.2 E0.15801
G1 X390.4 Y310.2 E1.12863
G1 X390.4 Y315.8 E0.31602
G1 X410.4 Y315.8 E1.12863
G1 X410.4 Y318.6 E0.15801
G1 X390.4 Y318.6 E1.12863
G1 X390.4 Y324.2 E0.31602
G1 X410.4 Y324.2 E1.12863
G1 X410.4 Y327 E0.15801
G1 X390.4 Y327 E1.12863
G1 X390.4 Y332.6 E0.31602
G1 X410.4 Y332.6 E1.12863
G1 X410.4 Y335.4 E0.15801
G1 X387.6 Y335.4 E1.28664
G1 X387.6 Y164.6 E9.63853
G1 F1500 E-0.7
G1 F300 Z1.2
G0 F4800 X442.8 Y191.8 Z1.2
;TYPE:WALL-INNER
G1 F300 Z0.3
G1 F1500 E0.7
G1 F600 X443.2 Y191.8 E0.02257
G1 X443.2 Y211.8 E1.12863
G1 X451.2 Y211.8 E0.45145
G1 X451.2 Y191.8 E1.12863
G1 X451.6 Y191.8 E0.02257
G1 X451.6 Y211.8 E0.37652
G1 X459.6 Y211.8 E0.45145
G1 X459.6 Y191.8 E1.12863
G1 X460 Y191.8 E0.02257
G1 X460 Y211.8 E0.37652
G1 X468 Y211.8 E0.45145
G1 X468 Y191.8 E1.12863
G1 X468.4 Y191.8 E0.02257
G1 X468.4 Y211.8 E0.37652
G1 X476.4 Y211.8 E0.45145
G1 X476.4 Y191.8 E1.12863
G1 X476.8 Y191.8 E0.02257
G1 X476.8 Y211.8 E0.37652
G1 X484.8 Y211.8 E0.45145
G1 X484.8 Y191.8 E1.12863
G1 X485.2 Y191.8 E0.02257
G1 X485.2 Y211.8 E0.37652
G1 X493.2 Y211.8 E0.45145
G1 X493.2 Y191.8 E1.12863
G1 X493.6 Y191.8 E0.02257
G1 X493.6 Y211.8 E0.37652
G1 X501.6 Y211.8 E0.45145
G1 X501.6 Y191.8 E1.12863
G1 X502 Y191.8 E0.02257
G1 X502 Y211.8 E0.37652
G1 X510 Y211.8 E0.45145
G1 X510 Y191.8 E1.12863
G1 X510.4 Y191.8 E0.02257
G1 X510.4 Y211.8 E0.37652
G1 X518.4 Y211.8 E0.45145
G1 X518.4 Y191.8 E1.12863
G1 X518.8 Y191.8 E0.02257
G1 X518.8 Y211.8 E0.37652
G1 X526.8 Y211.8 E0.45145
G1 X526.8 Y191.8 E1.12863
G1 X527.2 Y191.8 E0.02257
G1 X527.2 Y211.8 E0.37652
G1 X535.2 Y211.8 E0.45145
G1 X535.2 Y191.8 E1.12863
G1 X535.6 Y191.8 E0.02257
G1 X535.6 Y211.8 E0.37652
G1 X543.6 Y211.8 E0.45145
G1 X543.6 Y191.8 E1.12863
G1 X544 Y191.8 E0.02257
G1 X544 Y211.8 E0.37652
G1 X552 Y211.8 E0.45145
G1 X552 Y191.8 E1.12863
G1 X552.4 Y191.8 E0.02257
G1 X552.4 Y211.8 E0.37652
G1 X560.4 Y211.8 E0.45145
G1 X560.4 Y191.8 E1.12863
G1 X560.8 Y191.8 E0.02257
G1 X560.8 Y211.8 E0.37652
G1 X568.8 Y211.8 E0.45145
G1 X568.8 Y191.8 E1.12863
G1 X569.2 Y191.8 E0.02257
G1 X569.2 Y211.8 E0.37652
G1 X577.2 Y211.8 E0.45145
G1 X577.2 Y191.8 E1.12863
G1 X577.6 Y191.8 E0.02257
G1 X577.6 Y211.8 E0.37652
G1 X585.6 Y211.8 E0.45145
G1 X585.6 Y191.8 E1.12863
G1 X586 Y191.8 E0.02257
G1 X586 Y211.8 E0.37652
G1 X594 Y211.8 E0.45145
G1 X594 Y191.8 E1.12863
G1 X594.4 Y191.8 E0.02257
G1 X594.4 Y211.8 E0.37652
G1 X602.4 Y211.8 E0.45145
G1 X602.4 Y191.8 E1.12863
G1 X602.8 Y191.8 E0.02257
G1 X602.8 Y211.8 E0.37652
G1 X610.8 Y211.8 E0.45145
G1 X610.8 Y191.8 E1.12863
G1 X611.2 Y191.8 E0.02257
G1 X611.2 Y211.8 E0.37652
G1 X611.2 Y212.2 E0.01583
G1 X610.8 Y212.2 E0.01583
G1 X602.8 Y212.2 E0.15061
G1 X602.4 Y212.2 E0.01583
G1 X594.4 Y212.2 E0.15061
G1 X594 Y212.2 E0.01583
G1 X586 Y212.2 E0.15061
G1 X585.6 Y212.2 E0.01583
G1 X577.6 Y212.2 E0.15061
G1 X577.2 Y212.2 E0.01583
G1 X569.2 Y212.2 E0.15061
G1 X568.8 Y212.2 E0.01583
G1 X560.8 Y212.2 E0.15061
G1 X560.4 Y212.2 E0.01583
G1 X552.4 Y212.2 E0.15061
G1 X552 Y212.2 E0.01583
G1 X544 Y212.2 E0.15061
G1 X543.6 Y212.2 E0.01583
G1 X535.6 Y212.2 E0.15061
G1 X535.2 Y212.2 E0.01583
G1 X527.2 Y212.2 E0.15061
G1 X526.8 Y212.2 E0.01583
G1 X518.8 Y212.2 E0.15061
G1 X518.4 Y212.2 E0.01583
G1 X510.4 Y212.2 E0.15061
G1 X510 Y212.2 E0.01583
G1 X502 Y212.2 E0.15061
G1 X501.6 Y212.2 E0.01583
G1 X493.6 Y212.2 E0.15061
G1 X493.2 Y212.2 E0.01583
G1 X485.2 Y212.2 E0.15061
G1 X484.8 Y212.2 E0.01583
G1 X476.8 Y212.2 E0.15061
G1 X476.4 Y212.2 E0.01583
G1 X468.4 Y212.2 E0.15061
G1 X468 Y212.2 E0.01583
G1 X460 Y212.2 E0.15061
G1 X459.6 Y212.2 E0.01583
G1 X451.6 Y212.2 E0.15061
G1 X451.2 Y212.2 E0.01583
G1 X443.2 Y212.2 E0.15061
G1 X442.8 Y212.2 E0.01583
G1 X442.8 Y211.8 E0.01583
G1 X442.8 Y191.8 E0.37652
G1 F1500 E-0.7
G1 F300 Z1.2
G0 F4800 X441.6 Y190.6 Z1.2
M104 T1 S200
;TYPE:WALL-OUTER
G1 F300 Z0.3
G1 F1500 E0.7
G1 F600 X444.4 Y190.6 E0.15801
G1 X444.4 Y210.6 E1.12863
G1 X450 Y210.6 E0.31602
G1 X450 Y190.6 E1.12863
G1 X452.8 Y190.6 E0.15801
G1 X452.8 Y210.6 E1.12863
G1 X458.4 Y210.6 E0.31602
G1 X458.4 Y190.6 E1.12863
G1 X461.2 Y190.6 E0.15801
G1 X461.2 Y210.6 E1.12863
G1 X466.8 Y210.6 E0.31602
G1 X466.8 Y190.6 E1.12863
G1 X469.6 Y190.6 E0.15801
G1 X469.6 Y210.6 E1.12863
G1 X475.2 Y210.6 E0.31602
G1 X475.2 Y190.6 E1.12863
G1 X478 Y190.6 E0.15801
G1 X478 Y210.6 E1.12863
G1 X483.6 Y210.6 E0.31602
G1 X483.6 Y190.6 E1.12863
G1 X486.4 Y190.6 E0.15801
G1 X486.4 Y210.6 E1.12863
G1 X492 Y210.6 E0.31602
G1 X492 Y190.6 E1.12863
G1 X494.8 Y190.6 E0.15801
G1 X494.8 Y210.6 E1.12863
G1 X500.4 Y210.6 E0.31602
G1 X500.4 Y190.6 E1.12863
G1 X503.2 Y190.6 E0.15801
G1 X503.2 Y210.6 E1.12863
G1 X508.8 Y210.6 E0.31602
G1 X508.8 Y190.6 E1.12863
G1 X511.6 Y190.6 E0.15801
G1 X511.6 Y210.6 E1.12863
G1 X517.2 Y210.6 E0.31602
G1 X517.2 Y190.6 E1.12863
G1 X520 Y190.6 E0.15801
G1 X520 Y210.6 E1.12863
G1 X525.6 Y210.6 E0.31602
G1 X525.6 Y190.6 E1.12863
G1 X528.4 Y190.6 E0.15801
G1 X528.4 Y210.6 E1.12863
G1 X534 Y210.6 E0.31602
G1 X534 Y190.6 E1.12863
G1 X536.8 Y190.6 E0.15801
G1 X536.8 Y210.6 E1.12863
G1 X542.4 Y210.6 E0.31602
G1 X542.4 Y190.6 E1.12863
G1 X545.2 Y190.6 E0.15801
G1 X545.2 Y210.6 E1.12863
G1 X550.8 Y210.6 E0.31602
G1 X550.8 Y190.6 E1.12863
G1 X553.6 Y190.6 E0.15801
G1 X553.6 Y210.6 E1.12863
G1 X559.2 Y210.6 E0.31602
G1 X559.2 Y190.6 E1.12863
G1 X562 Y190.6 E0.15801
G1 X562 Y210.6 E1.12863
G1 X567.6 Y210.6 E0.31602
G1 X567.6 Y190.6 E1.12863
G1 X570.4 Y190.6 E0.15801
G1 X570.4 Y210.6 E1.12863
G1 X576 Y210.6 E0.31602
G1 X576 Y190.6 E1.12863
G1 X578.8 Y190.6 E0.15801
G1 X578.8 Y210.6 E1.12863
G1 X584.4 Y210.6 E0.31602
G1 X584.4 Y190.6 E1.12863
G1 X587.2 Y190.6 E0.15801
G1 X587.2 Y210.6 E1.12863
G1 X592.8 Y210.6 E0.31602
G1 X592.8 Y190.6 E1.12863
G1 X595.6 Y190.6 E0.15801
G1 X595.6 Y210.6 E1.12863
G1 X601.2 Y210.6 E0.31602
G1 X601.2 Y190.6 E1.12863
G1 X604 Y190.6 E0.15801
G1 X604 Y210.6 E1.12863
G1 X609.6 Y210.6 E0.31602
G1 X609.6 Y190.6 E1.12863
G1 X612.4 Y190.6 E0.15801
G1 X612.4 Y213.4 E1.28664
G1 X441.6 Y213.4 E9.63853
G1 X441.6 Y190.6 E1.28664
G1 F1200 E-4
G1 F300 Z1.2
T1
M109 S200
M104 T0 S175
M107 P2
G1 F2100 E-0.5
;MESH:CalibrationMultiExtruder1(1)
G0 F4800 X441.6 Y190.6 Z1.2
G1 F300 Z1.2
G0 F4800 X436.37 Y149.748
;TYPE:SKIRT
G1 F300 Z0.3
G1 F2100 E0.5
G1 F600 X438.7 Y149.485 E0.11027
G1 X441.129 Y149.141 E0.11537
G1 X442.479 Y148.918 E0.06435
G1 X443.577 Y148.778 E0.05205
G1 X444.374 Y148.726 E0.03756
G1 X444.732 Y148.712 E0.01685
G1 X445.33 Y148.7 E0.02813
G1 X608.293 Y148.7 E7.66356
G1 X608.49 Y148.701 E0.00926
G1 X609.188 Y148.71 E0.03283
G1 X610.293 Y148.765 E0.05203
G1 X611.391 Y148.898 E0.05201
G1 X612.477 Y149.111 E0.05204
G1 X613.544 Y149.402 E0.05201
G1 X614.587 Y149.769 E0.052
G1 X615.602 Y150.211 E0.05206
G1 X616.581 Y150.724 E0.05198
G1 X617.521 Y151.308 E0.05204
G1 X618.417 Y151.957 E0.05203
G1 X619.263 Y152.67 E0.05203
G1 X620.055 Y153.441 E0.05198
G1 X620.79 Y154.268 E0.05203
G1 X621.463 Y155.146 E0.05202
G1 X622.07 Y156.071 E0.05203
G1 X622.61 Y157.036 E0.052
G1 X623.078 Y158.039 E0.05205
G1 X623.473 Y159.072 E0.05201
G1 X623.791 Y160.131 E0.052
G1 X624.033 Y161.211 E0.05205
G1 X624.196 Y162.305 E0.05201
G1 X624.285 Y163.567 E0.05949
G1 X624.307 Y164.315 E0.03519
G1 X624.415 Y166.817 E0.11777
G1 X624.588 Y169.217 E0.11316
G1 X624.828 Y171.609 E0.11305
G1 X625.131 Y173.954 E0.11119
G1 X625.509 Y176.353 E0.11421
G1 X625.943 Y178.672 E0.11095
G1 X626.446 Y180.995 E0.11177
G1 X627.032 Y183.376 E0.11531
G1 X627.723 Y185.877 E0.12202
G1 X627.979 Y186.953 E0.05201
G1 X628.157 Y188.045 E0.05203
G1 X628.245 Y188.981 E0.04421
G1 X628.269 Y189.358 E0.01776
G1 X628.3 Y190.33 E0.04573
G1 X628.299 Y213.453 E1.08739
G1 X628.29 Y214.18 E0.03419
G1 X628.236 Y215.285 E0.05203
G1 X628.103 Y216.383 E0.05201
G1 X627.89 Y217.469 E0.05204
G1 X627.6 Y218.536 E0.052
G1 X627.234 Y219.58 E0.05203
G1 X626.793 Y220.594 E0.052
G1 X626.279 Y221.574 E0.05204
G1 X625.697 Y222.515 E0.05203
G1 X625.048 Y223.41 E0.05199
G1 X624.336 Y224.257 E0.05203
G1 X623.564 Y225.05 E0.05205
G1 X622.738 Y225.785 E0.052
G1 X621.86 Y226.458 E0.05202
G1 X620.936 Y227.066 E0.05202
G1 X619.971 Y227.606 E0.052
G1 X618.969 Y228.075 E0.05203
G1 X617.936 Y228.47 E0.05201
G1 X616.876 Y228.789 E0.05206
G1 X615.797 Y229.031 E0.052
G1 X614.703 Y229.195 E0.05202
G1 X613.42 Y229.285 E0.06048
G1 X613.099 Y229.294 E0.0151
G1 X612.67 Y229.3 E0.02018
G1 X537.075 Y229.3 E3.55496
G1 X534.614 Y229.335 E0.11574
G1 X532.231 Y229.436 E0.11216
G1 X529.793 Y229.609 E0.11494
G1 X527.444 Y229.842 E0.11101
G1 X525.088 Y230.143 E0.11169
G1 X522.669 Y230.523 E0.11515
G1 X520.366 Y230.951 E0.11016
G1 X517.967 Y231.468 E0.11541
G1 X515.704 Y232.023 E0.10957
G1 X513.35 Y232.67 E0.11481
G1 X511.07 Y233.368 E0.11213
G1 X508.831 Y234.123 E0.11112
G1 X506.532 Y234.971 E0.11523
G1 X504.345 Y235.849 E0.11083
G1 X502.145 Y236.807 E0.11284
G1 X499.934 Y237.843 E0.11482
G1 X497.833 Y238.901 E0.11062
G1 X495.706 Y240.05 E0.11369
G1 X493.655 Y241.232 E0.11132
G1 X491.609 Y242.491 E0.11297
G1 X489.603 Y243.805 E0.11277
G1 X487.609 Y245.194 E0.11428
G1 X485.721 Y246.589 E0.11039
G1 X483.808 Y248.087 E0.11426
G1 X481.98 Y249.606 E0.11177
G1 X480.192 Y251.179 E0.11199
G1 X478.41 Y252.835 E0.1144
G1 X476.73 Y254.49 E0.1109
G1 X475.053 Y256.238 E0.11391
G1 X473.455 Y258.002 E0.11193
G1 X471.871 Y259.85 E0.11446
G1 X470.396 Y261.676 E0.11039
G1 X468.936 Y263.592 E0.11328
G1 X467.535 Y265.54 E0.11284
G1 X466.192 Y267.523 E0.11263
G1 X464.896 Y269.561 E0.11358
G1 X463.687 Y271.585 E0.11087
G1 X462.503 Y273.701 E0.11403
G1 X461.398 Y275.814 E0.11213
G1 X460.344 Y277.975 E0.11307
G1 X459.367 Y280.135 E0.11148
G1 X458.435 Y282.358 E0.11336
G1 X457.557 Y284.624 E0.11428
G1 X456.775 Y286.839 E0.11046
G1 X456.025 Y289.163 E0.11484
G1 X455.364 Y291.427 E0.11091
G1 X454.763 Y293.73 E0.11193
G1 X454.216 Y296.097 E0.11425
G1 X453.739 Y298.456 E0.11318
G1 X453.335 Y300.804 E0.11204
G1 X452.997 Y303.164 E0.11211
G1 X452.725 Y305.543 E0.1126
G1 X452.521 Y307.9 E0.11126
G1 X452.38 Y310.354 E0.11559
G1 X452.31 Y312.728 E0.11169
G1 X452.3 Y314.111 E0.06504
G1 X452.299 Y331.474 E0.81652
G1 X452.289 Y332.201 E0.03419
G1 X452.233 Y333.306 E0.05203
G1 X452.099 Y334.404 E0.05202
G1 X451.885 Y335.489 E0.05201
G1 X451.593 Y336.556 E0.05202
G1 X451.225 Y337.6 E0.05206
G1 X450.783 Y338.613 E0.05197
G1 X450.268 Y339.593 E0.05206
G1 X449.684 Y340.532 E0.052
G1 X449.034 Y341.427 E0.05202
G1 X448.321 Y342.272 E0.05199
G1 X447.548 Y343.064 E0.05204
G1 X446.72 Y343.798 E0.05203
G1 X445.842 Y344.47 E0.05199
G1 X444.917 Y345.077 E0.05203
G1 X443.951 Y345.616 E0.05202
G1 X442.948 Y346.083 E0.05203
G1 X441.915 Y346.477 E0.05199
G1 X440.855 Y346.795 E0.05204
G1 X439.775 Y347.035 E0.05203
G1 X438.681 Y347.197 E0.05201
G1 X437.433 Y347.285 E0.05883
G1 X436.683 Y347.307 E0.03528
G1 X434.182 Y347.416 E0.11772
G1 X431.786 Y347.588 E0.11297
G1 X429.391 Y347.828 E0.11319
G1 X427.046 Y348.131 E0.11119
G1 X424.647 Y348.509 E0.11421
G1 X422.328 Y348.943 E0.11095
G1 X420.005 Y349.446 E0.11177
G1 X417.624 Y350.032 E0.11531
G1 X415.123 Y350.723 E0.12202
G1 X414.047 Y350.979 E0.05201
G1 X412.955 Y351.157 E0.05203
G1 X412.019 Y351.245 E0.04421
G1 X411.642 Y351.269 E0.01776
G1 X410.67 Y351.3 E0.04573
G1 X387.51 Y351.299 E1.08913
G1 X386.812 Y351.29 E0.03283
G1 X385.707 Y351.235 E0.05203
G1 X384.609 Y351.102 E0.05201
G1 X383.523 Y350.889 E0.05204
G1 X382.456 Y350.598 E0.05201
G1 X381.413 Y350.231 E0.052
G1 X380.398 Y349.789 E0.05206
G1 X379.419 Y349.276 E0.05198
G1 X378.479 Y348.692 E0.05204
G1 X377.583 Y348.043 E0.05203
G1 X376.737 Y347.33 E0.05203
G1 X375.945 Y346.559 E0.05198
G1 X375.21 Y345.732 E0.05203
G1 X374.537 Y344.854 E0.05202
G1 X373.93 Y343.929 E0.05203
G1 X373.39 Y342.964 E0.052
G1 X372.922 Y341.961 E0.05205
G1 X372.527 Y340.928 E0.05201
G1 X372.209 Y339.869 E0.052
G1 X371.967 Y338.789 E0.05205
G1 X371.804 Y337.695 E0.05201
G1 X371.715 Y336.404 E0.06086
G1 X371.706 Y336.071 E0.01567
G1 X371.7 Y335.658 E0.01942
G1 X371.7 Y164.674 E8.04076
G1 X371.712 Y163.779 E0.04209
G1 X371.768 Y162.674 E0.05203
G1 X371.905 Y161.576 E0.05204
G1 X372.12 Y160.491 E0.05202
G1 X372.413 Y159.425 E0.05199
G1 X372.782 Y158.382 E0.05203
G1 X373.226 Y157.369 E0.05201
G1 X373.742 Y156.39 E0.05204
G1 X374.327 Y155.452 E0.05199
G1 X374.978 Y154.558 E0.05201
G1 X375.693 Y153.713 E0.05205
G1 X376.466 Y152.922 E0.05201
G1 X377.295 Y152.189 E0.05204
G1 X378.174 Y151.518 E0.052
G1 X379.1 Y150.913 E0.05202
G1 X380.067 Y150.375 E0.05204
G1 X381.07 Y149.909 E0.05201
G1 X382.104 Y149.517 E0.052
G1 X383.164 Y149.2 E0.05203
G1 X384.244 Y148.961 E0.05202
G1 X385.338 Y148.801 E0.05199
G1 X386.58 Y148.715 E0.05855
G1 X386.9 Y148.706 E0.01505
G1 X387.33 Y148.7 E0.02022
G1 X410.512 Y148.702 E1.09017
G1 X411.21 Y148.712 E0.03283
G1 X412.315 Y148.767 E0.05203
G1 X413.392 Y148.9 E0.05103
G1 X414.737 Y149.114 E0.06405
G1 X417.22 Y149.468 E0.11795
G1 X419.591 Y149.739 E0.11223
G1 X422.001 Y149.946 E0.11375
G1 X424.358 Y150.081 E0.11102
G1 X426.792 Y150.151 E0.11451
G1 X429.177 Y150.153 E0.11216
G1 X431.551 Y150.087 E0.11168
G1 X433.953 Y149.952 E0.11314
G1 X436.37 Y149.748 E0.11407
G1 F2100 E-0.5
G1 F300 Z1.3
G0 F4800 X435.5 Y330.5 Z1.3
;TYPE:WALL-INNER
G1 F300 Z0.3
G1 F2100 E0.5
G1 F600 X414.5 Y330.5 E0.98755
G1 X414.5 Y329.5 E0.04703
G1 X434.5 Y329.5 E0.94053
G1 X434.5 Y322.5 E0.32918
G1 X414.5 Y322.5 E0.94053
G1 X414.5 Y321.5 E0.04703
G1 X434.5 Y321.5 E0.94053
G1 X434.5 Y314.5 E0.32918
G1 X414.5 Y314.5 E0.94053
G1 X414.5 Y313.5 E0.04703
G1 X434.5 Y313.5 E0.94053
G1 X434.5 Y306.5 E0.32918
G1 X414.5 Y306.5 E0.94053
G1 X414.5 Y305.5 E0.04703
G1 X434.5 Y305.5 E0.94053
G1 X434.5 Y298.5 E0.32918
G1 X414.5 Y298.5 E0.94053
G1 X414.5 Y297.5 E0.04703
G1 X434.5 Y297.5 E0.94053
G1 X434.5 Y290.5 E0.32918
G1 X414.5 Y290.5 E0.94053
G1 X414.5 Y289.5 E0.04703
G1 X434.5 Y289.5 E0.94053
G1 X434.5 Y282.5 E0.32918
G1 X414.5 Y282.5 E0.94053
G1 X414.5 Y281.5 E0.04703
G1 X434.5 Y281.5 E0.94053
G1 X434.5 Y274.5 E0.32918
G1 X414.5 Y274.5 E0.94053
G1 X414.5 Y273.5 E0.04703
G1 X434.5 Y273.5 E0.94053
G1 X434.5 Y266.5 E0.32918
G1 X414.5 Y266.5 E0.94053
G1 X414.5 Y265.5 E0.04703
G1 X434.5 Y265.5 E0.94053
G1 X434.5 Y258.5 E0.32918
G1 X414.5 Y258.5 E0.94053
G1 X414.5 Y257.5 E0.04703
G1 X434.5 Y257.5 E0.94053
G1 X434.5 Y250.5 E0.32918
G1 X414.5 Y250.5 E0.94053
G1 X414.5 Y249.5 E0.04703
G1 X434.5 Y249.5 E0.94053
G1 X434.5 Y242.5 E0.32918
G1 X414.5 Y242.5 E0.94053
G1 X414.5 Y241.5 E0.04703
G1 X434.5 Y241.5 E0.94053
G1 X434.5 Y234.5 E0.32918
G1 X414.5 Y234.5 E0.94053
G1 X414.5 Y233.5 E0.04703
G1 X434.5 Y233.5 E0.94053
G1 X434.5 Y226.5 E0.32918
G1 X414.5 Y226.5 E0.94053
G1 X414.5 Y225.5 E0.04703
G1 X434.5 Y225.5 E0.94053
G1 X434.5 Y218.5 E0.32918
G1 X414.5 Y218.5 E0.94053
G1 X414.5 Y217.5 E0.04703
G1 X434.5 Y217.5 E0.94053
G1 X434.5 Y210.5 E0.32918
G1 X414.5 Y210.5 E0.94053
G1 X414.5 Y209.5 E0.04703
G1 X434.5 Y209.5 E0.94053
G1 X434.5 Y202.5 E0.32918
G1 X414.5 Y202.5 E0.94053
G1 X414.5 Y201.5 E0.04703
G1 X434.5 Y201.5 E0.94053
G1 X434.5 Y194.5 E0.32918
G1 X414.5 Y194.5 E0.94053
G1 X414.5 Y193.5 E0.04703
G1 X434.5 Y193.5 E0.94053
G1 X434.5 Y186.5 E0.32918
G1 X414.5 Y186.5 E0.94053
G1 X414.5 Y185.5 E0.04703
G1 X434.5 Y185.5 E0.94053
G1 X434.5 Y178.5 E0.32918
G1 X414.5 Y178.5 E0.94053
G1 X414.5 Y177.5 E0.04703
G1 X434.5 Y177.5 E0.94053
G1 X434.5 Y170.5 E0.32918
G1 X414.5 Y170.5 E0.94053
G1 X414.5 Y169.5 E0.04703
G1 X435.5 Y169.5 E0.98755
G1 X435.5 Y330.5 E7.57125
G0 F4800 X436.5 Y331.5
;TYPE:WALL-OUTER
G1 F600 X413.5 Y331.5 E1.08161
G1 X413.5 Y328.5 E0.14108
G1 X433.5 Y328.5 E0.94053
G1 X433.5 Y323.5 E0.23513
G1 X413.5 Y323.5 E0.94053
G1 X413.5 Y320.5 E0.14108
G1 X433.5 Y320.5 E0.94053
G1 X433.5 Y315.5 E0.23513
G1 X413.5 Y315.5 E0.94053
G1 X413.5 Y312.5 E0.14108
G1 X433.5 Y312.5 E0.94053
G1 X433.5 Y307.5 E0.23513
G1 X413.5 Y307.5 E0.94053
G1 X413.5 Y304.5 E0.14108
G1 X433.5 Y304.5 E0.94053
G1 X433.5 Y299.5 E0.23513
G1 X413.5 Y299.5 E0.94053
G1 X413.5 Y296.5 E0.14108
G1 X433.5 Y296.5 E0.94053
G1 X433.5 Y291.5 E0.23513
G1 X413.5 Y291.5 E0.94053
G1 X413.5 Y288.5 E0.14108
G1 X433.5 Y288.5 E0.94053
G1 X433.5 Y283.5 E0.23513
G1 X413.5 Y283.5 E0.94053
G1 X413.5 Y280.5 E0.14108
G1 X433.5 Y280.5 E0.94053
G1 X433.5 Y275.5 E0.23513
G1 X413.5 Y275.5 E0.94053
G1 X413.5 Y272.5 E0.14108
G1 X433.5 Y272.5 E0.94053
G1 X433.5 Y267.5 E0.23513
G1 X413.5 Y267.5 E0.94053
G1 X413.5 Y264.5 E0.14108
G1 X433.5 Y264.5 E0.94053
G1 X433.5 Y259.5 E0.23513
G1 X413.5 Y259.5 E0.94053
G1 X413.5 Y256.5 E0.14108
G1 X433.5 Y256.5 E0.94053
G1 X433.5 Y251.5 E0.23513
G1 X413.5 Y251.5 E0.94053
G1 X413.5 Y248.5 E0.14108
G1 X433.5 Y248.5 E0.94053
G1 X433.5 Y243.5 E0.23513
G1 X413.5 Y243.5 E0.94053
G1 X413.5 Y240.5 E0.14108
G1 X433.5 Y240.5 E0.94053
G1 X433.5 Y235.5 E0.23513
G1 X413.5 Y235.5 E0.94053
G1 X413.5 Y232.5 E0.14108
G1 X433.5 Y232.5 E0.94053
G1 X433.5 Y227.5 E0.23513
G1 X413.5 Y227.5 E0.94053
G1 X413.5 Y224.5 E0.14108
G1 X433.5 Y224.5 E0.94053
G1 X433.5 Y219.5 E0.23513
G1 X413.5 Y219.5 E0.94053
G1 X413.5 Y216.5 E0.14108
G1 X433.5 Y216.5 E0.94053
G1 X433.5 Y211.5 E0.23513
G1 X413.5 Y211.5 E0.94053
G1 X413.5 Y208.5 E0.14108
G1 X433.5 Y208.5 E0.94053
G1 X433.5 Y203.5 E0.23513
G1 X413.5 Y203.5 E0.94053
G1 X413.5 Y200.5 E0.14108
G1 X433.5 Y200.5 E0.94053
G1 X433.5 Y195.5 E0.23513
G1 X413.5 Y195.5 E0.94053
G1 X413.5 Y192.5 E0.14108
G1 X433.5 Y192.5 E0.94053
G1 X433.5 Y187.5 E0.23513
G1 X413.5 Y187.5 E0.94053
G1 X413.5 Y184.5 E0.14108
G1 X433.5 Y184.5 E0.94053
G1 X433.5 Y179.5 E0.23513
G1 X413.5 Y179.5 E0.94053
G1 X413.5 Y176.5 E0.14108
G1 X433.5 Y176.5 E0.94053
G1 X433.5 Y171.5 E0.23513
G1 X413.5 Y171.5 E0.94053
G1 X413.5 Y168.5 E0.14108
G1 X436.5 Y168.5 E1.08161
G1 X436.5 Y331.5 E7.6653
G1 F2100 E-0.5
G1 F300 Z1.3
G0 F4800 X502.5 Y186.5 Z1.3
;TYPE:WALL-INNER
G1 F300 Z0.3
G1 F2100 E0.5
G1 F600 X502.5 Y166.5 E0.94053
G1 X495.5 Y166.5 E0.32918
G1 X495.5 Y186.5 E0.94053
G1 X494.5 Y186.5 E0.04703
G1 X494.5 Y166.5 E0.94053
G1 X487.5 Y166.5 E0.32918
G1 X487.5 Y186.5 E0.94053
G1 X486.5 Y186.5 E0.04703
G1 X486.5 Y166.5 E0.94053
G1 X479.5 Y166.5 E0.32918
G1 X479.5 Y186.5 E0.94053
G1 X478.5 Y186.5 E0.04703
G1 X478.5 Y166.5 E0.94053
G1 X471.5 Y166.5 E0.32918
G1 X471.5 Y186.5 E0.94053
G1 X470.5 Y186.5 E0.04703
G1 X470.5 Y166.5 E0.94053
G1 X463.5 Y166.5 E0.32918
G1 X463.5 Y186.5 E0.94053
G1 X462.5 Y186.5 E0.04703
G1 X462.5 Y166.5 E0.94053
G1 X455.5 Y166.5 E0.32918
G1 X455.5 Y186.5 E0.94053
G1 X454.5 Y186.5 E0.04703
G1 X454.5 Y166.5 E0.94053
G1 X447.5 Y166.5 E0.32918
G1 X447.5 Y186.5 E0.94053
G1 X446.5 Y186.5 E0.04703
G1 X446.5 Y165.5 E0.98755
G1 X607.5 Y165.5 E7.57125
G1 X607.5 Y186.5 E0.98755
G1 X606.5 Y186.5 E0.04703
G1 X606.5 Y166.5 E0.94053
G1 X599.5 Y166.5 E0.32918
G1 X599.5 Y186.5 E0.94053
G1 X598.5 Y186.5 E0.04703
G1 X598.5 Y166.5 E0.94053
G1 X591.5 Y166.5 E0.32918
G1 X591.5 Y186.5 E0.94053
G1 X590.5 Y186.5 E0.04703
G1 X590.5 Y166.5 E0.94053
G1 X583.5 Y166.5 E0.32918
G1 X583.5 Y186.5 E0.94053
G1 X582.5 Y186.5 E0.04703
G1 X582.5 Y166.5 E0.94053
G1 X575.5 Y166.5 E0.32918
G1 X575.5 Y186.5 E0.94053
G1 X574.5 Y186.5 E0.04703
G1 X574.5 Y166.5 E0.94053
G1 X567.5 Y166.5 E0.32918
G1 X567.5 Y186.5 E0.94053
G1 X566.5 Y186.5 E0.04703
G1 X566.5 Y166.5 E0.94053
G1 X559.5 Y166.5 E0.32918
G1 X559.5 Y186.5 E0.94053
G1 X558.5 Y186.5 E0.04703
G1 X558.5 Y166.5 E0.94053
G1 X551.5 Y166.5 E0.32918
G1 X551.5 Y186.5 E0.94053
G1 X550.5 Y186.5 E0.04703
G1 X550.5 Y166.5 E0.94053
G1 X543.5 Y166.5 E0.32918
G1 X543.5 Y186.5 E0.94053
G1 X542.5 Y186.5 E0.04703
G1 X542.5 Y166.5 E0.94053
G1 X535.5 Y166.5 E0.32918
G1 X535.5 Y186.5 E0.94053
G1 X534.5 Y186.5 E0.04703
G1 X534.5 Y166.5 E0.94053
G1 X527.5 Y166.5 E0.32918
G1 X527.5 Y186.5 E0.94053
G1 X526.5 Y186.5 E0.04703
G1 X526.5 Y166.5 E0.94053
G1 X519.5 Y166.5 E0.32918
G1 X519.5 Y186.5 E0.94053
G1 X518.5 Y186.5 E0.04703
G1 X518.5 Y166.5 E0.94053
G1 X511.5 Y166.5 E0.32918
G1 X511.5 Y186.5 E0.94053
G1 X510.5 Y186.5 E0.04703
G1 X510.5 Y166.5 E0.94053
G1 X503.5 Y166.5 E0.32918
G1 X503.5 Y186.5 E0.94053
G1 X502.5 Y186.5 E0.04703
G0 F4800 X501.5 Y187.5
M104 T0 S210
;TYPE:WALL-OUTER
G1 F600 X501.5 Y167.5 E0.94053
G1 X496.5 Y167.5 E0.23513
G1 X496.5 Y187.5 E0.94053
G1 X493.5 Y187.5 E0.14108
G1 X493.5 Y167.5 E0.94053
G1 X488.5 Y167.5 E0.23513
G1 X488.5 Y187.5 E0.94053
G1 X485.5 Y187.5 E0.14108
G1 X485.5 Y167.5 E0.94053
G1 X480.5 Y167.5 E0.23513
G1 X480.5 Y187.5 E0.94053
G1 X477.5 Y187.5 E0.14108
G1 X477.5 Y167.5 E0.94053
G1 X472.5 Y167.5 E0.23513
G1 X472.5 Y187.5 E0.94053
G1 X469.5 Y187.5 E0.14108
G1 X469.5 Y167.5 E0.94053
G1 X464.5 Y167.5 E0.23513
G1 X464.5 Y187.5 E0.94053
G1 X461.5 Y187.5 E0.14108
G1 X461.5 Y167.5 E0.94053
G1 X456.5 Y167.5 E0.23513
G1 X456.5 Y187.5 E0.94053
G1 X453.5 Y187.5 E0.14108
G1 X453.5 Y167.5 E0.94053
G1 X448.5 Y167.5 E0.23513
G1 X448.5 Y187.5 E0.94053
G1 X445.5 Y187.5 E0.14108
G1 X445.5 Y164.5 E1.08161
G1 X608.5 Y164.5 E7.6653
G1 X608.5 Y187.5 E1.08161
G1 X605.5 Y187.5 E0.14108
G1 X605.5 Y167.5 E0.94053
G1 X600.5 Y167.5 E0.23513
G1 X600.5 Y187.5 E0.94053
G1 X597.5 Y187.5 E0.14108
G1 X597.5 Y167.5 E0.94053
G1 X592.5 Y167.5 E0.23513
G1 X592.5 Y187.5 E0.94053
G1 X589.5 Y187.5 E0.14108
G1 X589.5 Y167.5 E0.94053
G1 X584.5 Y167.5 E0.23513
G1 X584.5 Y187.5 E0.94053
G1 X581.5 Y187.5 E0.14108
G1 X581.5 Y167.5 E0.94053
G1 X576.5 Y167.5 E0.23513
G1 X576.5 Y187.5 E0.94053
G1 X573.5 Y187.5 E0.14108
G1 X573.5 Y167.5 E0.94053
G1 X568.5 Y167.5 E0.23513
G1 X568.5 Y187.5 E0.94053
G1 X565.5 Y187.5 E0.14108
G1 X565.5 Y167.5 E0.94053
G1 X560.5 Y167.5 E0.23513
G1 X560.5 Y187.5 E0.94053
G1 X557.5 Y187.5 E0.14108
G1 X557.5 Y167.5 E0.94053
G1 X552.5 Y167.5 E0.23513
G1 X552.5 Y187.5 E0.94053
G1 X549.5 Y187.5 E0.14108
G1 X549.5 Y167.5 E0.94053
G1 X544.5 Y167.5 E0.23513
G1 X544.5 Y187.5 E0.94053
G1 X541.5 Y187.5 E0.14108
G1 X541.5 Y167.5 E0.94053
G1 X536.5 Y167.5 E0.23513
G1 X536.5 Y187.5 E0.94053
G1 X533.5 Y187.5 E0.14108
G1 X533.5 Y167.5 E0.94053
G1 X528.5 Y167.5 E0.23513
G1 X528.5 Y187.5 E0.94053
G1 X525.5 Y187.5 E0.14108
G1 X525.5 Y167.5 E0.94053
G1 X520.5 Y167.5 E0.23513
G1 X520.5 Y187.5 E0.94053
G1 X517.5 Y187.5 E0.14108
G1 X517.5 Y167.5 E0.94053
G1 X512.5 Y167.5 E0.23513
G1 X512.5 Y187.5 E0.94053
G1 X509.5 Y187.5 E0.14108
G1 X509.5 Y167.5 E0.94053
G1 X504.5 Y167.5 E0.23513
G1 X504.5 Y187.5 E0.94053
G1 X501.5 Y187.5 E0.14108
G1 F2100 E-0.5
G1 F300 Z1.3
;MESH:NONMESH
G0 F4800 X435.5 Y250.5 Z1.3
;TIME_ELAPSED:1394.467221
;LAYER:1
M140 S50
M106 S127.5 P2
;MESH:CalibrationMultiExtruder1(1)
G0 F7800 X435.5 Y250.5 Z1.6
;TYPE:WALL-INNER
G1 F300 Z0.6
G1 F2100 E0.5
G1 F1050 X424.5 Y250.5 E0.51729
G1 X424.5 Y249.5 E0.04703
G1 X435.5 Y249.5 E0.51729
G1 X435.5 Y250.5 E0.04703
G0 F7800 X436.5 Y251.5
;TYPE:WALL-OUTER
G1 F1050 X423.5 Y251.5 E0.61134
G1 X423.5 Y248.5 E0.14108
G1 X436.5 Y248.5 E0.61134
G1 X436.5 Y251.5 E0.14108
G1 F2100 E-0.5
G1 F300 Z1.6
G0 F7800 X526.5 Y176.5 Z1.6
;TYPE:WALL-INNER
G1 F300 Z0.6
G1 F2100 E0.5
G1 F1050 X526.5 Y165.5 E0.51729
G1 X527.5 Y165.5 E0.04703
G1 X527.5 Y176.5 E0.51729
G1 X526.5 Y176.5 E0.04703
G0 F7800 X525.5 Y177.5
;TYPE:WALL-OUTER
G1 F1050 X525.5 Y164.5 E0.61134
G1 X528.5 Y164.5 E0.14108
G1 X528.5 Y177.5 E0.61134
G1 X525.5 Y177.5 E0.14108
G1 F1200 E-4
G1 F300 Z1.5
T0
M109 S210
M104 T1 S0
M106 S127.5
G1 F1200 E3.3
;MESH:CalibrationMultiExtruder1
G0 F7800 X525.5 Y177.5 Z1.5
G1 F300 Z1.5
G0 F7800 X388.8 Y249.8
;TYPE:WALL-INNER
G1 F300 Z0.6
G1 F1500 E0.7
G1 F840 X399.2 Y249.8 E0.58689
G1 X399.2 Y250.2 E0.02257
G1 X388.8 Y250.2 E0.19579
G1 X388.8 Y249.8 E0.02257
G1 F1500 E-0.7
G1 F300 Z1.5
G0 F7800 X387.6 Y248.6 Z1.5
;TYPE:WALL-OUTER
G1 F300 Z0.6
G1 F1500 E0.7
G1 F840 X400.4 Y248.6 E0.72233
G1 X400.4 Y251.4 E0.15801
G1 X387.6 Y251.4 E0.72233
G1 X387.6 Y248.6 E0.15801
G1 F1500 E-0.7
G1 F300 Z1.5
G0 F7800 X526.8 Y201.8 Z1.5
;TYPE:WALL-INNER
G1 F300 Z0.6
G1 F1500 E0.7
G1 F840 X527.2 Y201.8 E0.02257
G1 X527.2 Y212.2 E0.58689
G1 X526.8 Y212.2 E0.02257
G1 X526.8 Y201.8 E0.19579
G1 F1500 E-0.7
G1 F300 Z1.5
G0 F7800 X525.6 Y200.6 Z1.5
;TYPE:WALL-OUTER
G1 F300 Z0.6
G1 F1500 E0.7
G1 F840 X528.4 Y200.6 E0.15801
G1 X528.4 Y213.4 E0.72233
G1 X525.6 Y213.4 E0.15801
G1 X525.6 Y200.6 E0.72233
;TIME_ELAPSED:1426.277300
G1 F1500 E-0.7
M140 S0
M141 S0
M82 ;absolute extrusion mode
M107
G1 X5 Y5 F3000 ;Wipe out
G90 ;Absolute positionning
G1 Z10
T0
G1 X0 Y0 ;Present print
M106 S0 ;Turn-off fan
M104 T0 S0 ;Turn-off hotend
M104 T1 S0 ;Turn-off hotend
M140 S0 ;Turn-off bed
M84 X Y E ;Disable all steppers but Z
M98 P"endPrint.g"
M83 ;relative extrusion mode
M104 S0
;End of Gcode
;SETTING_3 {"global_quality": "[general]\\nversion = 4\\nname = Setting XY CAL\\
;SETTING_3 ndefinition = fabbrix_elemento_v2\\n\\n[metadata]\\nquality_type = st
;SETTING_3 andard\\nsetting_version = 14\\ntype = quality_changes\\n\\n[values]\
;SETTING_3 \nadhesion_type = skirt\\nlayer_height_0 = 0.3\\nmaterial_bed_tempera
;SETTING_3 ture = 50\\nmaterial_bed_temperature_layer_0 = 50\\nprime_tower_enabl
;SETTING_3 e = False\\nprime_tower_position_x = 60\\nprime_tower_position_y = 30
;SETTING_3 \\nretraction_combing = off\\n\\n", "extruder_quality": ["[general]\\
;SETTING_3 nversion = 4\\nname = Setting XY CAL\\ndefinition = fabbrix_elemento_
;SETTING_3 v2\\n\\n[metadata]\\nintent_category = default\\nquality_type = stand
;SETTING_3 ard\\nposition = 0\\nsetting_version = 14\\ntype = quality_changes\\n
;SETTING_3 \\n[values]\\nbottom_layers = 0\\ninfill_sparse_density = 0\\nmateria
;SETTING_3 l_print_temperature = 210\\nmultiple_mesh_overlap = 0.0\\nprime_tower
;SETTING_3 _flow = 120\\nprime_tower_min_volume = 12\\nretraction_amount = 0.7\\
;SETTING_3 nretraction_hop = 0.9\\nretraction_hop_after_extruder_switch_height =
;SETTING_3  0.9\\nretraction_hop_enabled = True\\nskirt_line_count = 4\\nspeed_l
;SETTING_3 ayer_0 = 10\\nspeed_travel = 180\\nswitch_extruder_retraction_amount 
;SETTING_3 = 4\\ntop_layers = 0\\nwall_line_count = 2\\nz_seam_corner = z_seam_c
;SETTING_3 orner_outer\\nz_seam_position = frontleft\\nz_seam_relative = True\\n
;SETTING_3 zig_zaggify_infill = True\\n\\n", "[general]\\nversion = 4\\nname = S
;SETTING_3 etting XY CAL\\ndefinition = fabbrix_elemento_v2\\n\\n[metadata]\\nin
;SETTING_3 tent_category = default\\nquality_type = standard\\nposition = 1\\nse
;SETTING_3 tting_version = 14\\ntype = quality_changes\\n\\n[values]\\nbottom_la
;SETTING_3 yers = 0\\ninfill_sparse_density = 0\\ninitial_bottom_layers = 0\\nre
;SETTING_3 traction_amount = 0.5\\nretraction_hop = 1\\nretraction_hop_after_ext
;SETTING_3 ruder_switch_height = 0.9\\nretraction_hop_enabled = True\\nretractio
;SETTING_3 n_speed = 35\\nspeed_layer_0 = 10\\nspeed_travel = 180\\nswitch_extru
;SETTING_3 der_retraction_amount = 4\\ntop_layers = 0\\nwall_line_count = 2\\n\\
;SETTING_3 n"]}
