;FLAVOR:RepRap
;TIME:1420
;Filament used: 0.38247m, 0.146072m
;Layer height: 0.3
;MINX:372.725
;MINY:149.725
;MINZ:0.3
;MAXX:627.275
;MAXY:350.275
;MAXZ:1.6
;LINEARADVANCEPROCESSED
;Generated with Cura_SteamEngine 4.6.2
T0
M190 S50
M104 S210
M104 T1 S175
M109 S210
M109 T1 S175
M82 ;absolute extrusion mode
T0
M104 S200
M109 S200
M98 P"startPrint.g"
M82 ;absolute extrusion mode
G21 ;metric values
G90 ;absolute positioning
M83 ;set extruder to relative mode
M107 ;start with the fan off
M109 S200 B210 F1;activate auto temp min 180 max 210 scaling factor 1 (for PLA)
G28; Home Axis
G29 S1; Z-Probe the bed (requires Z-Probe!)
G1 Z5.0 F9000 ;move the head 5mm up for CYA clearance
G92 E0 ;zero the extruded length
M117 Cleaning...;Put Cleaning message on screen
G1 X-20 Y0 F4000 ; move half way along the front edge
G1 Z1 ; move nozzle close to bed
M109 S200 ; heat nozzle to 200 degC and wait until reached
G4 P1000 ; wait 10 seconds for nozzle length to stabilize
G1 E15 ; extrude 10 mm of filament
G1 Z15 F12000 E5 ; move 15 mm up, fast, while extruding 5mm
G92 E0 ; reset extruder
M117 Printing...;Put printing message on LCD screen
M141 S28
M83 ;relative extrusion mode
G1 F1500 E-0.7
;LAYER_COUNT:2
M572 S0.000000 D1 ;added by LinearAdvanceSettingPlugin
M572 S0.000000 D0 ;added by LinearAdvanceSettingPlugin
;LAYER:0
M107
G1 F300 Z1.2
G0 F4800 X411.141 Y153.511 Z1.2
;TYPE:SKIRT
G1 F300 Z0.3
G1 F1500 E0.7
G1 F600 X412.056 Y153.564 E0.0431
G1 X412.639 Y153.64 E0.02765
G1 X414.073 Y153.868 E0.06828
G1 X416.601 Y154.229 E0.12009
G1 X419.134 Y154.518 E0.11989
G1 X421.631 Y154.733 E0.11786
G1 X424.158 Y154.877 E0.11903
G1 X426.72 Y154.951 E0.12053
G1 X429.236 Y154.953 E0.11832
G1 X431.779 Y154.883 E0.11963
G1 X434.269 Y154.742 E0.11728
G1 X436.817 Y154.527 E0.12025
G1 X439.342 Y154.242 E0.1195
G1 X441.844 Y153.888 E0.11883
G1 X443.261 Y153.654 E0.06754
G1 X444.562 Y153.522 E0.0615
G1 X444.92 Y153.508 E0.01685
G1 X445.33 Y153.5 E0.01928
G1 X608.293 Y153.5 E7.66356
G1 X609.126 Y153.51 E0.03918
G1 X610.041 Y153.562 E0.0431
G1 X610.948 Y153.693 E0.0431
G1 X611.84 Y153.903 E0.04309
G1 X612.71 Y154.19 E0.04308
G1 X613.552 Y154.551 E0.04308
G1 X614.359 Y154.985 E0.04309
G1 X615.126 Y155.487 E0.04311
G1 X615.845 Y156.055 E0.04309
G1 X616.513 Y156.683 E0.04312
G1 X617.123 Y157.366 E0.04306
G1 X617.671 Y158.1 E0.04308
G1 X618.153 Y158.88 E0.04312
G1 X618.565 Y159.698 E0.04307
G1 X618.905 Y160.549 E0.0431
G1 X619.168 Y161.427 E0.0431
G1 X619.355 Y162.324 E0.04309
G1 X619.462 Y163.234 E0.04309
G1 X619.487 Y163.706 E0.02223
G1 X619.51 Y164.516 E0.03811
G1 X619.622 Y167.089 E0.12111
G1 X619.804 Y169.612 E0.11896
G1 X620.057 Y172.141 E0.11952
G1 X620.38 Y174.638 E0.1184
G1 X620.779 Y177.171 E0.12059
G1 X621.243 Y179.649 E0.11856
G1 X621.766 Y182.069 E0.11643
G1 X622.381 Y184.564 E0.12084
G1 X623.097 Y187.156 E0.12646
G1 X623.302 Y188.049 E0.04309
G1 X623.455 Y189.286 E0.05861
G1 X623.479 Y189.663 E0.01776
G1 X623.5 Y190.33 E0.03138
G1 X623.499 Y213.394 E1.08462
G1 X623.49 Y214.121 E0.03419
G1 X623.439 Y215.036 E0.0431
G1 X623.308 Y215.943 E0.0431
G1 X623.099 Y216.835 E0.04308
G1 X622.812 Y217.705 E0.04308
G1 X622.451 Y218.547 E0.04308
G1 X622.018 Y219.355 E0.04311
G1 X621.516 Y220.121 E0.04307
G1 X620.949 Y220.841 E0.0431
G1 X620.321 Y221.509 E0.04312
G1 X619.638 Y222.119 E0.04306
G1 X618.904 Y222.668 E0.0431
G1 X618.125 Y223.15 E0.04308
G1 X617.307 Y223.563 E0.04309
G1 X616.456 Y223.903 E0.0431
G1 X615.579 Y224.167 E0.04307
G1 X614.682 Y224.354 E0.04309
G1 X613.772 Y224.462 E0.04309
G1 X613.285 Y224.487 E0.02293
G1 X612.67 Y224.5 E0.02893
G1 X537.077 Y224.5 E3.55487
G1 X534.483 Y224.537 E0.122
G1 X531.936 Y224.645 E0.11988
G1 X529.409 Y224.824 E0.11913
G1 X526.888 Y225.074 E0.11914
G1 X524.398 Y225.393 E0.11805
G1 X521.87 Y225.79 E0.12034
G1 X519.399 Y226.249 E0.11819
G1 X516.936 Y226.779 E0.11848
G1 X514.478 Y227.382 E0.11902
G1 X512.014 Y228.059 E0.12017
G1 X509.594 Y228.8 E0.11902
G1 X507.207 Y229.605 E0.11846
G1 X504.829 Y230.483 E0.11921
G1 X502.488 Y231.423 E0.11863
G1 X500.148 Y232.441 E0.12
G1 X497.871 Y233.508 E0.11825
G1 X495.594 Y234.654 E0.11988
G1 X493.371 Y235.855 E0.11882
G1 X491.18 Y237.119 E0.11895
G1 X489.036 Y238.438 E0.11838
G1 X486.915 Y239.827 E0.11923
G1 X484.846 Y241.268 E0.11857
G1 X482.788 Y242.789 E0.12034
G1 X480.809 Y244.339 E0.11821
G1 X478.861 Y245.957 E0.11909
G1 X476.961 Y247.628 E0.11899
G1 X475.095 Y249.363 E0.11982
G1 X473.297 Y251.135 E0.11872
G1 X471.545 Y252.96 E0.11897
G1 X469.858 Y254.822 E0.11816
G1 X468.192 Y256.766 E0.1204
G1 X466.609 Y258.727 E0.11852
G1 X465.083 Y260.729 E0.11838
G1 X463.585 Y262.812 E0.12066
G1 X462.176 Y264.892 E0.11814
G1 X460.827 Y267.013 E0.11821
G1 X459.517 Y269.207 E0.12017
G1 X458.295 Y271.391 E0.11769
G1 X457.108 Y273.661 E0.12046
G1 X456.004 Y275.925 E0.11845
G1 X454.954 Y278.245 E0.11975
G1 X453.977 Y280.577 E0.1189
G1 X453.065 Y282.93 E0.11867
G1 X452.226 Y285.306 E0.1185
G1 X451.443 Y287.732 E0.11988
G1 X450.733 Y290.164 E0.11914
G1 X450.095 Y292.607 E0.11874
G1 X449.528 Y295.061 E0.11844
G1 X449.017 Y297.587 E0.12119
G1 X448.599 Y300.024 E0.11628
G1 X448.238 Y302.542 E0.11962
G1 X447.947 Y305.084 E0.12032
G1 X447.733 Y307.566 E0.11715
G1 X447.584 Y310.147 E0.12158
G1 X447.51 Y312.643 E0.11743
G1 X447.5 Y314.076 E0.06739
G1 X447.499 Y331.408 E0.81506
G1 X447.489 Y332.135 E0.03419
G1 X447.436 Y333.05 E0.0431
G1 X447.304 Y333.957 E0.0431
G1 X447.094 Y334.849 E0.04309
G1 X446.806 Y335.719 E0.0431
G1 X446.444 Y336.56 E0.04306
G1 X446.009 Y337.367 E0.04311
G1 X445.506 Y338.133 E0.04309
G1 X444.938 Y338.852 E0.04309
G1 X444.31 Y339.519 E0.04308
G1 X443.626 Y340.128 E0.04307
G1 X442.891 Y340.676 E0.04311
G1 X442.111 Y341.157 E0.04309
G1 X441.293 Y341.569 E0.04307
G1 X440.441 Y341.908 E0.04312
G1 X439.564 Y342.171 E0.04306
G1 X438.666 Y342.356 E0.04312
G1 X437.756 Y342.463 E0.04309
G1 X437.294 Y342.487 E0.02176
G1 X436.475 Y342.511 E0.03853
G1 X433.911 Y342.622 E0.12069
G1 X431.388 Y342.804 E0.11896
G1 X428.859 Y343.057 E0.11952
G1 X426.362 Y343.38 E0.1184
G1 X423.829 Y343.779 E0.12059
G1 X421.351 Y344.243 E0.11856
G1 X418.931 Y344.766 E0.11643
G1 X416.436 Y345.381 E0.12084
G1 X413.844 Y346.097 E0.12646
G1 X412.951 Y346.302 E0.04309
G1 X411.714 Y346.455 E0.05861
G1 X411.337 Y346.479 E0.01776
G1 X410.67 Y346.5 E0.03138
G1 X387.572 Y346.499 E1.08622
G1 X386.874 Y346.49 E0.03283
G1 X385.959 Y346.438 E0.0431
G1 X385.052 Y346.307 E0.0431
G1 X384.16 Y346.097 E0.04309
G1 X383.29 Y345.81 E0.04308
G1 X382.448 Y345.449 E0.04308
G1 X381.641 Y345.015 E0.04309
G1 X380.874 Y344.513 E0.04311
G1 X380.155 Y343.945 E0.04309
G1 X379.487 Y343.317 E0.04312
G1 X378.877 Y342.634 E0.04306
G1 X378.329 Y341.9 E0.04308
G1 X377.847 Y341.12 E0.04312
G1 X377.435 Y340.302 E0.04307
G1 X377.095 Y339.451 E0.0431
G1 X376.832 Y338.573 E0.0431
G1 X376.645 Y337.676 E0.04309
G1 X376.538 Y336.766 E0.04309
G1 X376.513 Y336.275 E0.02312
G1 X376.5 Y335.658 E0.02902
G1 X376.5 Y164.674 E8.04076
G1 X376.501 Y164.516 E0.00743
G1 X376.511 Y163.851 E0.03128
G1 X376.565 Y162.936 E0.0431
G1 X376.698 Y162.03 E0.04306
G1 X376.91 Y161.138 E0.04312
G1 X377.199 Y160.269 E0.04307
G1 X377.562 Y159.428 E0.04308
G1 X377.998 Y158.621 E0.04313
G1 X378.502 Y157.856 E0.04308
G1 X379.07 Y157.138 E0.04305
G1 X379.7 Y156.472 E0.04311
G1 X380.385 Y155.863 E0.0431
G1 X381.12 Y155.317 E0.04306
G1 X381.9 Y154.836 E0.04309
G1 X382.72 Y154.426 E0.04311
G1 X383.571 Y154.088 E0.04306
G1 X384.449 Y153.826 E0.04309
G1 X385.347 Y153.642 E0.04311
G1 X386.715 Y153.513 E0.06462
G1 X387.33 Y153.5 E0.02893
G1 X410.443 Y153.501 E1.08692
G1 X411.141 Y153.511 E0.03283
G0 F4800 X411.156 Y152.511
G1 F600 X412.113 Y152.565 E0.04508
G1 X412.796 Y152.652 E0.03238
G1 X414.248 Y152.883 E0.06914
G1 X416.71 Y153.234 E0.11695
G1 X419.23 Y153.522 E0.11928
G1 X421.737 Y153.738 E0.11833
G1 X424.208 Y153.878 E0.11639
G1 X426.715 Y153.951 E0.11795
G1 X429.209 Y153.953 E0.11728
G1 X431.728 Y153.883 E0.11851
G1 X434.238 Y153.742 E0.11822
G1 X436.723 Y153.532 E0.11728
G1 X439.201 Y153.253 E0.11727
G1 X441.713 Y152.897 E0.11931
G1 X443.098 Y152.668 E0.06602
G1 X444.523 Y152.523 E0.06736
G1 X444.881 Y152.509 E0.01685
G1 X445.33 Y152.5 E0.02112
G1 X608.293 Y152.5 E7.66356
G1 X609.139 Y152.51 E0.03979
G1 X610.097 Y152.562 E0.04512
G1 X611.047 Y152.694 E0.0451
G1 X611.982 Y152.905 E0.04508
G1 X612.897 Y153.193 E0.04511
G1 X613.785 Y153.556 E0.04511
G1 X614.639 Y153.991 E0.04507
G1 X615.454 Y154.497 E0.04511
G1 X616.224 Y155.068 E0.04508
G1 X616.944 Y155.702 E0.04511
G1 X617.608 Y156.393 E0.04507
G1 X618.213 Y157.138 E0.04513
G1 X618.753 Y157.93 E0.04508
G1 X619.225 Y158.764 E0.04507
G1 X619.627 Y159.635 E0.04511
G1 X619.954 Y160.537 E0.04512
G1 X620.205 Y161.462 E0.04507
G1 X620.379 Y162.405 E0.04509
G1 X620.486 Y163.677 E0.06003
G1 X620.508 Y164.452 E0.03646
G1 X620.621 Y167.044 E0.12201
G1 X620.799 Y169.512 E0.11636
G1 X621.054 Y172.055 E0.12019
G1 X621.369 Y174.496 E0.11574
G1 X621.76 Y176.973 E0.11793
G1 X622.219 Y179.429 E0.1175
G1 X622.747 Y181.869 E0.1174
G1 X623.354 Y184.334 E0.11938
G1 X624.06 Y186.889 E0.12466
G1 X624.277 Y187.823 E0.04509
G1 X624.453 Y189.222 E0.06631
G1 X624.477 Y189.599 E0.01776
G1 X624.5 Y190.33 E0.03439
G1 X624.499 Y213.406 E1.08518
G1 X624.49 Y214.133 E0.03419
G1 X624.438 Y215.091 E0.04512
G1 X624.307 Y216.041 E0.0451
G1 X624.097 Y216.976 E0.04507
G1 X623.809 Y217.891 E0.04511
G1 X623.447 Y218.779 E0.0451
G1 X623.012 Y219.634 E0.04511
G1 X622.507 Y220.449 E0.04509
G1 X621.935 Y221.219 E0.04511
G1 X621.302 Y221.939 E0.04508
G1 X620.611 Y222.604 E0.0451
G1 X619.867 Y223.209 E0.0451
G1 X619.075 Y223.75 E0.0451
G1 X618.241 Y224.223 E0.04509
G1 X617.37 Y224.625 E0.04511
G1 X616.469 Y224.952 E0.04507
G1 X615.544 Y225.204 E0.04508
G1 X614.6 Y225.378 E0.04514
G1 X613.313 Y225.486 E0.06074
G1 X612.67 Y225.5 E0.03025
G1 X537.092 Y225.5 E3.55416
G1 X534.505 Y225.537 E0.12167
G1 X531.979 Y225.644 E0.1189
G1 X529.507 Y225.819 E0.11654
G1 X527.007 Y226.067 E0.11814
G1 X524.539 Y226.383 E0.11701
G1 X522.033 Y226.777 E0.1193
G1 X519.61 Y227.227 E0.11589
G1 X517.142 Y227.758 E0.11872
G1 X514.73 Y228.35 E0.11679
G1 X512.297 Y229.018 E0.11865
G1 X509.922 Y229.746 E0.11682
G1 X507.514 Y230.558 E0.1195
G1 X505.2 Y231.411 E0.11598
G1 X502.871 Y232.347 E0.11804
G1 X500.568 Y233.349 E0.11811
G1 X498.298 Y234.413 E0.11789
G1 X496.057 Y235.54 E0.11796
G1 X493.858 Y236.729 E0.11756
G1 X491.7 Y237.974 E0.11716
G1 X489.578 Y239.279 E0.11715
G1 X487.457 Y240.668 E0.11923
G1 X485.424 Y242.084 E0.11651
G1 X483.41 Y243.572 E0.11776
G1 X481.427 Y245.126 E0.11848
G1 X479.509 Y246.718 E0.11722
G1 X477.631 Y248.37 E0.11762
G1 X475.789 Y250.083 E0.11829
G1 X474.013 Y251.833 E0.11725
G1 X472.267 Y253.653 E0.1186
G1 X470.599 Y255.493 E0.11679
G1 X468.973 Y257.391 E0.11753
G1 X467.391 Y259.35 E0.11841
G1 X465.881 Y261.331 E0.11714
G1 X464.409 Y263.378 E0.11857
G1 X463.027 Y265.419 E0.11591
G1 X461.666 Y267.558 E0.11923
G1 X460.391 Y269.693 E0.11694
G1 X459.167 Y271.881 E0.1179
G1 X457.998 Y274.115 E0.11857
G1 X456.913 Y276.341 E0.11645
G1 X455.872 Y278.641 E0.11872
G1 X454.911 Y280.934 E0.11692
G1 X453.999 Y283.288 E0.11872
G1 X453.164 Y285.652 E0.1179
G1 X452.409 Y287.994 E0.11572
G1 X451.7 Y290.423 E0.11899
G1 X451.061 Y292.868 E0.11884
G1 X450.505 Y295.275 E0.11617
G1 X450.005 Y297.746 E0.11856
G1 X449.584 Y300.199 E0.11704
G1 X449.228 Y302.686 E0.11815
G1 X448.942 Y305.177 E0.11791
G1 X448.73 Y307.638 E0.11616
G1 X448.584 Y310.165 E0.11903
G1 X448.51 Y312.679 E0.11828
G1 X448.5 Y314.083 E0.06603
G1 X448.499 Y331.422 E0.81539
G1 X448.489 Y332.149 E0.03419
G1 X448.436 Y333.107 E0.04512
G1 X448.303 Y334.056 E0.04506
G1 X448.092 Y334.992 E0.04512
G1 X447.803 Y335.906 E0.04508
G1 X447.439 Y336.794 E0.04513
G1 X447.003 Y337.647 E0.04505
G1 X446.497 Y338.462 E0.04511
G1 X445.924 Y339.231 E0.0451
G1 X445.29 Y339.951 E0.04511
G1 X444.598 Y340.615 E0.0451
G1 X443.853 Y341.218 E0.04507
G1 X443.061 Y341.758 E0.04508
G1 X442.226 Y342.23 E0.04511
G1 X441.354 Y342.631 E0.04514
G1 X440.453 Y342.957 E0.04506
G1 X439.527 Y343.208 E0.04512
G1 X438.584 Y343.38 E0.04508
G1 X437.323 Y343.486 E0.05951
G1 X436.546 Y343.508 E0.03655
G1 X433.954 Y343.621 E0.12201
G1 X431.491 Y343.799 E0.11613
G1 X428.945 Y344.054 E0.12033
G1 X426.504 Y344.369 E0.11574
G1 X424.027 Y344.76 E0.11793
G1 X421.571 Y345.219 E0.1175
G1 X419.131 Y345.747 E0.1174
G1 X416.666 Y346.354 E0.11938
G1 X414.111 Y347.06 E0.12466
G1 X413.177 Y347.277 E0.04509
G1 X411.778 Y347.453 E0.06631
G1 X411.401 Y347.477 E0.01776
G1 X410.67 Y347.5 E0.03439
G1 X387.559 Y347.499 E1.08683
G1 X386.861 Y347.49 E0.03283
G1 X385.903 Y347.438 E0.04512
G1 X384.953 Y347.306 E0.0451
G1 X384.018 Y347.095 E0.04508
G1 X383.103 Y346.807 E0.04511
G1 X382.215 Y346.444 E0.04511
G1 X381.361 Y346.009 E0.04507
G1 X380.546 Y345.503 E0.04511
G1 X379.776 Y344.932 E0.04508
G1 X379.056 Y344.298 E0.04511
G1 X378.392 Y343.607 E0.04507
G1 X377.787 Y342.862 E0.04513
G1 X377.247 Y342.07 E0.04508
G1 X376.775 Y341.236 E0.04507
G1 X376.373 Y340.365 E0.04511
G1 X376.046 Y339.463 E0.04512
G1 X375.795 Y338.538 E0.04507
G1 X375.621 Y337.595 E0.04509
G1 X375.513 Y336.302 E0.06102
G1 X375.5 Y335.658 E0.03029
G1 X375.5 Y164.674 E8.04076
G1 X375.501 Y164.501 E0.00814
G1 X375.511 Y163.836 E0.03128
G1 X375.566 Y162.879 E0.04508
G1 X375.7 Y161.929 E0.04512
G1 X375.912 Y160.994 E0.04509
G1 X376.202 Y160.08 E0.04509
G1 X376.567 Y159.193 E0.04511
G1 X377.005 Y158.34 E0.04509
G1 X377.512 Y157.526 E0.0451
G1 X378.085 Y156.757 E0.0451
G1 X378.72 Y156.039 E0.04508
G1 X379.413 Y155.376 E0.0451
G1 X380.159 Y154.773 E0.04511
G1 X380.952 Y154.234 E0.04509
G1 X381.787 Y153.763 E0.04508
G1 X382.659 Y153.364 E0.0451
G1 X383.561 Y153.038 E0.0451
G1 X384.487 Y152.789 E0.04509
G1 X385.431 Y152.618 E0.04512
G1 X386.687 Y152.514 E0.05927
G1 X387.33 Y152.5 E0.03025
G1 X410.458 Y152.501 E1.08763
G1 X411.156 Y152.511 E0.03283
G0 F4800 X411.17 Y151.511
G1 F600 X412.168 Y151.566 E0.047
G1 X412.953 Y151.665 E0.03721
G1 X414.352 Y151.887 E0.06661
G1 X416.862 Y152.246 E0.11924
G1 X419.319 Y152.526 E0.11629
G1 X421.776 Y152.738 E0.11597
G1 X424.259 Y152.879 E0.11695
G1 X426.744 Y152.951 E0.11691
G1 X429.217 Y152.953 E0.1163
G1 X431.68 Y152.885 E0.11587
G1 X434.131 Y152.747 E0.11544
G1 X436.637 Y152.535 E0.11827
G1 X439.085 Y152.259 E0.11585
G1 X441.552 Y151.91 E0.11717
G1 X442.936 Y151.681 E0.06597
G1 X443.928 Y151.558 E0.04701
G1 X444.484 Y151.524 E0.0262
G1 X444.842 Y151.51 E0.01685
G1 X445.33 Y151.5 E0.02295
G1 X608.293 Y151.5 E7.66356
G1 X609.152 Y151.51 E0.0404
G1 X610.151 Y151.563 E0.04705
G1 X611.142 Y151.695 E0.04701
G1 X612.119 Y151.907 E0.04701
G1 X613.076 Y152.195 E0.047
G1 X614.007 Y152.56 E0.04703
G1 X614.906 Y152.997 E0.04701
G1 X615.767 Y153.505 E0.04701
G1 X616.585 Y154.08 E0.04702
G1 X617.354 Y154.719 E0.04702
G1 X618.07 Y155.417 E0.04702
G1 X618.728 Y156.17 E0.04703
G1 X619.323 Y156.973 E0.047
G1 X619.852 Y157.822 E0.04704
G1 X620.312 Y158.709 E0.04699
G1 X620.699 Y159.631 E0.04702
G1 X621.012 Y160.581 E0.04704
G1 X621.247 Y161.552 E0.04698
G1 X621.404 Y162.54 E0.04705
G1 X621.486 Y163.648 E0.05225
G1 X621.509 Y164.45 E0.03773
G1 X621.619 Y166.963 E0.11829
G1 X621.797 Y169.447 E0.11711
G1 X622.047 Y171.934 E0.11754
G1 X622.359 Y174.353 E0.1147
G1 X622.747 Y176.815 E0.11721
G1 X623.202 Y179.244 E0.11621
G1 X623.718 Y181.628 E0.11471
G1 X624.321 Y184.079 E0.1187
G1 X625.024 Y186.623 E0.12412
G1 X625.252 Y187.596 E0.047
G1 X625.401 Y188.585 E0.04703
G1 X625.451 Y189.159 E0.0271
G1 X625.475 Y189.536 E0.01776
G1 X625.5 Y190.33 E0.03736
G1 X625.499 Y213.419 E1.08579
G1 X625.49 Y214.146 E0.03419
G1 X625.438 Y215.144 E0.047
G1 X625.306 Y216.135 E0.04701
G1 X625.095 Y217.113 E0.04705
G1 X624.807 Y218.07 E0.047
G1 X624.443 Y219.001 E0.04701
G1 X624.006 Y219.9 E0.04701
G1 X623.498 Y220.762 E0.04705
G1 X622.924 Y221.58 E0.04699
G1 X622.285 Y222.349 E0.04702
G1 X621.588 Y223.066 E0.04702
G1 X620.835 Y223.724 E0.04703
G1 X620.032 Y224.319 E0.047
G1 X619.184 Y224.849 E0.04703
G1 X618.296 Y225.309 E0.04703
G1 X617.375 Y225.697 E0.047
G1 X616.425 Y226.01 E0.04704
G1 X615.454 Y226.246 E0.04699
G1 X614.467 Y226.404 E0.04701
G1 X613.341 Y226.486 E0.05309
G1 X612.67 Y226.5 E0.03156
G1 X537.106 Y226.5 E3.5535
G1 X534.525 Y226.537 E0.12139
G1 X532.055 Y226.641 E0.11626
G1 X529.569 Y226.818 E0.1172
G1 X527.13 Y227.059 E0.11526
G1 X524.68 Y227.373 E0.11616
G1 X522.195 Y227.763 E0.11829
G1 X519.794 Y228.21 E0.11485
G1 X517.373 Y228.731 E0.11646
G1 X514.982 Y229.317 E0.11577
G1 X512.58 Y229.977 E0.11714
G1 X510.208 Y230.704 E0.11667
G1 X507.895 Y231.484 E0.11479
G1 X505.542 Y232.352 E0.11794
G1 X503.223 Y233.283 E0.11751
G1 X500.989 Y234.255 E0.11457
G1 X498.738 Y235.31 E0.11691
G1 X496.522 Y236.425 E0.11666
G1 X494.369 Y237.589 E0.1151
G1 X492.209 Y238.835 E0.11727
G1 X490.095 Y240.135 E0.11671
G1 X488.046 Y241.477 E0.11518
G1 X485.979 Y242.917 E0.11847
G1 X484.027 Y244.359 E0.11413
G1 X482.05 Y245.908 E0.11811
G1 X480.176 Y247.465 E0.11458
G1 X478.284 Y249.128 E0.11846
G1 X476.483 Y250.803 E0.11566
G1 X474.729 Y252.531 E0.11579
G1 X473.006 Y254.328 E0.11708
G1 X471.34 Y256.165 E0.11662
G1 X469.739 Y258.033 E0.11569
G1 X468.187 Y259.956 E0.11621
G1 X466.684 Y261.928 E0.1166
G1 X465.234 Y263.943 E0.11674
G1 X463.851 Y265.986 E0.11602
G1 X462.526 Y268.068 E0.11605
G1 X461.252 Y270.202 E0.11688
G1 X460.045 Y272.359 E0.11624
G1 X458.896 Y274.555 E0.11655
G1 X457.822 Y276.76 E0.11534
G1 X456.784 Y279.051 E0.11828
G1 X455.845 Y281.292 E0.11426
G1 X454.934 Y283.646 E0.1187
G1 X454.115 Y285.965 E0.11566
G1 X453.362 Y288.297 E0.11524
G1 X452.657 Y290.713 E0.11835
G1 X452.044 Y293.061 E0.11412
G1 X451.476 Y295.516 E0.1185
G1 X450.985 Y297.943 E0.11645
G1 X450.576 Y300.329 E0.11384
G1 X450.222 Y302.8 E0.11739
G1 X449.938 Y305.27 E0.11692
G1 X449.725 Y307.748 E0.11696
G1 X449.584 Y310.179 E0.11451
G1 X449.51 Y312.716 E0.11936
G1 X449.5 Y314.091 E0.06466
G1 X449.499 Y331.436 E0.81567
G1 X449.489 Y332.163 E0.03419
G1 X449.435 Y333.161 E0.047
G1 X449.302 Y334.152 E0.04702
G1 X449.09 Y335.129 E0.04701
G1 X448.8 Y336.086 E0.04703
G1 X448.435 Y337.017 E0.04703
G1 X447.997 Y337.916 E0.04703
G1 X447.488 Y338.776 E0.047
G1 X446.912 Y339.594 E0.04705
G1 X446.273 Y340.362 E0.04698
G1 X445.574 Y341.077 E0.04702
G1 X444.821 Y341.734 E0.04699
G1 X444.017 Y342.329 E0.04704
G1 X443.168 Y342.857 E0.04702
G1 X442.28 Y343.316 E0.04701
G1 X441.358 Y343.703 E0.04702
G1 X440.408 Y344.015 E0.04702
G1 X439.436 Y344.249 E0.04702
G1 X438.448 Y344.406 E0.04705
G1 X437.352 Y344.486 E0.05168
G1 X436.551 Y344.509 E0.03768
G1 X434.034 Y344.619 E0.11848
G1 X431.556 Y344.797 E0.11683
G1 X429.066 Y345.047 E0.11768
G1 X426.647 Y345.359 E0.1147
G1 X424.185 Y345.747 E0.11721
G1 X421.756 Y346.202 E0.11621
G1 X419.372 Y346.718 E0.11471
G1 X416.921 Y347.321 E0.1187
G1 X414.377 Y348.024 E0.12412
G1 X413.404 Y348.252 E0.047
G1 X412.415 Y348.401 E0.04703
G1 X411.841 Y348.451 E0.0271
G1 X411.464 Y348.475 E0.01776
G1 X410.67 Y348.5 E0.03736
G1 X387.546 Y348.499 E1.08744
G1 X386.848 Y348.49 E0.03283
G1 X385.849 Y348.437 E0.04705
G1 X384.858 Y348.305 E0.04701
G1 X383.881 Y348.093 E0.04701
G1 X382.924 Y347.805 E0.047
G1 X381.993 Y347.44 E0.04703
G1 X381.094 Y347.003 E0.04701
G1 X380.233 Y346.495 E0.04701
G1 X379.415 Y345.92 E0.04702
G1 X378.646 Y345.281 E0.04702
G1 X377.93 Y344.583 E0.04702
G1 X377.272 Y343.83 E0.04703
G1 X376.677 Y343.027 E0.047
G1 X376.148 Y342.178 E0.04704
G1 X375.688 Y341.291 E0.04699
G1 X375.301 Y340.369 E0.04702
G1 X374.988 Y339.419 E0.04704
G1 X374.753 Y338.448 E0.04698
G1 X374.596 Y337.46 E0.04705
G1 X374.514 Y336.329 E0.05333
G1 X374.5 Y335.658 E0.03156
G1 X374.5 Y164.674 E8.04076
G1 X374.501 Y164.486 E0.00884
G1 X374.511 Y163.821 E0.03128
G1 X374.566 Y162.823 E0.047
G1 X374.701 Y161.832 E0.04703
G1 X374.914 Y160.855 E0.04702
G1 X375.205 Y159.899 E0.04699
G1 X375.571 Y158.968 E0.04704
G1 X376.011 Y158.07 E0.04703
G1 X376.521 Y157.21 E0.04702
G1 X377.098 Y156.394 E0.047
G1 X377.738 Y155.626 E0.04701
G1 X378.437 Y154.912 E0.04699
G1 X379.192 Y154.256 E0.04703
G1 X379.996 Y153.662 E0.04701
G1 X380.846 Y153.135 E0.04703
G1 X381.735 Y152.677 E0.04703
G1 X382.657 Y152.291 E0.047
G1 X383.608 Y151.981 E0.04704
G1 X384.58 Y151.748 E0.047
G1 X385.567 Y151.593 E0.04698
G1 X386.659 Y151.514 E0.05149
G1 X387.33 Y151.5 E0.03156
G1 X410.472 Y151.501 E1.08828
G1 X411.17 Y151.511 E0.03283
G0 F4800 X411.184 Y150.511
G1 F600 X412.222 Y150.566 E0.04888
G1 X413.109 Y150.677 E0.04204
G1 X414.517 Y150.901 E0.06705
G1 X416.971 Y151.251 E0.11657
G1 X419.45 Y151.534 E0.11734
G1 X421.847 Y151.74 E0.11314
G1 X424.309 Y151.881 E0.11597
G1 X426.739 Y151.951 E0.11432
G1 X429.19 Y151.953 E0.11526
G1 X431.631 Y151.886 E0.11483
G1 X434.097 Y151.747 E0.11615
G1 X436.512 Y151.543 E0.11397
G1 X438.939 Y151.269 E0.11486
G1 X441.421 Y150.917 E0.11789
G1 X442.773 Y150.694 E0.06444
G1 X443.804 Y150.565 E0.04886
G1 X444.444 Y150.524 E0.03016
G1 X444.802 Y150.51 E0.01685
G1 X445.33 Y150.5 E0.02483
G1 X608.293 Y150.5 E7.66356
G1 X609.165 Y150.51 E0.04101
G1 X610.203 Y150.563 E0.04888
G1 X611.233 Y150.697 E0.04885
G1 X612.25 Y150.908 E0.04884
G1 X613.248 Y151.198 E0.04887
G1 X614.221 Y151.563 E0.04887
G1 X615.163 Y152.002 E0.04887
G1 X616.068 Y152.513 E0.04887
G1 X616.931 Y153.091 E0.04885
G1 X617.747 Y153.734 E0.04886
G1 X618.512 Y154.438 E0.04889
G1 X619.219 Y155.198 E0.04881
G1 X619.867 Y156.011 E0.04889
G1 X620.45 Y156.871 E0.04886
G1 X620.965 Y157.774 E0.04889
G1 X621.409 Y158.713 E0.04885
G1 X621.779 Y159.684 E0.04887
G1 X622.074 Y160.68 E0.04885
G1 X622.291 Y161.696 E0.04886
G1 X622.43 Y162.726 E0.04888
G1 X622.485 Y163.619 E0.04207
G1 X622.507 Y164.376 E0.03561
G1 X622.618 Y166.921 E0.1198
G1 X622.792 Y169.343 E0.11419
G1 X623.039 Y171.812 E0.11669
G1 X623.35 Y174.216 E0.11399
G1 X623.733 Y176.646 E0.11568
G1 X624.178 Y179.024 E0.11377
G1 X624.698 Y181.427 E0.11562
G1 X625.288 Y183.825 E0.11613
G1 X625.988 Y186.357 E0.12354
G1 X626.226 Y187.368 E0.04884
G1 X626.386 Y188.395 E0.04888
G1 X626.449 Y189.095 E0.03305
G1 X626.473 Y189.472 E0.01776
G1 X626.5 Y190.33 E0.04037
G1 X626.499 Y213.431 E1.08636
G1 X626.49 Y214.158 E0.03419
G1 X626.437 Y215.196 E0.04888
G1 X626.305 Y216.226 E0.04883
G1 X626.093 Y217.244 E0.0489
G1 X625.804 Y218.242 E0.04886
G1 X625.439 Y219.215 E0.04887
G1 X625.001 Y220.157 E0.04885
G1 X624.491 Y221.062 E0.04885
G1 X623.913 Y221.925 E0.04885
G1 X623.271 Y222.742 E0.04886
G1 X622.567 Y223.507 E0.04889
G1 X621.807 Y224.215 E0.04885
G1 X620.995 Y224.863 E0.04885
G1 X620.135 Y225.446 E0.04886
G1 X619.233 Y225.961 E0.04884
G1 X618.293 Y226.406 E0.04891
G1 X617.323 Y226.777 E0.04884
G1 X616.327 Y227.072 E0.04885
G1 X615.311 Y227.29 E0.04887
G1 X614.281 Y227.429 E0.04888
G1 X613.369 Y227.486 E0.04297
G1 X613.048 Y227.495 E0.0151
G1 X612.67 Y227.5 E0.01778
G1 X537.12 Y227.5 E3.55284
G1 X534.547 Y227.536 E0.12101
G1 X532.098 Y227.64 E0.11527
G1 X529.668 Y227.813 E0.11456
G1 X527.249 Y228.052 E0.11431
G1 X524.786 Y228.368 E0.11678
G1 X522.42 Y228.739 E0.11262
G1 X519.977 Y229.194 E0.11686
G1 X517.579 Y229.71 E0.11535
G1 X515.235 Y230.285 E0.1135
G1 X512.863 Y230.936 E0.11567
G1 X510.536 Y231.649 E0.11445
G1 X508.202 Y232.436 E0.11583
G1 X505.901 Y233.285 E0.11534
G1 X503.63 Y234.197 E0.11509
G1 X501.41 Y235.163 E0.11385
G1 X499.18 Y236.208 E0.11581
G1 X496.959 Y237.326 E0.11693
G1 X494.856 Y238.463 E0.11243
G1 X492.729 Y239.689 E0.11545
G1 X490.637 Y240.976 E0.11551
G1 X488.594 Y242.314 E0.11485
G1 X486.591 Y243.709 E0.11479
G1 X484.604 Y245.177 E0.11618
G1 X482.672 Y246.691 E0.11543
G1 X480.824 Y248.226 E0.11297
G1 X478.975 Y249.852 E0.11579
G1 X477.158 Y251.542 E0.11669
G1 X475.446 Y253.228 E0.113
G1 X473.745 Y255.001 E0.11554
G1 X472.098 Y256.819 E0.11536
G1 X470.503 Y258.68 E0.11526
G1 X468.973 Y260.574 E0.1145
G1 X467.483 Y262.53 E0.11563
G1 X466.064 Y264.502 E0.11425
G1 X464.675 Y266.554 E0.11653
G1 X463.381 Y268.588 E0.11337
G1 X462.111 Y270.715 E0.1165
G1 X460.925 Y272.834 E0.1142
G1 X459.787 Y275.01 E0.11548
G1 X458.724 Y277.191 E0.1141
G1 X457.71 Y279.43 E0.11559
G1 X456.759 Y281.7 E0.11574
G1 X455.867 Y284.004 E0.11619
G1 X455.075 Y286.245 E0.11177
G1 X454.305 Y288.632 E0.11795
G1 X453.635 Y290.93 E0.11257
G1 X453.007 Y293.33 E0.11666
G1 X452.462 Y295.688 E0.11381
G1 X451.967 Y298.141 E0.11768
G1 X451.562 Y300.493 E0.11223
G1 X451.21 Y302.954 E0.11691
G1 X450.934 Y305.36 E0.11389
G1 X450.725 Y307.785 E0.11446
G1 X450.582 Y310.267 E0.11691
G1 X450.51 Y312.707 E0.11479
G1 X450.5 Y314.098 E0.06542
G1 X450.499 Y331.45 E0.816
G1 X450.489 Y332.177 E0.03419
G1 X450.434 Y333.214 E0.04883
G1 X450.301 Y334.245 E0.04889
G1 X450.088 Y335.262 E0.04886
G1 X449.797 Y336.259 E0.04884
G1 X449.431 Y337.232 E0.04889
G1 X448.991 Y338.173 E0.04885
G1 X448.48 Y339.078 E0.04887
G1 X447.901 Y339.94 E0.04883
G1 X447.258 Y340.756 E0.04886
G1 X446.553 Y341.52 E0.04889
G1 X445.792 Y342.227 E0.04885
G1 X444.979 Y342.874 E0.04886
G1 X444.118 Y343.456 E0.04887
G1 X443.215 Y343.97 E0.04886
G1 X442.275 Y344.413 E0.04887
G1 X441.304 Y344.783 E0.04887
G1 X440.308 Y345.077 E0.04884
G1 X439.291 Y345.293 E0.04889
G1 X438.262 Y345.431 E0.04882
G1 X437.38 Y345.485 E0.04155
G1 X436.624 Y345.507 E0.03557
G1 X434.08 Y345.618 E0.11975
G1 X431.656 Y345.792 E0.11429
G1 X429.188 Y346.039 E0.11664
G1 X426.784 Y346.35 E0.11399
G1 X424.354 Y346.733 E0.11568
G1 X421.976 Y347.178 E0.11377
G1 X419.573 Y347.698 E0.11562
G1 X417.175 Y348.288 E0.11613
G1 X414.643 Y348.988 E0.12354
G1 X413.632 Y349.226 E0.04884
G1 X412.605 Y349.386 E0.04888
G1 X411.905 Y349.449 E0.03305
G1 X411.528 Y349.473 E0.01776
G1 X410.67 Y349.5 E0.04037
G1 X387.533 Y349.499 E1.08805
G1 X386.835 Y349.49 E0.03283
G1 X385.797 Y349.437 E0.04888
G1 X384.767 Y349.303 E0.04885
G1 X383.75 Y349.092 E0.04884
G1 X382.752 Y348.802 E0.04887
G1 X381.779 Y348.437 E0.04887
G1 X380.837 Y347.998 E0.04887
G1 X379.932 Y347.487 E0.04887
G1 X379.069 Y346.909 E0.04885
G1 X378.253 Y346.266 E0.04886
G1 X377.488 Y345.562 E0.04889
G1 X376.781 Y344.802 E0.04881
G1 X376.133 Y343.989 E0.04889
G1 X375.55 Y343.129 E0.04886
G1 X375.035 Y342.226 E0.04889
G1 X374.591 Y341.287 E0.04885
G1 X374.221 Y340.316 E0.04887
G1 X373.926 Y339.32 E0.04885
G1 X373.709 Y338.304 E0.04886
G1 X373.57 Y337.274 E0.04888
G1 X373.514 Y336.356 E0.04325
G1 X373.5 Y335.658 E0.03283
G1 X373.5 Y164.674 E8.04076
G1 X373.512 Y163.806 E0.04082
G1 X373.567 Y162.768 E0.04888
G1 X373.702 Y161.738 E0.04885
G1 X373.916 Y160.722 E0.04883
G1 X374.208 Y159.724 E0.0489
G1 X374.575 Y158.752 E0.04886
G1 X375.017 Y157.812 E0.04885
G1 X375.529 Y156.908 E0.04886
G1 X376.109 Y156.046 E0.04886
G1 X376.754 Y155.231 E0.04888
G1 X377.459 Y154.468 E0.04885
G1 X378.221 Y153.762 E0.04885
G1 X379.035 Y153.116 E0.04887
G1 X379.897 Y152.535 E0.04888
G1 X380.8 Y152.022 E0.04884
G1 X381.741 Y151.58 E0.04889
G1 X382.712 Y151.211 E0.04885
G1 X383.709 Y150.919 E0.04885
G1 X384.726 Y150.704 E0.04888
G1 X385.756 Y150.567 E0.04886
G1 X386.63 Y150.514 E0.04118
G1 X386.95 Y150.505 E0.01505
G1 X387.33 Y150.5 E0.01787
G1 X410.486 Y150.501 E1.08894
G1 X411.184 Y150.511 E0.03283
G1 F1500 E-0.7
G1 F300 Z1.2
;MESH:CalibrationMultiExtruder1
G0 F4800 X388.5 Y165.5 Z1.2
;TYPE:WALL-INNER
G1 F300 Z0.3
G1 F1500 E0.7
G1 F600 X409.5 Y165.5 E0.98755
G1 X409.5 Y166.5 E0.04703
G1 X389.5 Y166.5 E0.94053
G1 X389.5 Y173.9 E0.348
G1 X409.5 Y173.9 E0.94053
G1 X409.5 Y174.9 E0.04703
G1 X389.5 Y174.9 E0.94053
G1 X389.5 Y182.3 E0.348
G1 X409.5 Y182.3 E0.94053
G1 X409.5 Y183.3 E0.04703
G1 X389.5 Y183.3 E0.94053
G1 X389.5 Y190.7 E0.348
G1 X409.5 Y190.7 E0.94053
G1 X409.5 Y191.7 E0.04703
G1 X389.5 Y191.7 E0.94053
G1 X389.5 Y199.1 E0.348
G1 X409.5 Y199.1 E0.94053
G1 X409.5 Y200.1 E0.04703
G1 X389.5 Y200.1 E0.94053
G1 X389.5 Y207.5 E0.348
G1 X409.5 Y207.5 E0.94053
G1 X409.5 Y208.5 E0.04703
G1 X389.5 Y208.5 E0.94053
G1 X389.5 Y215.9 E0.348
G1 X409.5 Y215.9 E0.94053
G1 X409.5 Y216.9 E0.04703
G1 X389.5 Y216.9 E0.94053
G1 X389.5 Y224.3 E0.348
G1 X409.5 Y224.3 E0.94053
G1 X409.5 Y225.3 E0.04703
G1 X389.5 Y225.3 E0.94053
G1 X389.5 Y232.7 E0.348
G1 X409.5 Y232.7 E0.94053
G1 X409.5 Y233.7 E0.04703
G1 X389.5 Y233.7 E0.94053
G1 X389.5 Y241.1 E0.348
G1 X409.5 Y241.1 E0.94053
G1 X409.5 Y242.1 E0.04703
G1 X389.5 Y242.1 E0.94053
G1 X389.5 Y249.5 E0.348
G1 X409.5 Y249.5 E0.94053
G1 X409.5 Y250.5 E0.04703
G1 X389.5 Y250.5 E0.94053
G1 X389.5 Y257.9 E0.348
G1 X409.5 Y257.9 E0.94053
G1 X409.5 Y258.9 E0.04703
G1 X389.5 Y258.9 E0.94053
G1 X389.5 Y266.3 E0.348
G1 X409.5 Y266.3 E0.94053
G1 X409.5 Y267.3 E0.04703
G1 X389.5 Y267.3 E0.94053
G1 X389.5 Y274.7 E0.348
G1 X409.5 Y274.7 E0.94053
G1 X409.5 Y275.7 E0.04703
G1 X389.5 Y275.7 E0.94053
G1 X389.5 Y283.1 E0.348
G1 X409.5 Y283.1 E0.94053
G1 X409.5 Y284.1 E0.04703
G1 X389.5 Y284.1 E0.94053
G1 X389.5 Y291.5 E0.348
G1 X409.5 Y291.5 E0.94053
G1 X409.5 Y292.5 E0.04703
G1 X389.5 Y292.5 E0.94053
G1 X389.5 Y299.9 E0.348
G1 X409.5 Y299.9 E0.94053
G1 X409.5 Y300.9 E0.04703
G1 X389.5 Y300.9 E0.94053
G1 X389.5 Y308.3 E0.348
G1 X409.5 Y308.3 E0.94053
G1 X409.5 Y309.3 E0.04703
G1 X389.5 Y309.3 E0.94053
G1 X389.5 Y316.7 E0.348
G1 X409.5 Y316.7 E0.94053
G1 X409.5 Y317.7 E0.04703
G1 X389.5 Y317.7 E0.94053
G1 X389.5 Y325.1 E0.348
G1 X409.5 Y325.1 E0.94053
G1 X409.5 Y326.1 E0.04703
G1 X389.5 Y326.1 E0.94053
G1 X389.5 Y333.5 E0.348
G1 X409.5 Y333.5 E0.94053
G1 X409.5 Y334.5 E0.04703
G1 X388.5 Y334.5 E0.98755
G1 X388.5 Y165.5 E7.94746
G0 F4800 X387.5 Y164.5
;TYPE:WALL-OUTER
G1 F600 X410.5 Y164.5 E1.08161
G1 X410.5 Y167.5 E0.14108
G1 X390.5 Y167.5 E0.94053
G1 X390.5 Y172.9 E0.25394
G1 X410.5 Y172.9 E0.94053
G1 X410.5 Y175.9 E0.14108
G1 X390.5 Y175.9 E0.94053
G1 X390.5 Y181.3 E0.25394
G1 X410.5 Y181.3 E0.94053
G1 X410.5 Y184.3 E0.14108
G1 X390.5 Y184.3 E0.94053
G1 X390.5 Y189.7 E0.25394
G1 X410.5 Y189.7 E0.94053
G1 X410.5 Y192.7 E0.14108
G1 X390.5 Y192.7 E0.94053
G1 X390.5 Y198.1 E0.25394
G1 X410.5 Y198.1 E0.94053
G1 X410.5 Y201.1 E0.14108
G1 X390.5 Y201.1 E0.94053
G1 X390.5 Y206.5 E0.25394
G1 X410.5 Y206.5 E0.94053
G1 X410.5 Y209.5 E0.14108
G1 X390.5 Y209.5 E0.94053
G1 X390.5 Y214.9 E0.25394
G1 X410.5 Y214.9 E0.94053
G1 X410.5 Y217.9 E0.14108
G1 X390.5 Y217.9 E0.94053
G1 X390.5 Y223.3 E0.25394
G1 X410.5 Y223.3 E0.94053
G1 X410.5 Y226.3 E0.14108
G1 X390.5 Y226.3 E0.94053
G1 X390.5 Y231.7 E0.25394
G1 X410.5 Y231.7 E0.94053
G1 X410.5 Y234.7 E0.14108
G1 X390.5 Y234.7 E0.94053
G1 X390.5 Y240.1 E0.25394
G1 X410.5 Y240.1 E0.94053
G1 X410.5 Y243.1 E0.14108
G1 X390.5 Y243.1 E0.94053
G1 X390.5 Y248.5 E0.25394
G1 X410.5 Y248.5 E0.94053
G1 X410.5 Y251.5 E0.14108
G1 X390.5 Y251.5 E0.94053
G1 X390.5 Y256.9 E0.25394
G1 X410.5 Y256.9 E0.94053
G1 X410.5 Y259.9 E0.14108
G1 X390.5 Y259.9 E0.94053
G1 X390.5 Y265.3 E0.25394
G1 X410.5 Y265.3 E0.94053
G1 X410.5 Y268.3 E0.14108
G1 X390.5 Y268.3 E0.94053
G1 X390.5 Y273.7 E0.25394
G1 X410.5 Y273.7 E0.94053
G1 X410.5 Y276.7 E0.14108
G1 X390.5 Y276.7 E0.94053
G1 X390.5 Y282.1 E0.25394
G1 X410.5 Y282.1 E0.94053
G1 X410.5 Y285.1 E0.14108
G1 X390.5 Y285.1 E0.94053
G1 X390.5 Y290.5 E0.25394
G1 X410.5 Y290.5 E0.94053
G1 X410.5 Y293.5 E0.14108
G1 X390.5 Y293.5 E0.94053
G1 X390.5 Y298.9 E0.25394
G1 X410.5 Y298.9 E0.94053
G1 X410.5 Y301.9 E0.14108
G1 X390.5 Y301.9 E0.94053
G1 X390.5 Y307.3 E0.25394
G1 X410.5 Y307.3 E0.94053
G1 X410.5 Y310.3 E0.14108
G1 X390.5 Y310.3 E0.94053
G1 X390.5 Y315.7 E0.25394
G1 X410.5 Y315.7 E0.94053
G1 X410.5 Y318.7 E0.14108
G1 X390.5 Y318.7 E0.94053
G1 X390.5 Y324.1 E0.25394
G1 X410.5 Y324.1 E0.94053
G1 X410.5 Y327.1 E0.14108
G1 X390.5 Y327.1 E0.94053
G1 X390.5 Y332.5 E0.25394
G1 X410.5 Y332.5 E0.94053
G1 X410.5 Y335.5 E0.14108
G1 X387.5 Y335.5 E1.08161
G1 X387.5 Y164.5 E8.04151
G1 F1500 E-0.7
G1 F300 Z1.2
G0 F4800 X442.5 Y191.5 Z1.2
;TYPE:WALL-INNER
G1 F300 Z0.3
G1 F1500 E0.7
G1 F600 X443.5 Y191.5 E0.04703
G1 X443.5 Y211.5 E0.94053
G1 X450.9 Y211.5 E0.348
G1 X450.9 Y191.5 E0.94053
G1 X451.9 Y191.5 E0.04703
G1 X451.9 Y211.5 E0.94053
G1 X459.3 Y211.5 E0.348
G1 X459.3 Y191.5 E0.94053
G1 X460.3 Y191.5 E0.04703
G1 X460.3 Y211.5 E0.94053
G1 X467.7 Y211.5 E0.348
G1 X467.7 Y191.5 E0.94053
G1 X468.7 Y191.5 E0.04703
G1 X468.7 Y211.5 E0.94053
G1 X476.1 Y211.5 E0.348
G1 X476.1 Y191.5 E0.94053
G1 X477.1 Y191.5 E0.04703
G1 X477.1 Y211.5 E0.94053
G1 X484.5 Y211.5 E0.348
G1 X484.5 Y191.5 E0.94053
G1 X485.5 Y191.5 E0.04703
G1 X485.5 Y211.5 E0.94053
G1 X492.9 Y211.5 E0.348
G1 X492.9 Y191.5 E0.94053
G1 X493.9 Y191.5 E0.04703
G1 X493.9 Y211.5 E0.94053
G1 X501.3 Y211.5 E0.348
G1 X501.3 Y191.5 E0.94053
G1 X502.3 Y191.5 E0.04703
G1 X502.3 Y211.5 E0.94053
G1 X509.7 Y211.5 E0.348
G1 X509.7 Y191.5 E0.94053
G1 X510.7 Y191.5 E0.04703
G1 X510.7 Y211.5 E0.94053
G1 X518.1 Y211.5 E0.348
G1 X518.1 Y191.5 E0.94053
G1 X519.1 Y191.5 E0.04703
G1 X519.1 Y211.5 E0.94053
G1 X526.5 Y211.5 E0.348
G1 X526.5 Y191.5 E0.94053
G1 X527.5 Y191.5 E0.04703
G1 X527.5 Y211.5 E0.94053
G1 X534.9 Y211.5 E0.348
G1 X534.9 Y191.5 E0.94053
G1 X535.9 Y191.5 E0.04703
G1 X535.9 Y211.5 E0.94053
G1 X543.3 Y211.5 E0.348
G1 X543.3 Y191.5 E0.94053
G1 X544.3 Y191.5 E0.04703
G1 X544.3 Y211.5 E0.94053
G1 X551.7 Y211.5 E0.348
G1 X551.7 Y191.5 E0.94053
G1 X552.7 Y191.5 E0.04703
G1 X552.7 Y211.5 E0.94053
G1 X560.1 Y211.5 E0.348
G1 X560.1 Y191.5 E0.94053
G1 X561.1 Y191.5 E0.04703
G1 X561.1 Y211.5 E0.94053
G1 X568.5 Y211.5 E0.348
G1 X568.5 Y191.5 E0.94053
G1 X569.5 Y191.5 E0.04703
G1 X569.5 Y211.5 E0.94053
G1 X576.9 Y211.5 E0.348
G1 X576.9 Y191.5 E0.94053
G1 X577.9 Y191.5 E0.04703
G1 X577.9 Y211.5 E0.94053
G1 X585.3 Y211.5 E0.348
G1 X585.3 Y191.5 E0.94053
G1 X586.3 Y191.5 E0.04703
G1 X586.3 Y211.5 E0.94053
G1 X593.7 Y211.5 E0.348
G1 X593.7 Y191.5 E0.94053
G1 X594.7 Y191.5 E0.04703
G1 X594.7 Y211.5 E0.94053
G1 X602.1 Y211.5 E0.348
G1 X602.1 Y191.5 E0.94053
G1 X603.1 Y191.5 E0.04703
G1 X603.1 Y211.5 E0.94053
G1 X610.5 Y211.5 E0.348
G1 X610.5 Y191.5 E0.94053
G1 X611.5 Y191.5 E0.04703
G1 X611.5 Y212.5 E0.98755
G1 X442.5 Y212.5 E7.94746
G1 X442.5 Y191.5 E0.98755
G0 F4800 X441.5 Y190.5
M104 T1 S200
;TYPE:WALL-OUTER
G1 F600 X444.5 Y190.5 E0.14108
G1 X444.5 Y210.5 E0.94053
G1 X449.9 Y210.5 E0.25394
G1 X449.9 Y190.5 E0.94053
G1 X452.9 Y190.5 E0.14108
G1 X452.9 Y210.5 E0.94053
G1 X458.3 Y210.5 E0.25394
G1 X458.3 Y190.5 E0.94053
G1 X461.3 Y190.5 E0.14108
G1 X461.3 Y210.5 E0.94053
G1 X466.7 Y210.5 E0.25394
G1 X466.7 Y190.5 E0.94053
G1 X469.7 Y190.5 E0.14108
G1 X469.7 Y210.5 E0.94053
G1 X475.1 Y210.5 E0.25394
G1 X475.1 Y190.5 E0.94053
G1 X478.1 Y190.5 E0.14108
G1 X478.1 Y210.5 E0.94053
G1 X483.5 Y210.5 E0.25394
G1 X483.5 Y190.5 E0.94053
G1 X486.5 Y190.5 E0.14108
G1 X486.5 Y210.5 E0.94053
G1 X491.9 Y210.5 E0.25394
G1 X491.9 Y190.5 E0.94053
G1 X494.9 Y190.5 E0.14108
G1 X494.9 Y210.5 E0.94053
G1 X500.3 Y210.5 E0.25394
G1 X500.3 Y190.5 E0.94053
G1 X503.3 Y190.5 E0.14108
G1 X503.3 Y210.5 E0.94053
G1 X508.7 Y210.5 E0.25394
G1 X508.7 Y190.5 E0.94053
G1 X511.7 Y190.5 E0.14108
G1 X511.7 Y210.5 E0.94053
G1 X517.1 Y210.5 E0.25394
G1 X517.1 Y190.5 E0.94053
G1 X520.1 Y190.5 E0.14108
G1 X520.1 Y210.5 E0.94053
G1 X525.5 Y210.5 E0.25394
G1 X525.5 Y190.5 E0.94053
G1 X528.5 Y190.5 E0.14108
G1 X528.5 Y210.5 E0.94053
G1 X533.9 Y210.5 E0.25394
G1 X533.9 Y190.5 E0.94053
G1 X536.9 Y190.5 E0.14108
G1 X536.9 Y210.5 E0.94053
G1 X542.3 Y210.5 E0.25394
G1 X542.3 Y190.5 E0.94053
G1 X545.3 Y190.5 E0.14108
G1 X545.3 Y210.5 E0.94053
G1 X550.7 Y210.5 E0.25394
G1 X550.7 Y190.5 E0.94053
G1 X553.7 Y190.5 E0.14108
G1 X553.7 Y210.5 E0.94053
G1 X559.1 Y210.5 E0.25394
G1 X559.1 Y190.5 E0.94053
G1 X562.1 Y190.5 E0.14108
G1 X562.1 Y210.5 E0.94053
G1 X567.5 Y210.5 E0.25394
G1 X567.5 Y190.5 E0.94053
G1 X570.5 Y190.5 E0.14108
G1 X570.5 Y210.5 E0.94053
G1 X575.9 Y210.5 E0.25394
G1 X575.9 Y190.5 E0.94053
G1 X578.9 Y190.5 E0.14108
G1 X578.9 Y210.5 E0.94053
G1 X584.3 Y210.5 E0.25394
G1 X584.3 Y190.5 E0.94053
G1 X587.3 Y190.5 E0.14108
G1 X587.3 Y210.5 E0.94053
G1 X592.7 Y210.5 E0.25394
G1 X592.7 Y190.5 E0.94053
G1 X595.7 Y190.5 E0.14108
G1 X595.7 Y210.5 E0.94053
G1 X601.1 Y210.5 E0.25394
G1 X601.1 Y190.5 E0.94053
G1 X604.1 Y190.5 E0.14108
G1 X604.1 Y210.5 E0.94053
G1 X609.5 Y210.5 E0.25394
G1 X609.5 Y190.5 E0.94053
G1 X612.5 Y190.5 E0.14108
G1 X612.5 Y213.5 E1.08161
G1 X441.5 Y213.5 E8.04151
G1 X441.5 Y190.5 E1.08161
G1 F1200 E-4
G1 F300 Z1.2
T1
M109 S200
M104 T0 S175
M107 P2
G1 F2100 E-0.5
;MESH:CalibrationMultiExtruder1(1)
G0 F4800 X441.5 Y190.5 Z1.2
G1 F300 Z1.2
G0 F4800 X436.43 Y150.772
;TYPE:SKIRT
G1 F300 Z0.3
G1 F2100 E0.5
G1 F600 X438.848 Y150.499 E0.06294
G1 X441.313 Y150.15 E0.06439
G1 X442.646 Y149.93 E0.03494
G1 X443.706 Y149.795 E0.02764
G1 X444.414 Y149.75 E0.01835
G1 X444.772 Y149.736 E0.00927
G1 X445.33 Y149.725 E0.01444
G1 X608.293 Y149.725 E4.21496
G1 X608.477 Y149.726 E0.00476
G1 X609.175 Y149.735 E0.01805
G1 X610.242 Y149.789 E0.02763
G1 X611.302 Y149.922 E0.02763
G1 X612.349 Y150.135 E0.02763
G1 X613.378 Y150.425 E0.02765
G1 X614.381 Y150.791 E0.02762
G1 X615.355 Y151.231 E0.02764
G1 X616.293 Y151.743 E0.02764
G1 X617.19 Y152.323 E0.02763
G1 X618.041 Y152.969 E0.02763
G1 X618.841 Y153.677 E0.02763
G1 X619.587 Y154.443 E0.02766
G1 X620.272 Y155.262 E0.02762
G1 X620.895 Y156.131 E0.02766
G1 X621.451 Y157.043 E0.02763
G1 X621.937 Y157.994 E0.02762
G1 X622.351 Y158.98 E0.02766
G1 X622.689 Y159.993 E0.02762
G1 X622.951 Y161.029 E0.02764
G1 X623.135 Y162.081 E0.02762
G1 X623.26 Y163.597 E0.03934
G1 X623.281 Y164.319 E0.01868
G1 X623.393 Y166.902 E0.06687
G1 X623.565 Y169.284 E0.06177
G1 X623.808 Y171.706 E0.06296
G1 X624.121 Y174.135 E0.06334
G1 X624.492 Y176.486 E0.06156
G1 X624.943 Y178.896 E0.06342
G1 X625.452 Y181.249 E0.06227
G1 X626.034 Y183.612 E0.06294
G1 X626.735 Y186.15 E0.0681
G1 X626.981 Y187.19 E0.02764
G1 X627.148 Y188.245 E0.02763
G1 X627.222 Y189.046 E0.02081
G1 X627.246 Y189.423 E0.00977
G1 X627.275 Y190.33 E0.02347
G1 X627.274 Y213.441 E0.59775
G1 X627.265 Y214.168 E0.0188
G1 X627.212 Y215.235 E0.02763
G1 X627.079 Y216.295 E0.02763
G1 X626.867 Y217.342 E0.02763
G1 X626.578 Y218.371 E0.02764
G1 X626.212 Y219.375 E0.02764
G1 X625.772 Y220.348 E0.02762
G1 X625.261 Y221.287 E0.02765
G1 X624.681 Y222.184 E0.02763
G1 X624.035 Y223.035 E0.02763
G1 X623.328 Y223.836 E0.02763
G1 X622.563 Y224.582 E0.02764
G1 X621.744 Y225.268 E0.02763
G1 X620.876 Y225.891 E0.02763
G1 X619.963 Y226.447 E0.02765
G1 X619.012 Y226.934 E0.02763
G1 X618.027 Y227.348 E0.02764
G1 X617.014 Y227.687 E0.02763
G1 X615.978 Y227.95 E0.02765
G1 X614.926 Y228.134 E0.02762
G1 X613.391 Y228.26 E0.03984
G1 X613.07 Y228.269 E0.00831
G1 X612.67 Y228.275 E0.01035
G1 X537.131 Y228.275 E1.95378
G1 X534.556 Y228.311 E0.06661
G1 X532.151 Y228.414 E0.06226
G1 X529.725 Y228.586 E0.0629
G1 X527.353 Y228.821 E0.06165
G1 X524.905 Y229.134 E0.06383
G1 X522.538 Y229.506 E0.06197
G1 X520.137 Y229.952 E0.06316
G1 X517.755 Y230.465 E0.06302
G1 X515.446 Y231.031 E0.06149
G1 X513.051 Y231.689 E0.06424
G1 X510.766 Y232.389 E0.06181
G1 X508.462 Y233.166 E0.06289
G1 X506.182 Y234.007 E0.06285
G1 X503.94 Y234.907 E0.06249
G1 X501.701 Y235.882 E0.06316
G1 X499.526 Y236.902 E0.06213
G1 X497.343 Y238 E0.0632
G1 X495.207 Y239.154 E0.06279
G1 X493.134 Y240.35 E0.0619
G1 X491.038 Y241.639 E0.06364
G1 X489.024 Y242.958 E0.06227
G1 X487.047 Y244.335 E0.06232
G1 X485.089 Y245.782 E0.06297
G1 X483.174 Y247.282 E0.06292
G1 X481.318 Y248.824 E0.06241
G1 X479.484 Y250.436 E0.06315
G1 X477.7 Y252.096 E0.06303
G1 X475.984 Y253.786 E0.06229
G1 X474.329 Y255.511 E0.06183
G1 X472.662 Y257.352 E0.06424
G1 X471.113 Y259.158 E0.06154
G1 X469.577 Y261.061 E0.06325
G1 X468.1 Y262.998 E0.063
G1 X466.69 Y264.958 E0.06245
G1 X465.342 Y266.95 E0.06221
G1 X464.03 Y269.013 E0.06323
G1 X462.791 Y271.087 E0.06249
G1 X461.609 Y273.199 E0.0626
G1 X460.478 Y275.362 E0.06313
G1 X459.427 Y277.519 E0.06206
G1 X458.424 Y279.732 E0.06284
G1 X457.477 Y281.991 E0.06335
G1 X456.593 Y284.277 E0.06339
G1 X455.801 Y286.518 E0.06148
G1 X455.051 Y288.842 E0.06316
G1 X454.383 Y291.13 E0.06165
G1 X453.759 Y293.521 E0.06391
G1 X453.214 Y295.878 E0.06257
G1 X452.735 Y298.248 E0.06254
G1 X452.325 Y300.63 E0.06252
G1 X451.98 Y303.043 E0.06305
G1 X451.704 Y305.448 E0.06261
G1 X451.496 Y307.859 E0.06259
G1 X451.357 Y310.265 E0.06233
G1 X451.285 Y312.736 E0.06394
G1 X451.275 Y314.104 E0.03538
G1 X451.274 Y331.46 E0.4489
G1 X451.264 Y332.187 E0.01881
G1 X451.209 Y333.254 E0.02763
G1 X451.075 Y334.314 E0.02763
G1 X450.861 Y335.361 E0.02764
G1 X450.57 Y336.389 E0.02763
G1 X450.203 Y337.393 E0.02765
G1 X449.762 Y338.366 E0.02763
G1 X449.25 Y339.304 E0.02764
G1 X448.669 Y340.2 E0.02762
G1 X448.022 Y341.051 E0.02765
G1 X447.313 Y341.85 E0.02763
G1 X446.547 Y342.595 E0.02764
G1 X445.727 Y343.28 E0.02764
G1 X444.858 Y343.902 E0.02764
G1 X443.945 Y344.457 E0.02764
G1 X442.993 Y344.942 E0.02763
G1 X442.008 Y345.355 E0.02763
G1 X440.994 Y345.693 E0.02765
G1 X439.958 Y345.954 E0.02763
G1 X438.906 Y346.137 E0.02762
G1 X437.403 Y346.26 E0.039
G1 X436.611 Y346.283 E0.02049
G1 X434.135 Y346.391 E0.0641
G1 X431.716 Y346.565 E0.06273
G1 X429.294 Y346.808 E0.06296
G1 X426.865 Y347.121 E0.06334
G1 X424.514 Y347.492 E0.06156
G1 X422.104 Y347.943 E0.06342
G1 X419.751 Y348.452 E0.06227
G1 X417.388 Y349.034 E0.06294
G1 X414.85 Y349.735 E0.0681
G1 X413.81 Y349.981 E0.02764
G1 X412.755 Y350.148 E0.02763
G1 X411.954 Y350.222 E0.02081
G1 X411.577 Y350.246 E0.00977
G1 X410.67 Y350.275 E0.02347
G1 X387.523 Y350.274 E0.59869
G1 X386.825 Y350.265 E0.01805
G1 X385.758 Y350.211 E0.02763
G1 X384.698 Y350.078 E0.02763
G1 X383.651 Y349.865 E0.02763
G1 X382.622 Y349.575 E0.02765
G1 X381.619 Y349.209 E0.02762
G1 X380.645 Y348.769 E0.02764
G1 X379.707 Y348.257 E0.02764
G1 X378.81 Y347.677 E0.02763
G1 X377.959 Y347.031 E0.02763
G1 X377.159 Y346.323 E0.02763
G1 X376.413 Y345.557 E0.02766
G1 X375.728 Y344.738 E0.02762
G1 X375.105 Y343.869 E0.02766
G1 X374.549 Y342.957 E0.02763
G1 X374.063 Y342.006 E0.02762
G1 X373.649 Y341.02 E0.02766
G1 X373.311 Y340.007 E0.02762
G1 X373.049 Y338.971 E0.02764
G1 X372.865 Y337.919 E0.02762
G1 X372.739 Y336.377 E0.04002
G1 X372.73 Y336.044 E0.00862
G1 X372.725 Y335.658 E0.00998
G1 X372.725 Y164.674 E4.42242
G1 X372.737 Y163.794 E0.02276
G1 X372.793 Y162.727 E0.02764
G1 X372.928 Y161.668 E0.02761
G1 X373.143 Y160.621 E0.02765
G1 X373.435 Y159.593 E0.02764
G1 X373.803 Y158.59 E0.02763
G1 X374.246 Y157.618 E0.02763
G1 X374.76 Y156.681 E0.02764
G1 X375.342 Y155.785 E0.02763
G1 X375.99 Y154.935 E0.02764
G1 X376.699 Y154.137 E0.02761
G1 X377.467 Y153.393 E0.02766
G1 X378.287 Y152.709 E0.02762
G1 X379.157 Y152.088 E0.02765
G1 X380.071 Y151.534 E0.02764
G1 X381.023 Y151.05 E0.02762
G1 X382.009 Y150.639 E0.02763
G1 X383.023 Y150.302 E0.02764
G1 X384.06 Y150.042 E0.02765
G1 X385.113 Y149.861 E0.02763
G1 X386.609 Y149.74 E0.03882
G1 X386.929 Y149.731 E0.00828
G1 X387.33 Y149.725 E0.01037
G1 X410.497 Y149.726 E0.5992
G1 X411.195 Y149.736 E0.01806
G1 X412.263 Y149.792 E0.02766
G1 X413.231 Y149.912 E0.02523
G1 X414.559 Y150.123 E0.03478
G1 X417.099 Y150.486 E0.06636
G1 X419.496 Y150.76 E0.0624
G1 X421.925 Y150.968 E0.06305
G1 X424.34 Y151.106 E0.06256
G1 X426.761 Y151.176 E0.06264
G1 X429.17 Y151.178 E0.06231
G1 X431.635 Y151.11 E0.06378
G1 X434.026 Y150.975 E0.06194
G1 X436.43 Y150.772 E0.0624
G1 F2100 E-0.5
G1 F300 Z1.3
G0 F4800 X436.175 Y331.175 Z1.3
;TYPE:WALL-INNER
G1 F300 Z0.3
G1 F2100 E0.5
G1 F600 X413.825 Y331.175 E0.57807
G1 X413.825 Y328.825 E0.06078
G1 X433.825 Y328.825 E0.51729
G1 X433.825 Y323.175 E0.14613
G1 X413.825 Y323.175 E0.51729
G1 X413.825 Y320.825 E0.06078
G1 X433.825 Y320.825 E0.51729
G1 X433.825 Y315.175 E0.14613
G1 X413.825 Y315.175 E0.51729
G1 X413.825 Y312.825 E0.06078
G1 X433.825 Y312.825 E0.51729
G1 X433.825 Y307.175 E0.14613
G1 X413.825 Y307.175 E0.51729
G1 X413.825 Y304.825 E0.06078
G1 X433.825 Y304.825 E0.51729
G1 X433.825 Y299.175 E0.14613
G1 X413.825 Y299.175 E0.51729
G1 X413.825 Y296.825 E0.06078
G1 X433.825 Y296.825 E0.51729
G1 X433.825 Y291.175 E0.14613
G1 X413.825 Y291.175 E0.51729
G1 X413.825 Y288.825 E0.06078
G1 X433.825 Y288.825 E0.51729
G1 X433.825 Y283.175 E0.14613
G1 X413.825 Y283.175 E0.51729
G1 X413.825 Y280.825 E0.06078
G1 X433.825 Y280.825 E0.51729
G1 X433.825 Y275.175 E0.14613
G1 X413.825 Y275.175 E0.51729
G1 X413.825 Y272.825 E0.06078
G1 X433.825 Y272.825 E0.51729
G1 X433.825 Y267.175 E0.14613
G1 X413.825 Y267.175 E0.51729
G1 X413.825 Y264.825 E0.06078
G1 X433.825 Y264.825 E0.51729
G1 X433.825 Y259.175 E0.14613
G1 X413.825 Y259.175 E0.51729
G1 X413.825 Y256.825 E0.06078
G1 X433.825 Y256.825 E0.51729
G1 X433.825 Y251.175 E0.14613
G1 X413.825 Y251.175 E0.51729
G1 X413.825 Y248.825 E0.06078
G1 X433.825 Y248.825 E0.51729
G1 X433.825 Y243.175 E0.14613
G1 X413.825 Y243.175 E0.51729
G1 X413.825 Y240.825 E0.06078
G1 X433.825 Y240.825 E0.51729
G1 X433.825 Y235.175 E0.14613
G1 X413.825 Y235.175 E0.51729
G1 X413.825 Y232.825 E0.06078
G1 X433.825 Y232.825 E0.51729
G1 X433.825 Y227.175 E0.14613
G1 X413.825 Y227.175 E0.51729
G1 X413.825 Y224.825 E0.06078
G1 X433.825 Y224.825 E0.51729
G1 X433.825 Y219.175 E0.14613
G1 X413.825 Y219.175 E0.51729
G1 X413.825 Y216.825 E0.06078
G1 X433.825 Y216.825 E0.51729
G1 X433.825 Y211.175 E0.14613
G1 X413.825 Y211.175 E0.51729
G1 X413.825 Y208.825 E0.06078
G1 X433.825 Y208.825 E0.51729
G1 X433.825 Y203.175 E0.14613
G1 X413.825 Y203.175 E0.51729
G1 X413.825 Y200.825 E0.06078
G1 X433.825 Y200.825 E0.51729
G1 X433.825 Y195.175 E0.14613
G1 X413.825 Y195.175 E0.51729
G1 X413.825 Y192.825 E0.06078
G1 X433.825 Y192.825 E0.51729
G1 X433.825 Y187.175 E0.14613
G1 X413.825 Y187.175 E0.51729
G1 X413.825 Y184.825 E0.06078
G1 X433.825 Y184.825 E0.51729
G1 X433.825 Y179.175 E0.14613
G1 X413.825 Y179.175 E0.51729
G1 X413.825 Y176.825 E0.06078
G1 X433.825 Y176.825 E0.51729
G1 X433.825 Y171.175 E0.14613
G1 X413.825 Y171.175 E0.51729
G1 X413.825 Y168.825 E0.06078
G1 X436.175 Y168.825 E0.57807
G1 X436.175 Y331.175 E4.1991
G0 F4800 X436.7 Y331.7
;TYPE:WALL-OUTER
G1 F600 X413.3 Y331.7 E0.60523
G1 X413.3 Y328.3 E0.08794
G1 X433.3 Y328.3 E0.51729
G1 X433.3 Y323.7 E0.11898
G1 X413.3 Y323.7 E0.51729
G1 X413.3 Y320.3 E0.08794
G1 X433.3 Y320.3 E0.51729
G1 X433.3 Y315.7 E0.11898
G1 X413.3 Y315.7 E0.51729
G1 X413.3 Y312.3 E0.08794
G1 X433.3 Y312.3 E0.51729
G1 X433.3 Y307.7 E0.11898
G1 X413.3 Y307.7 E0.51729
G1 X413.3 Y304.3 E0.08794
G1 X433.3 Y304.3 E0.51729
G1 X433.3 Y299.7 E0.11898
G1 X413.3 Y299.7 E0.51729
G1 X413.3 Y296.3 E0.08794
G1 X433.3 Y296.3 E0.51729
G1 X433.3 Y291.7 E0.11898
G1 X413.3 Y291.7 E0.51729
G1 X413.3 Y288.3 E0.08794
G1 X433.3 Y288.3 E0.51729
G1 X433.3 Y283.7 E0.11898
G1 X413.3 Y283.7 E0.51729
G1 X413.3 Y280.3 E0.08794
G1 X433.3 Y280.3 E0.51729
G1 X433.3 Y275.7 E0.11898
G1 X413.3 Y275.7 E0.51729
G1 X413.3 Y272.3 E0.08794
G1 X433.3 Y272.3 E0.51729
G1 X433.3 Y267.7 E0.11898
G1 X413.3 Y267.7 E0.51729
G1 X413.3 Y264.3 E0.08794
G1 X433.3 Y264.3 E0.51729
G1 X433.3 Y259.7 E0.11898
G1 X413.3 Y259.7 E0.51729
G1 X413.3 Y256.3 E0.08794
G1 X433.3 Y256.3 E0.51729
G1 X433.3 Y251.7 E0.11898
G1 X413.3 Y251.7 E0.51729
G1 X413.3 Y248.3 E0.08794
G1 X433.3 Y248.3 E0.51729
G1 X433.3 Y243.7 E0.11898
G1 X413.3 Y243.7 E0.51729
G1 X413.3 Y240.3 E0.08794
G1 X433.3 Y240.3 E0.51729
G1 X433.3 Y235.7 E0.11898
G1 X413.3 Y235.7 E0.51729
G1 X413.3 Y232.3 E0.08794
G1 X433.3 Y232.3 E0.51729
G1 X433.3 Y227.7 E0.11898
G1 X413.3 Y227.7 E0.51729
G1 X413.3 Y224.3 E0.08794
G1 X433.3 Y224.3 E0.51729
G1 X433.3 Y219.7 E0.11898
G1 X413.3 Y219.7 E0.51729
G1 X413.3 Y216.3 E0.08794
G1 X433.3 Y216.3 E0.51729
G1 X433.3 Y211.7 E0.11898
G1 X413.3 Y211.7 E0.51729
G1 X413.3 Y208.3 E0.08794
G1 X433.3 Y208.3 E0.51729
G1 X433.3 Y203.7 E0.11898
G1 X413.3 Y203.7 E0.51729
G1 X413.3 Y200.3 E0.08794
G1 X433.3 Y200.3 E0.51729
G1 X433.3 Y195.7 E0.11898
G1 X413.3 Y195.7 E0.51729
G1 X413.3 Y192.3 E0.08794
G1 X433.3 Y192.3 E0.51729
G1 X433.3 Y187.7 E0.11898
G1 X413.3 Y187.7 E0.51729
G1 X413.3 Y184.3 E0.08794
G1 X433.3 Y184.3 E0.51729
G1 X433.3 Y179.7 E0.11898
G1 X413.3 Y179.7 E0.51729
G1 X413.3 Y176.3 E0.08794
G1 X433.3 Y176.3 E0.51729
G1 X433.3 Y171.7 E0.11898
G1 X413.3 Y171.7 E0.51729
G1 X413.3 Y168.3 E0.08794
G1 X436.7 Y168.3 E0.60523
G1 X436.7 Y331.7 E4.22626
G1 F2100 E-0.5
G1 F300 Z1.3
G0 F4800 X501.825 Y187.175 Z1.3
;TYPE:WALL-INNER
G1 F300 Z0.3
G1 F2100 E0.5
G1 F600 X501.825 Y167.175 E0.51729
G1 X496.175 Y167.175 E0.14613
G1 X496.175 Y187.175 E0.51729
G1 X493.825 Y187.175 E0.06078
G1 X493.825 Y167.175 E0.51729
G1 X488.175 Y167.175 E0.14613
G1 X488.175 Y187.175 E0.51729
G1 X485.825 Y187.175 E0.06078
G1 X485.825 Y167.175 E0.51729
G1 X480.175 Y167.175 E0.14613
G1 X480.175 Y187.175 E0.51729
G1 X477.825 Y187.175 E0.06078
G1 X477.825 Y167.175 E0.51729
G1 X472.175 Y167.175 E0.14613
G1 X472.175 Y187.175 E0.51729
G1 X469.825 Y187.175 E0.06078
G1 X469.825 Y167.175 E0.51729
G1 X464.175 Y167.175 E0.14613
G1 X464.175 Y187.175 E0.51729
G1 X461.825 Y187.175 E0.06078
G1 X461.825 Y167.175 E0.51729
G1 X456.175 Y167.175 E0.14613
G1 X456.175 Y187.175 E0.51729
G1 X453.825 Y187.175 E0.06078
G1 X453.825 Y167.175 E0.51729
G1 X448.175 Y167.175 E0.14613
G1 X448.175 Y187.175 E0.51729
G1 X445.825 Y187.175 E0.06078
G1 X445.825 Y164.825 E0.57807
G1 X608.175 Y164.825 E4.1991
G1 X608.175 Y187.175 E0.57807
G1 X605.825 Y187.175 E0.06078
G1 X605.825 Y167.175 E0.51729
G1 X600.175 Y167.175 E0.14613
G1 X600.175 Y187.175 E0.51729
G1 X597.825 Y187.175 E0.06078
G1 X597.825 Y167.175 E0.51729
G1 X592.175 Y167.175 E0.14613
G1 X592.175 Y187.175 E0.51729
G1 X589.825 Y187.175 E0.06078
G1 X589.825 Y167.175 E0.51729
G1 X584.175 Y167.175 E0.14613
G1 X584.175 Y187.175 E0.51729
G1 X581.825 Y187.175 E0.06078
G1 X581.825 Y167.175 E0.51729
G1 X576.175 Y167.175 E0.14613
G1 X576.175 Y187.175 E0.51729
G1 X573.825 Y187.175 E0.06078
G1 X573.825 Y167.175 E0.51729
G1 X568.175 Y167.175 E0.14613
G1 X568.175 Y187.175 E0.51729
G1 X565.825 Y187.175 E0.06078
G1 X565.825 Y167.175 E0.51729
G1 X560.175 Y167.175 E0.14613
G1 X560.175 Y187.175 E0.51729
G1 X557.825 Y187.175 E0.06078
G1 X557.825 Y167.175 E0.51729
G1 X552.175 Y167.175 E0.14613
G1 X552.175 Y187.175 E0.51729
G1 X549.825 Y187.175 E0.06078
G1 X549.825 Y167.175 E0.51729
G1 X544.175 Y167.175 E0.14613
G1 X544.175 Y187.175 E0.51729
G1 X541.825 Y187.175 E0.06078
G1 X541.825 Y167.175 E0.51729
G1 X536.175 Y167.175 E0.14613
G1 X536.175 Y187.175 E0.51729
G1 X533.825 Y187.175 E0.06078
G1 X533.825 Y167.175 E0.51729
G1 X528.175 Y167.175 E0.14613
G1 X528.175 Y187.175 E0.51729
G1 X525.825 Y187.175 E0.06078
G1 X525.825 Y167.175 E0.51729
G1 X520.175 Y167.175 E0.14613
G1 X520.175 Y187.175 E0.51729
G1 X517.825 Y187.175 E0.06078
G1 X517.825 Y167.175 E0.51729
G1 X512.175 Y167.175 E0.14613
G1 X512.175 Y187.175 E0.51729
G1 X509.825 Y187.175 E0.06078
G1 X509.825 Y167.175 E0.51729
G1 X504.175 Y167.175 E0.14613
G1 X504.175 Y187.175 E0.51729
G1 X501.825 Y187.175 E0.06078
G0 F4800 X501.3 Y187.7
M104 T0 S210
;TYPE:WALL-OUTER
G1 F600 X501.3 Y167.7 E0.51729
G1 X496.7 Y167.7 E0.11898
G1 X496.7 Y187.7 E0.51729
G1 X493.3 Y187.7 E0.08794
G1 X493.3 Y167.7 E0.51729
G1 X488.7 Y167.7 E0.11898
G1 X488.7 Y187.7 E0.51729
G1 X485.3 Y187.7 E0.08794
G1 X485.3 Y167.7 E0.51729
G1 X480.7 Y167.7 E0.11898
G1 X480.7 Y187.7 E0.51729
G1 X477.3 Y187.7 E0.08794
G1 X477.3 Y167.7 E0.51729
G1 X472.7 Y167.7 E0.11898
G1 X472.7 Y187.7 E0.51729
G1 X469.3 Y187.7 E0.08794
G1 X469.3 Y167.7 E0.51729
G1 X464.7 Y167.7 E0.11898
G1 X464.7 Y187.7 E0.51729
G1 X461.3 Y187.7 E0.08794
G1 X461.3 Y167.7 E0.51729
G1 X456.7 Y167.7 E0.11898
G1 X456.7 Y187.7 E0.51729
G1 X453.3 Y187.7 E0.08794
G1 X453.3 Y167.7 E0.51729
G1 X448.7 Y167.7 E0.11898
G1 X448.7 Y187.7 E0.51729
G1 X445.3 Y187.7 E0.08794
G1 X445.3 Y164.3 E0.60523
G1 X608.7 Y164.3 E4.22626
G1 X608.7 Y187.7 E0.60523
G1 X605.3 Y187.7 E0.08794
G1 X605.3 Y167.7 E0.51729
G1 X600.7 Y167.7 E0.11898
G1 X600.7 Y187.7 E0.51729
G1 X597.3 Y187.7 E0.08794
G1 X597.3 Y167.7 E0.51729
G1 X592.7 Y167.7 E0.11898
G1 X592.7 Y187.7 E0.51729
G1 X589.3 Y187.7 E0.08794
G1 X589.3 Y167.7 E0.51729
G1 X584.7 Y167.7 E0.11898
G1 X584.7 Y187.7 E0.51729
G1 X581.3 Y187.7 E0.08794
G1 X581.3 Y167.7 E0.51729
G1 X576.7 Y167.7 E0.11898
G1 X576.7 Y187.7 E0.51729
G1 X573.3 Y187.7 E0.08794
G1 X573.3 Y167.7 E0.51729
G1 X568.7 Y167.7 E0.11898
G1 X568.7 Y187.7 E0.51729
G1 X565.3 Y187.7 E0.08794
G1 X565.3 Y167.7 E0.51729
G1 X560.7 Y167.7 E0.11898
G1 X560.7 Y187.7 E0.51729
G1 X557.3 Y187.7 E0.08794
G1 X557.3 Y167.7 E0.51729
G1 X552.7 Y167.7 E0.11898
G1 X552.7 Y187.7 E0.51729
G1 X549.3 Y187.7 E0.08794
G1 X549.3 Y167.7 E0.51729
G1 X544.7 Y167.7 E0.11898
G1 X544.7 Y187.7 E0.51729
G1 X541.3 Y187.7 E0.08794
G1 X541.3 Y167.7 E0.51729
G1 X536.7 Y167.7 E0.11898
G1 X536.7 Y187.7 E0.51729
G1 X533.3 Y187.7 E0.08794
G1 X533.3 Y167.7 E0.51729
G1 X528.7 Y167.7 E0.11898
G1 X528.7 Y187.7 E0.51729
G1 X525.3 Y187.7 E0.08794
G1 X525.3 Y167.7 E0.51729
G1 X520.7 Y167.7 E0.11898
G1 X520.7 Y187.7 E0.51729
G1 X517.3 Y187.7 E0.08794
G1 X517.3 Y167.7 E0.51729
G1 X512.7 Y167.7 E0.11898
G1 X512.7 Y187.7 E0.51729
G1 X509.3 Y187.7 E0.08794
G1 X509.3 Y167.7 E0.51729
G1 X504.7 Y167.7 E0.11898
G1 X504.7 Y187.7 E0.51729
G1 X501.3 Y187.7 E0.08794
G1 F2100 E-0.5
G1 F300 Z1.3
;MESH:NONMESH
G0 F4800 X436.175 Y251.175 Z1.3
;TIME_ELAPSED:1391.714584
;LAYER:1
M140 S50
M106 S127.5 P2
;MESH:CalibrationMultiExtruder1(1)
G0 F7800 X436.175 Y251.175 Z1.6
;TYPE:WALL-INNER
G1 F300 Z0.6
G1 F2100 E0.5
G1 F1050 X423.825 Y251.175 E0.31943
G1 X423.825 Y248.825 E0.06078
G1 X436.175 Y248.825 E0.31943
G1 X436.175 Y251.175 E0.06078
G0 F7800 X436.7 Y251.7
;TYPE:WALL-OUTER
G1 F1050 X423.3 Y251.7 E0.34658
G1 X423.3 Y248.3 E0.08794
G1 X436.7 Y248.3 E0.34658
G1 X436.7 Y251.7 E0.08794
G1 F2100 E-0.5
G1 F300 Z1.6
G0 F7800 X525.825 Y177.175 Z1.6
;TYPE:WALL-INNER
G1 F300 Z0.6
G1 F2100 E0.5
G1 F1050 X525.825 Y164.825 E0.31943
G1 X528.175 Y164.825 E0.06078
G1 X528.175 Y177.175 E0.31943
G1 X525.825 Y177.175 E0.06078
G0 F7800 X525.3 Y177.7
;TYPE:WALL-OUTER
G1 F1050 X525.3 Y164.3 E0.34658
G1 X528.7 Y164.3 E0.08794
G1 X528.7 Y177.7 E0.34658
G1 X525.3 Y177.7 E0.08794
G1 F1200 E-4
G1 F300 Z1.5
T0
M109 S210
M104 T1 S0
M106 S127.5
G1 F1200 E3.3
;MESH:CalibrationMultiExtruder1
G0 F7800 X525.3 Y177.7 Z1.5
G1 F300 Z1.5
G0 F7800 X388.5 Y249.5
;TYPE:WALL-INNER
G1 F300 Z0.6
G1 F1500 E0.7
G1 F883.6 X399.5 Y249.5 E0.51729
G1 X399.5 Y250.5 E0.04703
G1 X388.5 Y250.5 E0.51729
G1 X388.5 Y249.5 E0.04703
G0 F7800 X387.5 Y248.5
;TYPE:WALL-OUTER
G1 F883.6 X400.5 Y248.5 E0.61134
G1 X400.5 Y251.5 E0.14108
G1 X387.5 Y251.5 E0.61134
G1 X387.5 Y248.5 E0.14108
G1 F1500 E-0.7
G1 F300 Z1.5
G0 F7800 X526.5 Y201.5 Z1.5
;TYPE:WALL-INNER
G1 F300 Z0.6
G1 F1500 E0.7
G1 F883.6 X527.5 Y201.5 E0.04703
G1 X527.5 Y212.5 E0.51729
G1 X526.5 Y212.5 E0.04703
G1 X526.5 Y201.5 E0.51729
G0 F7800 X525.5 Y200.5
;TYPE:WALL-OUTER
G1 F883.6 X528.5 Y200.5 E0.14108
G1 X528.5 Y213.5 E0.61134
G1 X525.5 Y213.5 E0.14108
G1 X525.5 Y200.5 E0.61134
;TIME_ELAPSED:1420.668188
G1 F1500 E-0.7
M140 S0
M141 S0
M82 ;absolute extrusion mode
M107
G1 X5 Y5 F3000 ;Wipe out
G90 ;Absolute positionning
G1 Z10
T0
G1 X0 Y0 ;Present print
M106 S0 ;Turn-off fan
M104 T0 S0 ;Turn-off hotend
M104 T1 S0 ;Turn-off hotend
M140 S0 ;Turn-off bed
M84 X Y E ;Disable all steppers but Z
M98 P"endPrint.g"
M83 ;relative extrusion mode
M104 S0
;End of Gcode
;SETTING_3 {"global_quality": "[general]\\nversion = 4\\nname = Setting XY CAL\\
;SETTING_3 ndefinition = fabbrix_elemento_v2\\n\\n[metadata]\\nquality_type = st
;SETTING_3 andard\\nsetting_version = 14\\ntype = quality_changes\\n\\n[values]\
;SETTING_3 \nadhesion_type = skirt\\nlayer_height_0 = 0.3\\nmaterial_bed_tempera
;SETTING_3 ture = 50\\nmaterial_bed_temperature_layer_0 = 50\\nprime_tower_enabl
;SETTING_3 e = False\\nprime_tower_position_x = 60\\nprime_tower_position_y = 30
;SETTING_3 \\nretraction_combing = off\\n\\n", "extruder_quality": ["[general]\\
;SETTING_3 nversion = 4\\nname = Setting XY CAL\\ndefinition = fabbrix_elemento_
;SETTING_3 v2\\n\\n[metadata]\\nintent_category = default\\nquality_type = stand
;SETTING_3 ard\\nposition = 0\\nsetting_version = 14\\ntype = quality_changes\\n
;SETTING_3 \\n[values]\\nbottom_layers = 0\\ninfill_sparse_density = 0\\nmateria
;SETTING_3 l_print_temperature = 210\\nmultiple_mesh_overlap = 0.0\\nprime_tower
;SETTING_3 _flow = 120\\nprime_tower_min_volume = 12\\nretraction_amount = 0.7\\
;SETTING_3 nretraction_hop = 0.9\\nretraction_hop_after_extruder_switch_height =
;SETTING_3  0.9\\nretraction_hop_enabled = True\\nskirt_line_count = 4\\nspeed_l
;SETTING_3 ayer_0 = 10\\nspeed_travel = 180\\nswitch_extruder_retraction_amount 
;SETTING_3 = 4\\ntop_layers = 0\\nwall_line_count = 2\\nz_seam_corner = z_seam_c
;SETTING_3 orner_outer\\nz_seam_position = frontleft\\nz_seam_relative = True\\n
;SETTING_3 zig_zaggify_infill = True\\n\\n", "[general]\\nversion = 4\\nname = S
;SETTING_3 etting XY CAL\\ndefinition = fabbrix_elemento_v2\\n\\n[metadata]\\nin
;SETTING_3 tent_category = default\\nquality_type = standard\\nposition = 1\\nse
;SETTING_3 tting_version = 14\\ntype = quality_changes\\n\\n[values]\\nbottom_la
;SETTING_3 yers = 0\\ninfill_sparse_density = 0\\ninitial_bottom_layers = 0\\nre
;SETTING_3 traction_amount = 0.5\\nretraction_hop = 1\\nretraction_hop_after_ext
;SETTING_3 ruder_switch_height = 0.9\\nretraction_hop_enabled = True\\nretractio
;SETTING_3 n_speed = 35\\nspeed_layer_0 = 10\\nspeed_travel = 180\\nswitch_extru
;SETTING_3 der_retraction_amount = 4\\ntop_layers = 0\\nwall_line_count = 2\\n\\
;SETTING_3 n"]}
